Name,Address,Suburb,Postcode,State,Business Category,LGA,Region
Action Fitness Club,63 Mortlake Road,Warrnambool,3280,VIC,Fitness centre,Warrnambool (C),Barwon South Western Region
Active Lifestyle Specialists,374A Warrugal Road,Ashburton,3147,VIC,Fitness centre,Monash (C); Boroondara (C),Eastern Metropolitan Region
Alexandra Community Leisure Centre,Community Centre,Alexandra,3714,VIC,Fitness centre,Murrindindi (S),Hume Region
Ballarat YMCA ,122 Armstrong Street,Ballarat South,3350,VIC,Fitness centre,Ballarat (C),Grampians Region
Bass Coast YMCA,c/- 10 -12 Church Street,Cowes,3922,VIC,Fitness centre,Bass Coast,Gippsland
Beach House Dandenong,101-103 Lonsdale Street,Dandenong,3175,VIC,Fitness centre,Greater Dandenong (C),Southern Metropolitan Region
Beach House Fountain Gate,"Unit 6, Brechin Drive",Fountain Gate,3805,VIC,Fitness centre,Casey (C),Southern Metropolitan Region
Beach House Mornington,7 Millgate Drive,Mornington,3931,VIC,Fitness centre,Mornington Peninsula (S),Southern Metropolitan Region
Beachside Fitness Centre,35 Brunel Road,Seaford,3198,VIC,Fitness centre,Frankston (C),Southern Metropolitan Region
Beaconsfield Squash and Fitness Centre,29 Wood Street,Beaconsfield,3807,VIC,Fitness centre,Cardinia (S); Casey (C),Southern Metropolitan Region
Bell Street Fitness,96 Bell Street,Coburg,3058,VIC,Fitness centre,Moreland (C),North and West Metropolitan Region
Benalla Indoor Recreation Centre,Ackerley Avenue,Benalla,3672,VIC,Fitness centre,Mansfield (S); Benalla (RC),Hume Region
Berry Fitness Centre,218 Nepean Highway,Edithvale,3196,VIC,Fitness centre,Kingston (C),Southern Metropolitan Region
Berwick Leisure Centre,79 Manuka Road,Berwick,3806,VIC,Fitness centre,Casey (C),Southern Metropolitan Region
Body World Balaclava,"Top Floor, 285 Carlisle Street",St Kilda East,3183,VIC,Fitness centre,Port Phillip (C); Glen Eira (C),Southern Metropolitan Region
Body World Camberwell,849 Burwood Road,Hawthorn,3123,VIC,Fitness centre,Boroondara (C),Eastern Metropolitan Region
Boronia Busybodies,29 Erica Avenue,Boronia,3155,VIC,Fitness centre,Maroondah (C); Knox (C),Eastern Metropolitan Region
Bright Sports Centre,47 Gavan Street,Bright,3741,VIC,Fitness centre,Alpine (S),Hume Region
Brighton Beach Health Club,24 The Esplanade,Brighton,3186,VIC,Fitness centre,Bayside (C),Southern Metropolitan Region
Bruno's Gym,15 Colochester Road,Rosebud,3939,VIC,Fitness centre,Mornington Peninsula (S),Southern Metropolitan Region
Busy Body Health & Fitness Centre,133 Johnson Street,Fitzroy,3065,VIC,Fitness centre,Yarra (C),North and West Metropolitan Region
Carlton Fitness Zone,699 Nicholson Street,Carlton North,3054,VIC,Fitness centre,Yarra (C); Melbourne (C),North and West Metropolitan Region
Carrington Park Leisure Centre,20 O'Connor Road,Knoxfield,3180,VIC,Fitness centre,Knox (C),Eastern Metropolitan Region
Chris' Gym,586 Burwood Road,Hawthorn,3122,VIC,Fitness centre,Boroondara (C),Eastern Metropolitan Region
Club Lifestyle,79 Mahoney Road,Forest Hill,3131,VIC,Fitness centre,Whitehorse (C),Eastern Metropolitan Region
Colac Squash and Leisure Centre,78 Dennis Street,Colac,3250,VIC,Fitness centre,Colac-Otway (S),Barwon South Western Region
Colchester Indoor Tennis & Fitness,15 Colchester Road,Rosebud,3939,VIC,Fitness centre,Mornington Peninsula (S),Southern Metropolitan Region
Contours Altona North,2/216-230 Blackshaws Road,Altona North,3025,VIC,Fitness centre,Maribyrnong (C); Hobsons Bay (C),North and West Metropolitan Region
Contours Bacchus Marsh,Shop 2 & 3 Bacchus Marsh Village Shopping Centre,Bacchus Marsh,3340,VIC,Fitness centre,Wyndham (C); Moorabool (S); Melton (S),Grampians Region
Contours Balaclava,Level 1,Balaclava,3183,VIC,Fitness centre,Port Phillip (C),Southern Metropolitan Region
Contours Ballarat,Level 1,Ballarat,3350,VIC,Fitness centre,Ballarat (C),Grampians Region
Contours Bendigo,130a Mollison Street,Bendigo,3550,VIC,Fitness centre,Greater Bendigo (C),Loddon-Mallee Region
Contours Blackburn North,"North Blackburn Shopping Centre, Shop 2A",Blackburn North,3130,VIC,Fitness centre,Whitehorse (C),Eastern Metropolitan Region
Contours Braybrook,"Suite 3, Unit 16",Braybrook,3019,VIC,Fitness centre,Maribyrnong (C),North and West Metropolitan Region
Contours Brighton,1st Floor,Brighton,3186,VIC,Fitness centre,Bayside (C),Southern Metropolitan Region
Contours Camberwell,965 Burke Road,Camberwell,3124,VIC,Fitness centre,Boroondara (C),Eastern Metropolitan Region
Contours Carnegie,476 Neerim Road,Murrumbeena,3163,VIC,Fitness centre,Glen Eira (C),Southern Metropolitan Region
Contours Caroline Springs,Level 1,Caroline Springs,3023,VIC,Fitness centre,Brimbank (C),North and West Metropolitan Region
Contours Chadstone,Chadstone Shopping Centre Shop B110A,Chadstone,3148,VIC,Fitness centre,Stonnington (C); Monash (C),Southern Metropolitan Region; Eastern Metropolitan Region
Contours Craigieburn,Cnr Walter Street and Hothlyn Drive,Craigieburn,3064,VIC,Fitness centre,Whittlesea (C); Hume (C),North and West Metropolitan Region
Contours Epping,39 Yale Drive,Epping,3076,VIC,Fitness centre,Whittlesea (C),North and West Metropolitan Region
Contours Geelong East,71 Bellarine Highway,East Geelong,3219,VIC,Fitness centre,Greater Geelong (C),Barwon South Western Region
Contours Geelong West,2/131 Shannon Avenue,Manifold Heights,3218,VIC,Fitness centre,Greater Geelong (C),Barwon South Western Region
Contours Gisborne,28B Aitken Street,Gisborne,3437,VIC,Fitness centre,Macedon Ranges (S); Melton (S),Loddon-Mallee Region
Contours Glenroy,14 Belair Avenue,Glenroy,3046,VIC,Fitness centre,Moreland (C),North and West Metropolitan Region
Contours Highton,Level 1,Highton,3216,VIC,Fitness centre,Greater Geelong (C),Barwon South Western Region
Contours Keilor East,34 Amis Crescent,Keilor East,3033,VIC,Fitness centre,Moonee Valley (C),North and West Metropolitan Region
Contours Melton,555 High Street,Melton,3337,VIC,Fitness centre,Wyndham (C); Melton (S),North and West Metropolitan Region
Contours Moonee Ponds,"Level 1, Phillips Arcade",Moonee Ponds,3039,VIC,Fitness centre,Moonee Valley (C),North and West Metropolitan Region
Contours Mount Waverley,2 Centreway,Mount Waverley,3149,VIC,Fitness centre,Monash (C),Eastern Metropolitan Region
Contours Niddrie,8 Treadwell Road,Niddrie,3042,VIC,Fitness centre,Moonee Valley (C); Brimbank (C),North and West Metropolitan Region
Contours Ocean Grove,"Suite 2, Level 1",Ocean Grove,3226,VIC,Fitness centre,Greater Geelong (C),Barwon South Western Region
Contours Shepparton,Suite 2B,Shepparton,3630,VIC,Fitness centre,Greater Shepparton (C),Hume Region
Contours Tarneit,Wyndham Village Shopping Centre,Tarneit,3029,VIC,Fitness centre,Wyndham (C),North and West Metropolitan Region
Contours Vermont South,Shop 2,Vermont South,3133,VIC,Fitness centre,Whitehorse (C); Maroondah (C),Eastern Metropolitan Region
Contours Wendouree,Level 1,Wendouree,3355,VIC,Fitness centre,Ballarat (C),Grampians Region
Contours Werribee,Level 1,Werribee,3030,VIC,Fitness centre,Wyndham (C); Melton (S); Brimbank (C),North and West Metropolitan Region
Contours Westmeadows,Unit 4,Westmeadows,3049,VIC,Fitness centre,Hume (C),North and West Metropolitan Region
Corporate Fitness Club,Lower Ground,Melbourne,3000,VIC,Fitness centre,Melbourne,North and West Metropolitan Region
Cranbourne Fitness,Corner Brunt Avenue & Codrington Street,Cranbourne,3977,VIC,Fitness centre,Frankston (C); Casey (C),Southern Metropolitan Region
Croydon Fitness Centre,24 Croydon Road,Croydon,3136,VIC,Fitness centre,Maroondah (C),Eastern Metropolitan Region
Darebin Community Sports Stadium,857 Plenty Road,Reservoir,3073,VIC,Fitness centre,Darebin,North and West Metropolitan Region
Definition Fitness Centre,352 Blackburn Road,Doncaster East,3109,VIC,Fitness centre,Manningham (C),Eastern Metropolitan Region
Diamond Valley Squash & Fitness Centre,434 Grimshaw Street,Bundoora,3083,VIC,Fitness centre,Whittlesea; Darebin; Banyule,North and West Metropolitan Region
Dingley Fitness Healthlink,Corner Centre Dandenong & Tootal Roads,Dingley,3172,VIC,Fitness centre,Greater Dandenong (C),Southern Metropolitan Region
Docklands Gym,Ground Floor,Melbourne,3000,VIC,Fitness centre,Melbourne,North and West Metropolitan Region
Doherty's City Gym,45-49 Weston Street,Brunswick,3056,VIC,Fitness centre,Moreland (C); ,North and West Metropolitan Region; 
Dynamic Aerobic Studio,Coleman Parade,Glen Waverley,3150,VIC,Fitness centre,Monash (C),Eastern Metropolitan Region
Echuca Sporting Complex,Butcher Street,Echuca,3564,VIC,Fitness centre,Campaspe (S),Loddon-Mallee Region
Eclipse Family Fitness,22-24 Jennings Street,Kyneton,3444,VIC,Fitness centre,Macedon Ranges (S),Loddon-Mallee Region
Edwards Lake Health Club,771 Gilbert Road,Reservoir,3073,VIC,Fitness centre,Darebin (C),North and West Metropolitan Region
Equilibrium Health & Fitness - East Doncaster,136 - 140 Andersons Creek Road,Doncaster East,3109,VIC,Fitness centre,Manningham (C),Eastern Metropolitan Region
Equilibrium Health & Fitness - North Melbourne,1st Floor,North Melbourne,3051,VIC,Fitness centre,Melbourne (C),North and West Metropolitan Region
Everything for Women,Rear 132 Nepean Highway,Seaford,3199,VIC,Fitness centre,Frankston (C),Southern Metropolitan Region
Evolution,Level 1/10 Stutt Avenue,Doncaster,3108,VIC,Fitness centre,Manningham (C),Eastern Metropolitan Region
Evolution Sports & Fitness Centre,Cnr Ellis Street and Edwards Road,Bendigo,3550,VIC,Fitness centre,Greater Bendigo (C),Loddon-Mallee Region
Feelgood Family Fitness Centre,88 Edwards Road,Bendigo,3550,VIC,Fitness centre,Greater Bendigo (C),Loddon-Mallee Region
Fenix Fitness Coburg,64-69 Gaffney Street,Coburg,3058,VIC,Fitness centre,Moreland (C),North and West Metropolitan Region
Fenix Fitness Mooroolbark,14 Manchester Road,Mooroolbark,3138,VIC,Fitness centre,Yarra Ranges (S); Maroondah (C),Eastern Metropolitan Region
Fenix Fitness Point Cook,"Level 1, 2 Main Street",Point Cook,3030,VIC,Fitness centre,Wyndham (C),North and West Metropolitan Region
Fenix Fitness Taylors Lakes,Watergardens Shopping Centre,Taylors Lakes,3038,VIC,Fitness centre,Melton (S); Brimbank (C),North and West Metropolitan Region
Fernwood Altona,"Basement Level, Altona Gate Shopping Centre",Altona North,3025,VIC,Fitness centre,Maribyrnong (C); Hobsons Bay (C),North and West Metropolitan Region
Fernwood Ballarat,102-106 Lydiard Street North,Ballarat,3350,VIC,Fitness centre,Ballarat (C),Grampians Region
Fernwood Bell Post,Bellpost Shopping Centre,Norlane,3214,VIC,Fitness centre,Greater Geelong (C),Barwon South Western Region
Fernwood Bendigo,Level 1,Bendigo,3550,VIC,Fitness centre,Greater Bendigo (C),Loddon-Mallee Region
Fernwood Bulleen,"Lower Level, Bulleen Plaza",Bulleen,3105,VIC,Fitness centre,Manningham (C),Eastern Metropolitan Region
Fernwood Cairnlea,Level 1,Cairnlea,3023,VIC,Fitness centre,Brimbank (C),North and West Metropolitan Region
Fernwood Camberwell,12-16 Camberwell Road,Hawthorn East,3124,VIC,Fitness centre,Boroondara (C),Eastern Metropolitan Region
Fernwood Carlton,193 - 197 Nicholson Street,Carlton,3053,VIC,Fitness centre,Melbourne (C),North and West Metropolitan Region
Fernwood Chirnside Park,"Unit 3, 286 Maroondah Highway",Chirnside Park,3116,VIC,Fitness centre,Yarra Ranges,Eastern Metro
Fernwood Epping,Corner High Street and Childs Road,Epping,3076,VIC,Fitness centre,Whittlesea (C),North and West Metropolitan Region
Fernwood Greensborough,Greensborough Plaza,Greensborough,3088,VIC,Fitness centre,Nillumbik (S); Banyule (C),North and West Metropolitan Region
Fernwood Melbourne City,475 Flinders Lane,Melbourne,3000,VIC,Fitness centre,Melbourne (C),North and West Metropolitan Region
Fernwood Melton,Level 1,Melton,3337,VIC,Fitness centre,Wyndham (C); Melton (S),North and West Metropolitan Region
Fernwood Mitcham,602 Whitehorse Road,Mitcham,3132,VIC,Fitness centre,Whitehorse (C); Manningham (C),Eastern Metropolitan Region
Fernwood Mornington,Peninsula Homemaker Centre,Mornington,3931,VIC,Fitness centre,Mornington Peninsula (S),Southern Metropolitan Region
Fernwood Narre Warren,100 Victor Crescent,Narre Warren,3805,VIC,Fitness centre,Casey (C),Southern Metropolitan Region
Fernwood Preston,99 Bell Street,Preston,3072,VIC,Fitness centre,Darebin (C),North and West Metropolitan Region
Fernwood Southland,1261 Nepean Highway,Cheltenham,3192,VIC,Fitness centre,Kingston (C); Bayside (C),Southern Metropolitan Region
Fernwood St Kilda,203 Fitzroy Street,St Kilda,3182,VIC,Fitness centre,Port Phillip (C),Southern Metropolitan Region
Fernwood Sydenham,511 - 521 Melton Highway,Sydenham,3037,VIC,Fitness centre,Melton (S); Brimbank (C),North and West Metropolitan Region
Fernwood Tullamarine,Unit 1/10 Carrick Drive,Tullamarine,3043,VIC,Fitness centre,Brimbank (C),North and West Metropolitan Region
Fernwood Waurn Ponds,Waurn Ponds Plaza Tenancy 3,Waurn Ponds,3216,VIC,Fitness centre,Surf Coast (S); Greater Geelong (C); Colac-Otway (S); Golden Plains (S),Grampians Region; Barwon South Western Region
Fernwood Yarraville,5/290 Whitehall Street,Yarraville,3013,VIC,Fitness centre,Maribyrnong (C),North and West Metropolitan Region
Fitness 405,Level 1/470-480 High Street,Northcote,3070,VIC,Fitness centre,Darebin (C),North and West Metropolitan Region
Fitness Central,558 High Street,Mount Waverley,3149,VIC,Fitness centre,Monash (C),Eastern Metropolitan Region
Fitness First Bayside,241 - 245 Bay Road,Highett,3190,VIC,Fitness centre,Kingston (C); Bayside (C),Southern Metro
Fitness First Bourke Street,"Level 2, 341-345 Bourke Street",Melbourne,3000,VIC,Fitness centre,Melbourne (C),North and West Metropolitan Region
Fitness First Chadstone Platinum,"Level 1, Chadstone Shopping Centre",Chadstone,3148,VIC,Fitness centre,Stonnington (C); Monash (C),Southern Metropolitan Region; Eastern Metropolitan Region
Fitness First Collins Street,"Level 1, 546 Collins Street",Melbourne,3000,VIC,Fitness centre,Melbourne (C),North and West Metropolitan Region
Fitness First Epping,Homemaker Centre,Epping,3074,VIC,Fitness centre,Whittlesea (C),North and West Metropolitan Region
Fitness First Essendon,299-311 Pascoe Vale Road,Essendon,3040,VIC,Fitness centre,Moonee Valley (C),North and West Metropolitan Region
Fitness First Glen Waverley,1 - 3 Coleman Parade,Glen Waverley,3150,VIC,Fitness centre,Monash (C),Eastern Metropolitan Region
Fitness First Highpoint,120-200 Rosamond Road,Maribyrnong,3032,VIC,Fitness centre,Moonee Valley (C); Maribyrnong (C),North and West Metropolitan Region
Fitness First Knox City,Knox Ozone Shopping Centre,Wantirna South,3152,VIC,Fitness centre,Knox (C),Eastern Metropolitan Region
Fitness First Malvern East,781-805 Dandenong Road,Malvern East,3145,VIC,Fitness centre,Stonnington (C); Glen Eira (C),Southern Metropolitan Region
Fitness First Melbourne Central,"Level 4, 211 Latrobe Street",Melbourne,3000,VIC,Fitness centre,Melbourne (C),North and West Metropolitan Region
Fitness First Nunawading,"Level 1, Home HQ",Nunawading,3131,VIC,Fitness centre,Whitehorse (C),Eastern Metropolitan Region
Fitness First QV Platinum,Cnr Lonsdale and Russell Street,Melbourne,3000,VIC,Fitness centre,Melbourne (C),North and West Metropolitan Region
Fitness First Richmond,560 Church Street,Richmond,3121,VIC,Fitness centre,Yarra (C),North and West Metropolitan Region
Fitness First South Yarra,"Shop 1, 402 Chapel Street",South Yarra,3141,VIC,Fitness centre,Stonnington (C); Melbourne (C),Southern Metropolitan Region
Fitness First St Kilda,97 Alma Road,St Kilda,3182,VIC,Fitness centre,Port Phillip (C),Southern Metropolitan Region
Fitstart 4 Kids,13/1-7 Canterbury Road,Braeside,3195,VIC,Fitness centre,Kingston (C),Southern Metropolitan Region
Five Star Fitness,Factory 11/391 Settlement Road,Thomastown,3074,VIC,Fitness centre,Whittlesea (C),North and West Metropolitan Region
Focus Health and Fitness Tullamarine,35 Carrick Drive,Tullamarine,3043,VIC,Fitness centre,Brimbank (C),North and West Metropolitan Region
Focus Health and Fitness Yarraville,121 Hyde Street,Yarraville,3013,VIC,Fitness centre,Maribyrnong (C),North and West Metropolitan Region
Geelong & District YMCA,25 Riverside Road,Geelong,3220,VIC,Fitness centre,Greater Geelong,Barwon S/W
Genesis Fitness Club,258 Scoresby Road,Boronia,3152,VIC,Fitness centre,Maroondah (C); Knox (C),Eastern Metropolitan Region
Gisborne Fitness Centre,8 Hamilton Street,Gisborne,3437,VIC,Fitness centre,Macedon Ranges (S); Melton (S),Loddon-Mallee Region
Gregory's Fitness Centre,435 Main Nerrim Road,Drouin West,3838,VIC,Fitness centre,Baw Baw (S),Gippsland Region
Greta Sporting Complex,Greta Hansonville Recreation Reserve,Greta,3675,VIC,Fitness centre,Wangaratta (RC),Hume Region
Hamilton Indoor and Aquatic Centre,83-93 Shakespeare Street,Hamilton,3300,VIC,Fitness centre,Southern Grampians (S),Barwon South Western Region
Hawthorn Swimming Clinic,63 Mary Street,Hawthorn,3122,VIC ,Fitness centre,Boroondara (C),Eastern Metropolitan Region
Healesville Fitness Centre,1 Crisp Street,Healesville,3777,VIC,Fitness centre,Yarra Ranges (S),Eastern Metropolitan Region
Healthclub 101,101-103 Main Road West,St Albans,3021,VIC,Fitness centre,Brimbank (C),North and West Metropolitan Region
Hunt's Fitness Centre,41 Johnston Street,Fitzroy,3065,VIC,Fitness centre,Yarra (C),North and West Metropolitan Region
In-Balance Fitness,Manly Street,Werribee,3030,VIC,Fitness centre,Wyndham (C); Melton (S); Brimbank (C),North and West Metropolitan Region
Input Fitness Frankston,224 Cranbourne Road,Frankston,3199,VIC,Fitness centre,Frankston (C),Southern Metropolitan Region
Kangaroo Flat Leisure Centre,9 Browning Street,Kangaroo Flat,3555,VIC,Fitness centre,Greater Bendigo (C),Loddon-Mallee Region
Kilmore Leisure Centre,White Street,Kilmore,3764,VIC,Fitness centre,Mitchell (S),Hume Region
King Club Wantirna,141 Mountain Highway,Wantirna,3152,VIC,Fitness centre,Knox (C),Eastern Metropolitan Region
Lady Fitness,45 Brougham Street,Geelong,3220,VIC,Fitness centre,Greater Geelong (C),Barwon South Western Region
Lakes Health & Fitness Club,555 Sunshine Avenue,Taylors Lakes,3038,VIC,Fitness centre,Melton (S); Brimbank (C),North and West Metropolitan Region
Laverton Swim & Fitness Centre,Jennings Street,Laverton,3028,VIC,Fitness centre,Wyndham (C); Hobsons Bay (C),North and West Metropolitan Region
Lifestyle Fitness Albury Wodonga,70 Elgin Street,Wodonga,3690,VIC,Fitness centre,Wodonga (RC),Hume Region
Lifestyle Fitness Bendigo,1 Bath Lane,Bendigo,3550,VIC,Fitness centre,Greater Bendigo,Loddon-Mallee
Lifestyle Fitness Melbourne,276 Russell Street,Melbourne,3000,VIC,Fitness centre,Melbourne (C),North and West Metropolitan Region
Lifestyle Fitness Richmond Hill,401 Church Street,Richmond Hill,3121,VIC,Fitness centre,Yarra,North and West Metropolitan Region
Lifestyle Fitness Williamstown,Cnr North Road & The Strand,Williamstown,3015,VIC,Fitness centre,Hobsons Bay (C),North and West Metropolitan Region
Maidstone Health Club,2/244 Ballarat Road,Braybrook,3019,VIC,Fitness centre,Maribyrnong (C),North and West Metropolitan Region
Manningham YMCA,Community Wellness Centre,Doncaster East,3109,VIC,Fitness centre,Manningham (C),Eastern Metropolitan Region
Muscle & Body Shape Gymnasium,25 Wangaratta Street,Richmond,3121,VIC,Fitness centre,Yarra (C),North and West Metropolitan Region
Next Level Fitness,4-8 Ian Street,Noble Park,3174,VIC,Fitness centre,Greater Dandenong (C),Southern Metropolitan Region
Oasis Fitness Centre,27 Hall Street,Hawthorn East,3123,VIC,Fitness centre,Boroondara (C),Eastern Metropolitan Region
Ocean View Health Club,65 The Terrace,Ocean Grove,3226,VIC,Fitness centre,Greater Geelong (C),Barwon South Western Region
Pakenham Fitness Factory,"Factory 5, Industrial Estate",Pakenham,3810,VIC,Fitness centre,Cardinia (S),Southern Metropolitan Region
Paramount Health & Fitness Club,142 Union Road,Ascot Vale,3032,VIC,Fitness centre,Moonee Valley (C); Maribyrnong (C),North and West Metropolitan Region
Personal Best Fitness Centre,379 Bayswater Road,Bayswater,3153,VIC,Fitness centre,Maroondah (C); Knox (C),Eastern Metropolitan Region
Pinewood Fitness Centre,15 The Centreway,Mount Waverley,3149,VIC,Fitness centre,Monash,Eastern Metro
Queens Park Health Club,31 Queens Road,Melbourne,3004,VIC,Fitness centre,Melbourne,North and West Metropolitan Region
Re-Creation Health Club Armadale,1216 High Street,Armadale,3143,VIC,Fitness centre,Stonnington (C),Southern Metropolitan Region
Re-Creation Health Club Brighton East,973 Nepean Highway,Moorabbin,3189,VIC,Fitness centre,Kingston (C),Southern Metropolitan Region
Re-Creation Health Club Carnegie,Cnr Koornang and Dandenong Roads,Carnegie,3163,VIC,Fitness centre,Glen Eira (C),Southern Metropolitan Region
Re-Creation Health Club Caroline Springs,"Level 3, Shop 35",Caroline Springs,3023,VIC,Fitness centre,Brimbank (C),North and West Metropolitan Region
Re-Creation Health Club Essendon,275 Buckley Street,Essendon,3040,VIC,Fitness centre,Moonee Valley (C),North and West Metropolitan Region
Re-Creation Health Club Glen Iris,1438 High Street,Glen Iris,3146,VIC,Fitness centre,Stonnington (C); Boroondara (C),Southern Metropolitan Region; Eastern Metropolitan Region
Re-Creation Health Club Hampton,10 Railway Walk,Hampton,3188,VIC,Fitness centre,Bayside (C),Southern Metropolitan Region
Re-Creation Health Club Keysborough,330 Cheltenham Road,Keysborough,3173,VIC,Fitness centre,Greater Dandenong (C),Southern Metropolitan Region
Re-Creation Health Club South Melbourne,South Melbourne Central,South Melbourne,3205,VIC,Fitness centre,Port Phillip (C); Melbourne (C),Southern Metropolitan Region; North and West Metropolitan Region
Re-Creation Health Club Sunbury,73 Horne Street,Sunbury,3429,VIC,Fitness centre,Melton (S); Hume (C),North and West Metropolitan Region
Rebound Leisure Club,5 Rebound Court,Narre Warren,3805,VIC,Fitness centre,Casey (C),Southern Metropolitan Region
South Pacific Health Club Melbourne,CBW Building,Melbourne,3000,VIC,Fitness centre,Port Phillip (C),Southern Metropolitan Region
Southcoast Fitness Centre,Rowley Reserve,Rye,3941,VIC,Fitness centre,Mornington Peninsula (S),Southern Metropolitan Region
Southport Health Club Genesis,1 Waterfront Place,Port Melbourne,3207,VIC,Fitness centre,Port Phillip (C); Melbourne (C),Southern Metropolitan Region; North and West Metropolitan Region
Spartans Gym Ballarat,502 Howitt Street,Ballarat,3350,VIC,Fitness centre,Ballarat (C),Grampians Region
Spartans Gym Kilsyth,255 Colchester Road,Kilsyth,3137,VIC,Fitness centre,Yarra Ranges (S); Maroondah (C),Eastern Metropolitan Region
Tatura Gym & Fitness Centre,1 Rodney Court,Tatura,3616,VIC,Fitness centre,Greater Shepparton (C),Hume Region
Terry Bennetts Gymnasium,1/227 High Street,Prahran,3181,VIC,Fitness centre,Stonnington (C); Melbourne (C),Southern Metropolitan Region
The Century Fitness Club,100 Franklin Street,Melbourne,3000,VIC,Fitness centre,Melbourne (C),North and West Metropolitan Region
The Dynamic Fitness Centre Echuca,101 Hare Street,Echuca,3564,VIC,Fitness centre,Campaspe (S),Loddon-Mallee Region
The Fitness Club,49 Johnson Street,Keon Park,3073,VIC,Fitness centre,Darebin (C),North and West Metropolitan Region
The Gym Kyneton,Victoria Street,Kyneton,3444,VIC,Fitness centre,Macedon Ranges (S),Loddon-Mallee Region
The Ridge Health Club Eltham,9/266 Bolton Street,Eltham,3095,VIC,Fitness centre,Nillumbik (S); Banyule (C),North and West Metropolitan Region
United Force Gymnasium,630 Barkley Street,West Footscray,3012,VIC,Fitness centre,Maribyrnong (C),North and West Metropolitan Region
Victory Gym,6 King Street,Airport West,3042,VIC,Fitness centre,Moonee Valley (C); Brimbank (C),North and West Metropolitan Region
Virginia Park Health Club,262 East Boundary Road,Bentleigh,3204,VIC,Fitness centre,Kingston (C); Glen Eira (C),Southern Metropolitan Region
Visions Fitness Centre,185 Burwood Road,Hawthorn,3122,VIC,Fitness centre,Boroondara (C),Eastern Metropolitan Region
Vital Fitness,140 Church Street,Manifold Heights,3218,VIC,Fitness centre,Greater Geelong (C),Barwon South Western Region
Westerfolds Sport Centre,2-6 Swilk Street,Templestowe,3106,VIC,Fitness centre,Manningham (C),Eastern Metropolitan Region
Westgate Health & Fitness Club,Corner Doherty's Road & Grieve Parade,Altona North,3025,VIC,Fitness centre,Maribyrnong (C); Hobsons Bay (C),North and West Metropolitan Region
Whitehorse Fitness Club,Bank Street,Box Hill,3128,VIC,Fitness centre,Whitehorse (C),Eastern Metropolitan Region
Winning Edge The Fitness Club,149 Whitehorse Road,Balwyn,3103,VIC,Fitness centre,Boroondara (C),Eastern Metropolitan Region
Woodend Health and Fitness,30 Wood Street,Woodend,3442,VIC,Fitness centre,Macedon Ranges (S),Loddon-Mallee Region
Access for All Abilities (AAA),YMCA Victoria,Fairfield,3078,VIC,"Disability,Fitness centre",Yarra (C); Darebin (C),North and West Metropolitan Region
Craigieburn Leisure Centre,Craigieburn Road,Craigieburn,3064,VIC,"Disability,Fitness centre,Strength Training",Whittlesea (C); Hume (C),North and West Metropolitan Region
David Collings Leisure Centre,Civic Reserve,Mornington,3931,VIC,"Disability,Fitness centre,Strength Training",Mornington Peninsula (S),Southern Metropolitan Region
Richmond Recreation Centre,Gleadell Street,Richmond,3121,VIC,"Disability,Fitness centre,Strength Training",Yarra (C),North and West Metropolitan Region
Casey Aquatic & Recreational Centre,Cnr Overland Drive & Princes Highway,Narre Warren,3805,VIC,"Disability,Fitness centre,Strength Training,Swimming Pool",Casey (C),Southern Metropolitan Region
Coburg Leisure Centre,Bridges Reserve,Coburg,3058,VIC,"Disability,Fitness centre,Strength Training,Swimming Pool",Moreland (C),North and West Metropolitan Region
East Keilor Leisure Centre,Quinn Grove,Keilor East,3033,VIC,"Disability,Fitness centre,Strength Training,Swimming Pool",Moonee Valley (C),North and West Metropolitan Region
Eltham Leisure Centre,40 Brougham Street,Eltham,3095,VIC,"Disability,Fitness centre,Strength Training,Swimming Pool",Nillumbik (S); Banyule (C),North and West Metropolitan Region
Hawthorn Aquatic & Leisure Centre,Linda Crescent,Hawthorn,3122,VIC,"Disability,Fitness centre,Strength Training,Swimming Pool",Boroondara (C),Eastern Metropolitan Region
Olympic Leisure Centre,15 Alamein Road,Heidelberg West,3081,VIC,"Disability,Fitness centre,Strength Training,Swimming Pool",Banyule (C),North and West Metropolitan Region
Waves Leisure Centre,111 Chesterville Road,Highett,3190,VIC,"Disability,Fitness centre,Strength Training,Swimming Pool",Kingston (C); Bayside (C),Southern Metropolitan Region
Wyndham Leisure & Events Centre,80 Derrimut Road,Hoppers Crossing,3029,VIC,"Disability,Fitness centre,Strength Training,Swimming Pool",Wyndham (C),North and West Metropolitan Region
Kew Recreation Centre,383 High Street,Kew,3101,VIC,"Disability,Fitness centre,Strength Training,Swimming Pool,Water Based Exercise",Boroondara (C),Eastern Metropolitan Region
Footscray YMCA,Cnr Essex & Market Streets,West Footscray,3012,VIC,"Fitness centre,Gymnastics",Maribyrnong (C),North and West Metropolitan Region
Ballarat Aquatic Centre,Prince of Wales Park,Ballarat,3350,VIC,"Fitness centre,Gymnastics,Personal training,Strength Training,Swimming Pool",Ballarat (C),Grampians Region
Absolute Fitness Professionals,165 Waverley Road,Malvern East,3145,VIC,"Fitness centre,Personal training",Stonnington (C); Glen Eira (C),Southern Metropolitan Region
Adrenalin Health Club & Personal Training Centre,"1st Floor, 334 Burwood Street",Hawthorn,3122,VIC,"Fitness centre,Personal training",Boroondara (C); Boroondara (C),Eastern Metropolitan Region; Eastern Metropolitan Region
Aerobicbodyworks,PO Box 98,Caulfield South,3162,VIC,"Fitness centre,Personal training",Glen Eira (C),Southern Metropolitan Region
Group Exercise Therapy,262 Montague Street,South Melbourne,3205,VIC,"Fitness centre,Personal training",Port Phillip (C); Melbourne (C),Southern Metropolitan Region; North and West Metropolitan Region
Next Generation Fitness,823 Glenferrie Road,Hawthorn,3122,VIC,"Fitness centre,Personal training,Pilates",Boroondara (C),Eastern Metropolitan Region
Aquarena Aquatic & Leisure Centre,139-153  Williamsons Road,Doncaster,3108,VIC,"Fitness centre,Personal training,Strength Training,Swimming Club,Swimming Pool,Water Based Exercise",Manningham (C),Eastern Metropolitan Region
Aquamoves,Tom Collins Drive,Shepparton,3630,VIC,"Fitness centre,Personal training,Swimming Pool",Greater Shepparton (C),Hume Region
South Pacific Health Club St Kilda,St Kilda Sea Baths,St Kilda,3182,VIC,"Fitness centre,Pilates,Strength Training,Tai Chi,Yoga",Port Phillip (C),Southern Metropolitan Region
Timboon Recreation Centre,Curdie Vale Road,Timboon,3268,VIC,"Fitness centre,Recreation Group",Corangamite (S),Barwon South Western Region
ERGfit Indoor Rowing & Training Studio,424 Mount Alexander Road,Ascot Vale,3032,VIC,"Fitness centre,Rowing Club",Moonee Valley (C); Maribyrnong (C),North and West Metropolitan Region
Bounce Squash & Fitness Centre,118 Highbury Road,Burwood,3125,VIC,"Fitness centre,Squash Club",Whitehorse (C); Monash (C); Boroondara (C),Eastern Metropolitan Region
Brandon Park Squash & Fitness Centre,1 Rosemary Court,Mulgrave,3170,VIC,"Fitness centre,Squash Club",Monash (C),Eastern Metropolitan Region
Cranbourne Sports & Fitness Centre,Corner Brunt & Codrington Streets,Cranbourne,3977,VIC,"Fitness centre,Squash Club",Frankston (C); Casey (C),Southern Metropolitan Region
Dandenong Squash & Fitness Centre,63 Scott Street,Dandenong,3175,VIC,"Fitness centre,Squash Club",Greater Dandenong (C),Southern Metropolitan Region
Epping Squash & Fitness Centre,69 Coulstock Street,Epping,3076,VIC,"Fitness centre,Squash Club",Whittlesea (C),North and West Metropolitan Region
Moorabbin Squash & Fitness Centre,10 Independence Street,Moorabbin,3189,VIC,"Fitness centre,Squash Club",Kingston (C),Southern Metropolitan Region
Lilydale Squash & Fitness Centre,446 Maroondah Highway,Lilydale,3140,VIC,"Fitness centre,Squash Club,Strength Training",Yarra Ranges (S),Eastern Metropolitan Region
Healthways Recreation Centre,3-11 Arcade Road,Mont Albert North,3129,VIC,"Fitness centre,Squash Club,Swimming Club,Tenpin Bowling",Whitehorse (C); Boroondara (C),Eastern Metropolitan Region
Bayfit Leisure Centre,Cnr Mills and Mason Street,Altona North,3025,VIC,"Fitness centre,Strength Training",Maribyrnong (C); Hobsons Bay (C),North and West Metropolitan Region
Bennettswood Fitness Centre,Corner Burwood Hwy & Middleborough Road,Burwood,3125,VIC,"Fitness centre,Strength Training",Whitehorse (C); Monash (C); Boroondara (C),Eastern Metropolitan Region
Billy Manne's Energym,23-25 Overton Road,Frankston,3199,VIC,"Fitness centre,Strength Training",Frankston (C),Southern Metropolitan Region
Cardinia LIFE,4 Olympic Way,Pakenham,3810,VIC,"Fitness centre,Strength Training",Cardinia (S),Southern Metropolitan Region
Caulfield Recreation Centre,6 Maple Street,Caulfield South,3162,VIC,"Fitness centre,Strength Training",Glen Eira (C),Southern Metropolitan Region
Collingwood Leisure Centre,Corner Hoddle & Turnbull Street,Clifton Hill,3068,VIC,"Fitness centre,Strength Training",Yarra (C),North and West Metropolitan Region
Croydon Leisure Centre,11 Civic Square,Croydon,3136,VIC,"Fitness centre,Strength Training",Maroondah (C),Eastern Metropolitan Region
Endeavour Hills Leisure Centre,10 Raymond McMahon Boulevard,Endeavour Hills,3802,VIC,"Fitness centre,Strength Training",Casey (C),Southern Metropolitan Region
Fenix Fitness Chelsea Heights,93 Wells Road,Chelsea Heights,3196,VIC,"Fitness centre,Strength Training",Kingston (C),Southern Metropolitan Region
Fenix Fitness Geelong,312 - 320 High Street,Belmont,3216,VIC,"Fitness centre,Strength Training",Greater Geelong (C),Barwon South Western Region
Fenix Fitness Hoppers Crossing,116 Mossfiel Drive,Hoppers Crossing,3029,VIC,"Fitness centre,Strength Training",Wyndham (C),North and West Metropolitan Region
Fenix Fitness Karingal,197 Karingal Drive,Karingal,3199,VIC,"Fitness centre,Strength Training",Frankston (C),Southern Metropolitan Region
Focus Health and Fitness Bulleen,209 Bulleen Road,Bulleen,3105,VIC,"Fitness centre,Strength Training",Manningham (C),Eastern Metropolitan Region
Frankston South Recreation Centre,55 Towerhill Road,Frankston,3199,VIC,"Fitness centre,Strength Training",Frankston (C),Southern Metropolitan Region
Genesis Camberwell,"Level 4, The Well",Camberwell,3124,VIC,"Fitness centre,Strength Training",Boroondara (C),Eastern Metropolitan Region
Genesis Dandenong,63 Scott Street,Dandenong,3175,VIC,"Fitness centre,Strength Training",Greater Dandenong (C),Southern Metropolitan Region
Genesis Doncaster,9 Williamsons Road,Doncaster,3108,VIC,"Fitness centre,Strength Training",Manningham (C),Eastern Metropolitan Region
Genesis Oakleigh,1/104 Ferntree Gully Road,Oakleigh,3166,VIC,"Fitness centre,Strength Training",Monash (C),Eastern Metropolitan Region
Genesis Ringwood,93-99 Maroondah Highway,Ringwood,3134,VIC,"Fitness centre,Strength Training",Manningham (C); Maroondah (C),Eastern Metropolitan Region
Genesis Wantirna,258 Scoresby Road,Wantirna,3152,VIC,"Fitness centre,Strength Training",Knox (C),Eastern Metropolitan Region
Goodlife Health Club Balwyn,149 Whitehorse Road,Balwyn,3130,VIC,"Fitness centre,Strength Training",Boroondara (C),Eastern Metropolitan Region
Kyneton Sporting Complex,4 Victoria Street,Kyneton,3444,VIC,"Fitness centre,Strength Training",Macedon Ranges (S),Loddon-Mallee Region
Latrobe Leisure Churchill,Cnr Northways Road & McDonald Way,Churchill,3842,VIC,"Fitness centre,Strength Training",Latrobe (C),Gippsland Region
Latrobe Leisure Moe Newborough,Cnr Southwell Avenue & Old Sale Road,Newborough,3825,VIC,"Fitness centre,Strength Training",Latrobe (C); Baw Baw (S),Gippsland Region
Latrobe Leisure Morwell,McDonald Street,Morwell,3840,VIC,"Fitness centre,Strength Training",Latrobe (C),Gippsland Region
Leading Edge Health & Fitness,452 Springvale Road,Glen Waverley,3150,VIC,"Fitness centre,Strength Training",Monash (C),Eastern Metropolitan Region
Lifestyle Fitness Elsternwick,233 Glenhuntly Road,Elsternwick,3185,VIC,"Fitness centre,Strength Training",Port Phillip (C); Glen Eira (C); Bayside (C),Southern Metropolitan Region
Lifestyle Fitness Wheelers Hill,855 Ferntree Gully Road,Wheelers Hill,3150,VIC,"Fitness centre,Strength Training",Monash,Eastern Metro
Macleod Recreation & Fitness Centre,Banyule YMCA,Macleod,3085,VIC,"Fitness centre,Strength Training",Darebin (C); Banyule (C),North and West Metropolitan Region
Maryborough Sports & Fitness Centre,40 Gillies Street,Maryborough,3465,VIC,"Fitness centre,Strength Training",Central Goldfields (S),Loddon-Mallee Region
Phillip Island Leisure Centre - YMCA,10-14 Church Street,Cowes,3922,VIC,"Fitness centre,Strength Training",Bass Coast (S),Gippsland
Reservoir Leisure Centre,Cuthbert Road,Reservoir,3073,VIC,"Fitness centre,Strength Training",Darebin (C),North and West Metropolitan Region
Vitality Health & Fitness,83-93 Shakespeare Street,Hamilton,3300,VIC,"Fitness centre,Strength Training",Southern Grampians (S),Barwon South Western Region
Y Central Health & Fitness Studio,Level 1/157 Hare Street,Echuca,3564,VIC,"Fitness centre,Strength Training",Campaspe (S),Loddon-Mallee Region
Zaks Health Club at Chadstone,Chadstone Place,Chadstone,3148,VIC,"Fitness centre,Strength Training",Stonnington (C); Monash (C),Southern Metropolitan Region; Eastern Metropolitan Region
Ascot Vale Leisure Centre,Cnr Langs and Epsom Roads,Ascot Vale,3032,VIC,"Fitness centre,Strength Training,Swimming Pool",Moonee Valley (C); Maribyrnong (C),North and West Metropolitan Region
Broadmeadows Leisure Centre,Cnr Pearcedale Parade and Dimboola Road,Broadmeadows,3047,VIC,"Fitness centre,Strength Training,Swimming Pool",Hume (C),North and West Metropolitan Region
Brunswick City Baths,14 Dawson Street,Brunswick,3056,VIC,"Fitness centre,Strength Training,Swimming Pool",Moreland (C),North and West Metropolitan Region
Carlton Baths Community Centre,248 Rathdowne Street,Carlton,3053,VIC,"Fitness centre,Strength Training,Swimming Pool",Melbourne (C),North and West Metropolitan Region
Don Tatnell Leisure Centre,Cnr Warren Road & Brisbane Terrace,Mordialloc,3195,VIC,"Fitness centre,Strength Training,Swimming Pool",Kingston (C),Southern Metropolitan Region
Fawkner Leisure Centre,79 - 83 Jukes Road,Fawkner,3060,VIC,"Fitness centre,Strength Training,Swimming Pool",Moreland (C),North and West Metropolitan Region
Horsham Aquatic Centre,53 Hamilton Street,Horsham,3402,VIC,"Fitness centre,Strength Training,Swimming Pool",Horsham (RC),Grampians Region
Ivanhoe Aquatic & Fitness Centre,170 Waterdale Road,Ivanhoe,3079,VIC,"Fitness centre,Strength Training,Swimming Pool",Banyule (C),North and West Metropolitan Region
Knox Leisure Works,Tormore Road,Boronia,3155,VIC,"Fitness centre,Strength Training,Swimming Pool",Maroondah (C); Knox (C),Eastern Metropolitan Region
Maribyrnong Aquatic Centre,1 Aquatic Drive,Maribyrnong,3032,VIC,"Fitness centre,Strength Training,Swimming Pool",Moonee Valley (C); Maribyrnong (C),North and West Metropolitan Region
Melton Waves Leisure Centre,206 Coburns Road,Melton,3337,VIC,"Fitness centre,Strength Training,Swimming Pool",Wyndham (C); Melton (S),North and West Metropolitan Region
Northcote Aquatic and Recreation Centre,180 Victoria Road,Northcote,3070,VIC,"Fitness centre,Strength Training,Swimming Pool",Darebin (C),North and West Metropolitan Region
Portland Leisure & Aquatic Centre,22 Bentinck Street,Portland,3305,VIC,"Fitness centre,Strength Training,Swimming Pool",Glenelg (S),Barwon South Western Region
Sunbury Aquatic Centre,20 Ligar Street,Sunbury,3429,VIC,"Fitness centre,Strength Training,Swimming Pool",Melton (S); Hume (C),North and West Metropolitan Region
Sunshine Leisure Centre,5 Kennedy Street,Sunshine,3020,VIC,"Fitness centre,Strength Training,Swimming Pool",Maribyrnong (C); Brimbank (C),North and West Metropolitan Region
Windy Hill Fitness Centre,74 - 84 Napier Street,Essendon,3040,VIC,"Fitness centre,Strength Training,Swimming Pool",Moonee Valley (C),North and West Metropolitan Region
Wodonga Sports & Leisure Centre,Hedgerow Court,Wodonga,3689,VIC,"Fitness centre,Strength Training,Swimming Pool",Wodonga (RC),Hume Region
Ashburton Pool & Recreation Centre,8 Warner Avenue,Ashburton,3147,VIC,"Fitness centre,Strength Training,Swimming Pool,Water Based Exercise",Monash (C); Boroondara (C),Eastern Metropolitan Region
Aqualink Box Hill,Surrey Park,Box Hill,3128,VIC,"Fitness centre,Swimming Pool",Whitehorse (C),Eastern Metropolitan Region
Aquazone Warrnambool Aquatic Leisure Centre,Queens Road,Warrnambool,3280,VIC,"Fitness centre,Swimming Pool",Warrnambool (C),Barwon South Western Region
Ararat YMCA,61 - 73 High Street,Ararat,3377,VIC,"Fitness centre,Swimming Pool",Ararat (RC),Grampians Region
Bacchus Marsh Leisure Centre,5-15 Labilliere Street,Bacchus Marsh,3340,VIC,"Fitness centre,Swimming Pool",Wyndham (C); Moorabool (S); Melton (S),Grampians Region
Bendigo Regional YMCA,171 Lyttleton Terrace,Bendigo,3550,VIC,"Fitness centre,Swimming Pool",Greater Bendigo (C),Loddon-Mallee Region
Bluewater Fitness Centre,118 Hearn Street,Colac,3250,VIC,"Fitness centre,Swimming Pool",Colac-Otway (S),Barwon South Western Region
Bullen Swim Centre,156 Bullen Road,Bulleen,3105,VIC ,"Fitness centre,Swimming Pool",Manningham (C),Eastern Metropolitan Region
Clayton Aquatics and Health Club,Cooke Street,Clayton,3168,VIC,"Fitness centre,Swimming Pool",Monash (C),Eastern Metropolitan Region
Club Aquarius,Fifteenth Street,Mildura,3501,VIC,"Fitness centre,Swimming Pool",Mildura Rural,Loddon-Mallee
Cranbourne Indoor Pool,Grant Street,Cranbourne,3977,VIC,"Fitness centre,Swimming Pool",Frankston (C); Casey (C),Southern Metropolitan Region
Dandenong Oasis,Cnr Heatherton Road and Cleeland Street,Dandenong,3175,VIC,"Fitness centre,Swimming Pool",Greater Dandenong (C); Greater Dandenong (C),Southern Metropolitan Region; Southern Metropolitan Region
Everyone Health & Fitness,23A Lyttleton Street,Castlemaine,3450,VIC,"Fitness centre,Swimming Pool",Mount Alexander,Loddon-Mallee
Freeway Sports Centre,Cnr Princes Hwy & Doveton Avenue,Doveton,3177,VIC,"Fitness centre,Swimming Pool",Greater Dandenong (C); Casey (C),Southern Metropolitan Region
Kensington Community Recreation Centre,Cnr Kensington Road and Altona Street,Kensington,3031,VIC,"Fitness centre,Swimming Pool",Moonee Valley (C); Melbourne (C),North and West Metropolitan Region
Maryborough Sports and Fitness Centre,40 Gillies Street,Maryborough,3465,VIC,"Fitness centre,Swimming Pool",Central Goldfields (S),Loddon-Mallee Region
Melbourne City Baths,420 Swanston Street,Melbourne,3000,VIC,"Fitness centre,Swimming Pool",Melbourne,North and West Metropolitan Region
Middle Brighton Baths,251 The Esplanade,Brighton,3188,VIC,"Fitness centre,Swimming Pool",Bayside (C),Southern Metropolitan Region
Monash Aquatic & Recreation Centre,626 Waverley Road,Glen Waverley,3150,VIC,"Fitness centre,Swimming Pool",Monash (C),Eastern Metropolitan Region
Oakleigh Recreation Centre,Park Road,Oakleigh,3166,VIC,"Fitness centre,Swimming Pool",Monash (C),Eastern Metropolitan Region
Re-Creation Health Club Sandringham,150 Tulip Street,Cheltenham,3192,VIC,"Fitness centre,Swimming Pool",Kingston (C); Bayside (C),Southern Metropolitan Region
Seymour Sports & Aquatic Centre,Chittick Park,Seymour,3660,VIC,"Fitness centre,Swimming Pool",Murrindindi (S); Mitchell (S),Hume Region
St Albans Leisure Centre,Taylors Road,St Albans,3021,VIC,"Fitness centre,Swimming Pool",Brimbank (C),North and West Metropolitan Region
Stawell Leisure Complex,49-51 Houston Street,Stawell,3380,VIC,"Fitness centre,Swimming Pool",Northern Grampians (S),Grampians Region
Vicki Field Swim School,108 New Street,Ringwood,3134,VIC ,"Fitness centre,Swimming Pool",Manningham (C); Maroondah (C),Eastern Metropolitan Region
Wangaratta Indoor Sports & Aquatic Centre,HP Barr Reserve,Wangaratta,3677,VIC,"Fitness centre,Swimming Pool",Wangaratta (RC),Hume Region
Warragul Leisure Centre,21 Burke Street,Warragul,3820,VIC,"Fitness centre,Swimming Pool",Baw Baw (S),Gippsland Region
Whittlesea YMCA,Morang Drive,Mill Park,3082,VIC,"Fitness centre,Swimming Pool",Whittlesea,North and West Metropolitan Region
Wonthaggi Aquatic & Leisure Centre,41 Wentworth Road,Wonthaggi,3995,VIC,"Fitness centre,Swimming Pool",Bass Coast (S),Gippsland Region
Yarra Recreation Centre,Warburton Highway,Yarra Junction,3797,VIC,"Fitness centre,Swimming Pool",Yarra Ranges (S),Eastern Metropolitan Region
Springers Leisure Centre,400 Cheltenham Road,Keysborough,3173,VIC,"Fitness centre,Table Tennis Club",Greater Dandenong (C),Southern Metropolitan Region
Bellbird Park Indoor Centre,Settlement Road,Drouin,3818,VIC,"Fitness centre,Table Tennis Club,Walking Club/Group",Baw Baw (S),Gippsland Region
Southern Indoor Tennis & Fitness Centre,Cnr Grant & Hill Street,Sebastopol,3356,VIC,"Fitness centre,Tennis club",Ballarat (C),Grampians Region
Brophy's Body & Mind,1 - 7 McIlwrick Street,Windsor,3181,VIC,"Fitness centre,Yoga",Stonnington,Southern Metro
Belgrave South Community House,Gilmore Court,Belgrave South,3160,VIC,"Neighbourhood house,Strength Training",Yarra Ranges (S),Metropolitan East Region
Leopold Indoor Neighbourhood Centre,1 Kensington Road,Leopold,3224,VIC,"Neighbourhood house,Strength Training",Greater Geelong (C),Barwon South Western Region
Tatura Community House,12-16 Casey Street,Tatura,3616,VIC,"Neighbourhood house,Strength Training",Greater Shepparton (C),Hume Region
Waverley Community Learning Centre,5 Fleet Street,Mount Waverley,3149,VIC,"Neighbourhood house,Strength Training,Tai Chi",Monash (C),Eastern Metropolitan Region
Bennettswood Neighbourhood House,7 Greenwood Street,Burwood,3125,VIC,"Neighbourhood house,Strength Training,Walking Club/Group",Whitehorse (C); Monash (C); Boroondara (C),Eastern Metropolitan Region
Wonga Park Community Cottage,Old Yarra Road,Wonga Park,3115,VIC,"Neighbourhood house,Strength Training,Walking Club/Group,Yoga",Manningham (C); Maroondah (C),Eastern Metropolitan Region
Burwood Neighbourhood House,1 Church Street,Burwood,3125,VIC,"Neighbourhood house,Strength Training,Yoga",Whitehorse (C); Monash (C); Boroondara (C),Eastern Metropolitan Region
Burwood Neighbourhood House,1 Church Street,Burwood,3125,VIC,"Neighbourhood house,Strength Training,Yoga",Whitehorse (C); Monash (C); Boroondara (C),Eastern Metropolitan Region
Splashdown,Coppards Road,Whittington,3219,VIC,"Personal training,Strength Training,Swimming Pool",Greater Geelong (C),Barwon South Western Region
Waterworld,Cnr Melbourne and Cox Roads,Norlane,3214,VIC,"Personal training,Strength Training,Swimming Pool",Greater Geelong (C),Barwon South Western Region
Hard Work Cafe,Foster Showgrounds,Foster,3960,VIC,"Recreation Group,Strength Training",South Gippsland (S),Gippsland Region
Yarrunga Community Centre,76-86 Croydon Hills Drive,Croydon Hills,3136,VIC,"Recreation Group,Strength Training,Volunteering",Maroondah (C),Eastern Metropolitan Region
Agestrong Chelsea,"Longbeach Place,",Chelsea,3196,VIC,Strength Training,Kingston (C),Southern Metropolitan Region
Agestrong Dromana RSL,Dromana- Red Hill RSL,Dromana,3936,VIC,Strength Training,Mornington Peninsula (S),Southern Metropolitan Region
Agestrong Frankston CRC,Frankston Community Rehabilitation Centre,Frankston,3199,VIC,Strength Training,Frankston (C),Southern Metropolitan Region
Agestrong Frankston South,Frankston South Recreaton Centre,Frankston South,3199,VIC,Strength Training,Frankston (C),Southern Metropolitan Region
Agestrong Mahogany,Mahogany Neighbourhood House,Frankston North,3200,VIC,Strength Training,Frankston (C),Southern Metropolitan Region
Agestrong Rosebud CRC,Rosebud Community Rehabilitation Centre,Rosebud,3939,VIC,Strength Training,Mornington Peninsula (S),Southern Metropolitan Region
Bentleigh Bayside Community Health Service,Gardeners Road,Bentleigh East,3165,VIC,Strength Training,Glen Eira (C),Southern Metropolitan Region
Inglewood and Districts Health Service,3 Hospital St,Inglewood,3517,VIC,Strength Training,Loddon (S),Loddon-Mallee Region
Inglewood and Districts Health Service-  Wedderburn,Weddernburn Community Health Site,Wedderburn,3518,VIC,Strength Training,Loddon (S),Loddon-Mallee Region
Inglewood and Districts Health Service- Serpentine,Serpentine Hall,Serpentine,3517,VIC,Strength Training,Loddon (S),Loddon-Mallee Region
Inglewood and Districts Health Service- Tarnagulla,Tarnagulla Golf Club,Tarnagulla,3551,VIC,Strength Training,Loddon (S),Loddon-Mallee Region
Koo Wee Rup Regional Health Services,Rossiter Road,Koo Wee Rup,3981,VIC,Strength Training,Cardinia (S); Casey (C),Southern Metropolitan Region
Live Well Strength Training Blairgowrie,Blairgowrie Community Hall,Blairgowrie,3942,VIC,Strength Training,Mornington Peninsula (S),Southern Metropolitan Region
Live Well Strength Training Rosebud CRC,Rosebud Community Rehabilitation Centre,Rosebud,3939,VIC,Strength Training,Mornington Peninsula (S),Southern Metropolitan Region
Live Well Strength Training Rosebud Library,Rosebud Public Library,Rosebud,3939,VIC,Strength Training,Mornington Peninsula (S),Southern Metropolitan Region
Live Well Strength Training Rye,Rye Community Hall,Rye,3941,VIC,Strength Training,Mornington Peninsula (S),Southern Metropolitan Region
Living Learning Pakenham,Henry Street,Pakenham,3810,VIC,Strength Training,Cardinia (S),Southern Metropolitan Region
Mildura Senior and Fitness Centre,Cnr Langtree Avenue & 10th Street,Mildura,3500,VIC,Strength Training,Mildura (RC),Loddon-Mallee Region
Sensational Seniors,Middle Brighton Baths,Brighton,3186,VIC,Strength Training,Bayside,Southern Metro
Stay on Your Feet- Hastings,Pelican Park Recreation Centre,Hastings,3915,VIC,Strength Training,Mornington Peninsula (S),Southern Metropolitan Region
Stay on Your Feet- Mornington,David Collings Leisure Centre,Mornington,3931,VIC,Strength Training,Mornington Peninsula (S),Southern Metropolitan Region
Staying Stronger for Longer Rosebud,Rosebud Memorial Hall,Rosebud,3939,VIC,Strength Training,Mornington Peninsula (S),Southern Metropolitan Region
