Name,Address,Suburb,Postcode,State,Business Category,LGA,Region
Absolutely Ballroom with Ken Marshall,PO Box 262,Rosanna,3084,VIC,Dance Class/Club,Banyule,North and West Metropolitan Region
Adrian's Dance Classes,405 Camberwell Road,Camberwell,3124,VIC,Dance Class/Club,Boroondara,Eastern Metro
Alamana Dance Studio - Blackburn,1/8 Blackburn Scout Hall,Blackburn,3130,VIC,Dance Class/Club,Whitehorse,Eastern Metro
Alamana Dance Studio - Nunawading,,Nunawading,3131,VIC,Dance Class/Club,Whitehorse,Eastern Metro
Allegro 1 Dance Studio,St Thomas Church Hall,Werribee,3030,VIC,Dance Class/Club,Wyndham ; Melton ; Brimbank,North and West Metropolitan Region
Always Dancing,,Clifton Hill,3068,VIC,Dance Class/Club,Yarra,North and West Metropolitan Region
Amazing Pre-School Performers,2/96 Voltri Street,Mentone,3194,VIC,Dance Class/Club,"Kingston , Bayside",Southern Metro
Ambition Performance Dancers,68 Cranbourne Road,Frankston,3199,VIC,Dance Class/Club,Frankston,Southern Metro
Anderson R & J,68 Hurstbridge Road,Diamond Creek,3089,VIC,Dance Class/Club,Nillumbik,North and West Metropolitan Region
Andrew and Mary's Dance,,Flemington,3031,VIC,Dance Class/Club,Moonee Valley ; Melbourne,North and West Metropolitan Region
Andy's Cats Corner,Dandenong Workers Club,Dandenong,3175,VIC,Dance Class/Club,Greater Dandenong,Southern Metro
Andy's Cats Corner,"Red Studio, Springers Leisure Centre",Keysborough,3173,VIC,Dance Class/Club,Greater Dandenong,Southern Metro
Andy's Cats Corner,Forest Hill Hall,Forest Hill,3131,VIC,Dance Class/Club,Whitehorse,Eastern Metro
Andy's Cats Corner,Chirnside Park Country Club,Chirnside Park,3116,VIC,Dance Class/Club,Yarra Ranges,Eastern Metro
Anne Truex-dance,,Traralgon,3844,VIC,Dance Class/Club,La Trobe,Gippsland
Arabesque Eastern Dance School,4 Wilga Avenue,Selby,3159,VIC,Dance Class/Club,"Yarra Ranges , Cardinia",Eastern Metro
Arcadia Dance Centre,5 Malabar Court,Keysborough,3173,VIC,Dance Class/Club,Greater Dandenong,Southern Metro
Arthur Murray Dance Studio,Mezzanine Level,Melbourne,3000,VIC,Dance Class/Club,Melbourne,North and West Metropolitan Region
Arthur Murray Dance Studio,Suite 2,Brighton,3186,VIC,Dance Class/Club,Bayside (C),Southern Metropolitan Region
Arthur Murray Dance Studio,Suite 1,Blackburn,3130,VIC,Dance Class/Club,Whitehorse (C),Eastern Metropolitan Region
Aspect Motion School of Dance,St Stephens Uniting Church Hall,Ringwood East,3135,VIC,Dance Class/Club,Maroondah ,Eastern Metropolitan Region
Atomic School of Entertainment,14 Wilson Avenue,Brunswick,3056,VIC,Dance Class/Club,Moreland,North and West Metropolitan Region
Auditions School Of Dance,Thompsons Road,Patterson Lakes,3197,VIC,Dance Class/Club,Kingston,Southern Metro
Australian Bootscoot & Line Dance Association,15 Brookland Court,Mulgrave East,3170,VIC,Dance Class/Club,Monash,Eastern Metro
Australian Dancing Society,305 Buckley Street,Essendon,3040,VIC,Dance Class/Club,Moonee Valley,North and West Metropolitan Region
Australian Dancing Society,PO Box 295,Niddrie,3042,VIC,Dance Class/Club,Moonee Valley ; Brimbank,North and West Metropolitan Region
Australian Teachers of Dancing,,Mentone,3194,VIC,Dance Class/Club,"Kingston , Bayside",Southern Metro
Avenue Dance Studio,19 Roberts Avenue,Horsham,3400,VIC,Dance Class/Club,Horsham Rural,Grampians
Avondale Dance Studio,169 Canning Street,Avondale Heights,3034,VIC,Dance Class/Club,Moonee Valley,North and West Metropolitan Region
Ayres School of Irish Dancing,,Melbourne,3000,VIC,Dance Class/Club,Melbourne,North and West Metropolitan Region
Azura's Oasis,210 Sydney Road,Brunswick,3056,VIC,Dance Class/Club,Moreland,North and West Metropolitan Region
Bagheera's The Dance Place,Studio 8,Hallam,3803,VIC,Dance Class/Club,Casey,Southern Metro
Ballarat Dance Works,3A Burnbank Street,Ballarat,3350,VIC,Dance Class/Club,Ballarat,Grampians
Ballarat Rockers Inc.,,Ballarat,3350,VIC,Dance Class/Club,Ballarat,Grampians
Ballroom Dance Class and Social Dance,"The Jessie Morris Community Hall, Corner Devon Road & Oak Street",Oak Park,3046,VIC,Dance Class/Club,Moreland,North and West Metropolitan Region
Ballroom Dancing Chadstone,"Jordanville Community Centre, Batesford Reserve",Chadstone,3148,VIC,Dance Class/Club,"Stonnington , Monash","Southern Metro, Eastern Metro"
"Ballroom, Latin & Rock Dance Class and Social Dance","St. Johns Ambulance Hall,",Broadmeadows,3047,VIC,Dance Class/Club,Hume,North and West Metropolitan Region
"Ballroom, Latin & Rock Dance Class and Social Dance - Ardeer",Fairway Receptions,Ardeer,3022,VIC,Dance Class/Club,Brimbank,North and West Metropolitan Region
Balmoral Highland Dancers,38 Barrow Drive,Heathmont,3135,VIC,Dance Class/Club,Maroondah,Eastern Metro
Barrie & Joan Marr Moorabbin,1 Katoomba Street,Hampton East,3188,VIC,Dance Class/Club,Bayside,Southern Metro
Barrow's Dancing School,Elizabeth Avenue,Mildura,3500,VIC,Dance Class/Club,Mildura Rural,Loddon-Mallee
Bartuccio Dance Centre,Studio 4/40 Green Street,Prahran,3181,VIC,Dance Class/Club,Stonnington,Southern Metro
BDC Dance,13-15 Yertchuk Avenue,Ashwood,3147,VIC,Dance Class/Club,"Monash , Boroondara",Eastern Metro
Bell-Rose Academy Of Dance,Scout Hall,McKinnon,3204,VIC,Dance Class/Club,"Kingston , Glen Eira",Southern Metro
Bellarine Academy of Dance,81 Orton Street,Ocean Grove,3226,VIC,Dance Class/Club,Greater Geelong,Barwon S/W
Belly Dance Victoria,Canterbury Road,Forest Hill,3131,VIC,Dance Class/Club,Whitehorse,Eastern Metro
Belly Dancers Company,,Hughesdale,3166,VIC,Dance Class/Club,Monash,Eastern Metro
Bellydance Academy Of The Seventh Veil,99 Auburn Road,Hawthorn,3122,VIC,Dance Class/Club,Boroondara,Eastern Metro
Bellydance Kizmet,243 Bay Street,Brighton,3186,VIC,Dance Class/Club,Bayside,Southern Metro
Bellydance with Ianessa,,Upper Ferntree Gully,3156,VIC,Dance Class/Club,Yarra Ranges (S); Knox (C),Eastern Metropolitan Region
Bellyrine Belly Dancers,400 Pakington Street,Newtown,3220,VIC,Dance Class/Club,Greater Geelong,Barwon S/W
Bendigo Club,,Bendigo,3550,VIC,Dance Class/Club,Greater Bendigo,Loddon-Mallee
Bendigo Jailhouse Rockers,,Bendigo,3350,VIC,Dance Class/Club,Greater Bendigo,Loddon-Mallee
Berwick & District Scottish Country Dance Group,Masonic Hall,Berwick,3806,VIC,Dance Class/Club,Casey,Southern Metro
Bilton Academy of Irish Dancing,,Healesville,3777,VIC,Dance Class/Club,Yarra Ranges,Eastern Metro
Bilton Academy of Irish Dancing - Frankston,,Frankston,3199,VIC,Dance Class/Club,Frankston,Southern Metro
Bilton Academy of Irish Dancing - Toolangi,,Toolangi,3777,VIC,Dance Class/Club,Yarra Ranges,Eastern Metro
Bilton Academy of Irish Dancing - Wandin,,Wandin,3139,VIC,Dance Class/Club,Yarra Ranges,Eastern Metro
BJ's Dance Centre - Fitzroy,371 George Street,Fitzroy,3065,VIC,Dance Class/Club,Yarra (C); Yarra (C),North and West Metropolitan Region
BJ's Dance Centre - Melton,1/21 Reserve Rd ,Melton,,VIC,Dance Class/Club,Wyndham (C); Melton (S),North and West Metropolitan Region
Blum H & J,3 Sarah Court,Montrose,3765,VIC,Dance Class/Club,Yarra Ranges,Eastern Metro
Body Moving Dance,,,,VIC,Dance Class/Club,,
Bodywave Bellydance,,Frankston,3199,VIC,Dance Class/Club,Frankston ,Southern Metropolitan Region
Bolero Dance Studio,17 Hereford Road,Mount Evelyn,3796,VIC,Dance Class/Club,Yarra Ranges,Eastern Metro
Bollywood Dance School - East Malvern,Phoenix Park Community Centre,East Malvern,3145,VIC,Dance Class/Club,Stonnington (C),Southern Metropolitan Region
Bollywood Dance School - East Melbourne,St John's  Primary School,East Melbourne,3002,VIC,Dance Class/Club,Melbourne (C),North and West Metropolitan Region
Bollywood Dance School - Preston,Preston Neighbourhood House,Preston,3072,VIC,Dance Class/Club,Darebin (C),North and West Metropolitan Region
Bollywood Dance School - Princes Hill,Princes Hill Community Centre,Princes Hill,3054,VIC,Dance Class/Club,Yarra (C),North and West Metropolitan Region
Bootscoot'N Basics,,Bundoora,3083,VIC,Dance Class/Club,Whittlesea; Darebin; Banyule,North and West Metropolitan Region
Border Danceworks,South Street,Wodonga,3690,VIC,Dance Class/Club,Wodonga Rural,Hume
Boulders Rock and Roll - Epping,,Epping,3076,VIC,Dance Class/Club,Whittlesea,North and West Metropolitan Region
Boulders Rock and Roll - Kalkallo,,Kalkallo,3064,VIC,Dance Class/Club,,
Boulders Rock and Roll - Thornbury,,Thornbury,3071,VIC,Dance Class/Club,Darebin,North and West Metropolitan Region
Boulders Rock and Roll - Wallan,,Wallan,3756,VIC,Dance Class/Club,Whittlesea ; Macedon Ranges ; Mitchell,North and West Metropolitan Region; Loddon-Mallee; Hume
Box Hill and District Scottish Society,Theo's Church Hall,Surrey Hills,3127,VIC,Dance Class/Club,"Whitehorse , Boroondara",Eastern Metro
Boyd Acadamy of Dance,,Rowville,3193,VIC,Dance Class/Club,Knox,Eastern Metro
Brooklyn Dance School,506 Mt Alexander Road,Ascot Vale,3032,VIC,Dance Class/Club,Moonee Valley ; Maribyrnong,North and West Metropolitan Region
Brunswick Dance & Yoga Studio,458 Lygon Street,Brunswick East,3057,VIC,Dance Class/Club,Moreland,North and West Metropolitan Region
B.E.Y.O.N.D. Dance,,Heidelberg,3084,VIC,Dance Class/Club,Banyule,North and West Metropolitan Region
B.J's Dance Center,"Gate 2, Centenary Avenue",Melton,3337,VIC,Dance Class/Club,Wyndham ; Melton,North and West Metropolitan Region
Cactus Moon Linedance,,Werribee,3030,VIC,Dance Class/Club,Wyndham ; Melton ; Brimbank,North and West Metropolitan Region
CAE Arts,96 Flinders Street,Melbourne,3000,VIC,Dance Class/Club,Melbourne,North and West Metropolitan Region
Catherine Cosgriff,,Melbourne,3000,VIC,Dance Class/Club,Melbourne,North and West Metropolitan Region
Catherine Fennell Dance Academy,57 Springs Road,Clayton South,3169,VIC,Dance Class/Club,Kingston,Southern Metro
Cathy-Lea Academy of Performing Arts,"Unit 5, 15-19 Vesper Drive",Narre Warren,3805,VIC,Dance Class/Club,Casey,Southern Metro
Caulfield Over 50's Dance Group Inc.,PO Box 256,Caulfield,3162,VIC,Dance Class/Club,Glen Eira,Southern Metro
Ceroc Melbourne,PO Box 24,Port Melbourne,3207,VIC,Dance Class/Club,Port Phillip (C); Melbourne (C),Southern Metropolitan Region; North and West Metropolitan Region
Charisma Dance Centre,1 Queens Parade,Glen Iris,3146,VIC,Dance Class/Club,"Stonnington , Boroondara","Southern Metro, Eastern Metro"
Cheek To Cheek,480c Glenhuntly Road,Elsternwick,3185,VIC,Dance Class/Club,"Port Phillip , Glen Eira , Bayside",Southern Metro
Christian Dance Fellowship of Australia,8 Churchill Close,Murrumbeena,3163,VIC,Dance Class/Club,Glen Eira,Southern Metro
Christine Walsh Dance Centre,46 Cambridge Street,Collingwood,3066,VIC,Dance Class/Club,Yarra,North and West Metropolitan Region
Chunky Move,111 Sturt Street,Southbank,3006,VIC,Dance Class/Club,Port Phillip ; Melbourne,North and West Metropolitan Region; Southern Metro
City Dance Centre,88 Kooyong Road,Armadale,3143,VIC,Dance Class/Club,Stonnington,Southern Metro
Colac Rock 'n' Roll Club,PO Box 318,Colac,3250,VIC,Dance Class/Club,Colac-otway,Barwon S/W
Country Soul Bootscooters - Glengarry,Glengarry Hall,Glengarry,3854,VIC,Dance Class/Club,La Trobe,Gippsland
Country Soul Bootscooters - Heyfield,Scout Hall,Heyfield,3858,VIC,Dance Class/Club,Wellington,Gippsland
Country Soul Bootscooters - Morwell,Guide Hall,Morwell,3840,VIC,Dance Class/Club,La Trobe,Gippsland
Cranbourne Dance Studio,187 Monahans Road,Cranbourne,3977,VIC,Dance Class/Club,"Frankston , Casey",Southern Metro
Cranbourne Old Time Dance Club Inc,4 Rando Court,Frankston South,3199,VIC,Dance Class/Club,Frankston,Southern Metro
Crazy Feet Dance Studio,"Office, 7 Moorhead Street",Camberwell,3124,VIC,Dance Class/Club,Boroondara,Eastern Metro
Cretan Dance Academy,40 Pleasant View Drive,Preston,3072,VIC,Dance Class/Club,Darebin,North and West Metropolitan Region
Cuban Dance Academy,PO Box 5296,Burnley,3121,VIC,Dance Class/Club,Yarra,North and West Metropolitan Region
Dallas Academy Of Dance,24 Somerton Park Drive,Campbellfield,3061,VIC,Dance Class/Club,Hume,North and West Metropolitan Region
Dalmaine Dance Studio,,Canterbury,3126,VIC,Dance Class/Club,Boroondara,Eastern Metro
Dance Cats,Level 1/3 Hodgson Street,Fitzroy,3065,VIC,Dance Class/Club,Yarra,North and West Metropolitan Region
Dance Dimensions,,Mitcham,3132,VIC,Dance Class/Club,"Whitehorse , Manningham",Eastern Metro
Dance Dynamics,953a Station Street,Box Hill North,3129,VIC,Dance Class/Club,"Whitehorse , Boroondara",Eastern Metro
Dance Dynamics,493 Church Street,Richmond,3121,VIC,Dance Class/Club,Yarra,North and West Metropolitan Region
Dance Effects,71 Orville Street,Altona Meadows,3028,VIC,Dance Class/Club,Wyndham ; Hobsons Bay,North and West Metropolitan Region
Dance Energy,Merrilands Community Centre,Reservoir,3073,VIC,Dance Class/Club,Darebin,North and West Metropolitan Region
Dance Extensions,St Silas Church Hall,Balwyn North,3104,VIC,Dance Class/Club,Boroondara,Eastern Metro
Dance Factory Pty Ltd,442- 446 Church Street,Richmond,3121,VIC,Dance Class/Club,Yarra,North and West Metropolitan Region
Dance Fitness Victoria,120 Windsor Crescent,Surrey Hills,3127,VIC,Dance Class/Club,"Whitehorse , Boroondara",Eastern Metro
Dance Focus Inc,1 Westbeach Road,St Kilda,3182,VIC,Dance Class/Club,Port Phillip,Southern Metro
Dance Lane,Factory 75 Triholm Avenue,Laverton,3028,VIC,Dance Class/Club,Wyndham ; Hobsons Bay,North and West Metropolitan Region
Dance Limits School Of Excellence,"2nd Floor, 8 - 10 Kirk Street",Moe,3825,VIC,Dance Class/Club,"La Trobe , Baw Baw",Gippsland
Dance Partners,Silas Anglican Church,Albert Park,3206,VIC,Dance Class/Club,Port Phillip,Southern Metro
Dance Revolution,2a Lindsay Street,Macleod,3085,VIC,Dance Class/Club,Darebin; Banyule,North and West Metropolitan Region
Dance Semantics,44 Peninsula Boulevard,Seaford,3198,VIC,Dance Class/Club,Frankston,Southern Metro
Dance Studio G & L Peirce,2 Hedley Court,Bendigo,3550,VIC,Dance Class/Club,Greater Bendigo,Loddon-Mallee
Dance Theatre,Ascot Vale Neighbourhood Centre,Ascot Vale,3032,VIC,Dance Class/Club,Moonee Valley (C); Maribyrnong (C),North and West Metropolitan Region
Dance Time International,,Croydon,3136,VIC,Dance Class/Club,Maroondah,Eastern Metro
Dance Unlimited School of Dance,5a Fosters Road,Keilor Park,3042,VIC,Dance Class/Club,Moonee Valley ; Brimbank,North and West Metropolitan Region
Dance Worx (Vic) Pty Ltd,"Unit 3, 329 Pascoe Vale Road",Essendon,3040,VIC,Dance Class/Club,Moonee Valley,North and West Metropolitan Region
Dancehouse Inc,150 Princes Street,Carlton North,3054,VIC,Dance Class/Club,Yarra ; Melbourne,North and West Metropolitan Region
Dancehouse Studio Of Performing Arts,31 Bowes Avenue,Niddrie,3042,VIC,Dance Class/Club,Moonee Valley ; Brimbank,North and West Metropolitan Region
Dancehouse Studio Of Performing Arts,89 Cecil Street,Williamstown,3016,VIC,Dance Class/Club,Hobsons Bay,North and West Metropolitan Region
Dancentre at Bayside,74 Cochrane Street,Brighton North,3186,VIC,Dance Class/Club,Bayside,Southern Metro
Danceworks 114,"1st Floor, 114 Franklin Street",Traralgon,3844,VIC,Dance Class/Club,La Trobe,Gippsland
Dancing Goddess,"Shop 1, Fleetwood Crescent",Frankston South,3199,VIC,Dance Class/Club,Frankston,Southern Metro
Dandenong Academy Ballroom,"2nd Floor, 243 Lonsdale Street",Dandenong,3175,VIC,Dance Class/Club,Greater Dandenong,Southern Metro
David Skinner's The Dance Studio,32 Evelyn Street,Whittlesea,3757,VIC,Dance Class/Club,Whittlesea; Nillumbik,North and West Metropolitan Region
Deanne Fordham School of Dance,Oakleigh Community Centre,Oakleigh,3166,VIC,Dance Class/Club,Monash (C),Eastern Metropolitan Region
Debbie Lee School Of Dancing,,Leopold,3224,VIC,Dance Class/Club,Greater Geelong,Barwon S/W
Debson Dancing Academy,,Ringwood,3134,VIC,Dance Class/Club,"Manningham , Maroondah",Eastern Metro
Debson Dancing Academy,,Boronia,3155,VIC,Dance Class/Club,"Maroondah , Knox",Eastern Metro
Debson Dancing Academy,,Healesville,3777,VIC,Dance Class/Club,Yarra Ranges,Eastern Metro
Dempster Karen School Of Dance,,Wodonga,3690,VIC,Dance Class/Club,Wodonga Rural,Hume
Dennis Rochow Dance,"Unit 2, 28 Isabella Street",Geelong West,3218,VIC,Dance Class/Club,Greater Geelong,Barwon S/W
Dennis Yates Private Ball Room Dancing Tuition,Elgar Road,Box Hill,3128,VIC,Dance Class/Club,Whitehorse,Eastern Metro
Diakosmos School of Contemporary Dance,PO Box 2081 ,Fitzroy,3065,VIC,Dance Class/Club,Yarra,North and West Metropolitan Region
Diamond Creek Dance Centre,68 Hurstbridge Road,Diamond Creek,3089,VIC,Dance Class/Club,Nillumbik,North and West Metropolitan Region
Dingley Village Dance Centre,296 Spring Road,Dingley Village,3172,VIC,Dance Class/Club,Greater Dandenong,Southern Metro
Double D Dance Studio,Goulburn Valley Hotel's Caberet Room,Shepparton,3630,VIC,Dance Class/Club,Greater Shepparton,Hume
Dreams Dancity,"Factory 2, 36 Wells Road",Seaford,3198,VIC,Dance Class/Club,Frankston,Southern Metro
D.E.T. Dance Emergency Teaching,,Prahran,3181,VIC,Dance Class/Club,Stonnington,Southern Metro
Eagle Rockers,,Bayswater,3153,VIC,Dance Class/Club,"Maroondah , Knox",Eastern Metro
Egyptian Dance - Hilal Dance,,Gardenvale,3185,VIC,Dance Class/Club,"Port Phillip , Glen Eira , Bayside",Southern Metro
Egyptian Dance - Hilal Dance,,Brighton,3186,VIC,Dance Class/Club,Bayside,Southern Metro
Electric Dance Connection,2/21 Power Road,Bayswater,3153,VIC,Dance Class/Club,"Maroondah , Knox",Eastern Metro
Elite Dance Studio,,Eltham,3095,VIC,Dance Class/Club,Nillumbik,North and West Metropolitan Region
Eltham Dance Studios,68 Hurstbridge Road,Diamond Creek,3089,VIC,Dance Class/Club,Nillumbik,North and West Metropolitan Region
Energetics Dance Club,25 Keys Street,Frankston,3199,VIC,Dance Class/Club,Frankston,Southern Metro
Escapade Dance Studios,5 Smith Avenue,Thomastown,3074,VIC,Dance Class/Club,Whittlesea,North and West Metropolitan Region
Essendon Academy of Ballet,950 Mt Alexander Road,Essendon,3040,VIC,Dance Class/Club,Moonee Valley,North and West Metropolitan Region
Essendon Danse Academy,305 Buckley Street,Essendon,3040,VIC,Dance Class/Club,Moonee Valley,North and West Metropolitan Region
Essendon Square Dance Club,Maribyrnong  Community Centre,Maribyrnong,3032,VIC,Dance Class/Club,Moonee Valley (C); Maribyrnong (C),North and West Metropolitan Region
Essentially Ballet,73 Devonshire Road,Watsonia,3087,VIC,Dance Class/Club,Banyule,North and West Metropolitan Region
Excell Dance Centre,3 Williams Road,Shepparton,3630,VIC,Dance Class/Club,Greater Shepparton,Hume
Exisdance Break Skool,PO Box 1431,Ballarat,3354,VIC,Dance Class/Club,Ballarat,Grampians
First Step Academy Of Dance,PO Box 146,Hampton Park,3976,VIC,Dance Class/Club,"Greater Dandenong , Casey",Southern Metro
Flamenco Performing Arts Studio,56 Johnston Street,Fitzroy,3065,VIC,Dance Class/Club,Yarra,North and West Metropolitan Region
Forever Dance,1st Floor,Richmond,3121,VIC,Dance Class/Club,Yarra,North and West Metropolitan Region
Fourmost Dance Company,,Kilsyth  South,3137,VIC,Dance Class/Club,"Yarra Ranges , Maroondah",Eastern Metro
Freedom Dance Academy,Factory 1,Kealba,3021,VIC,Dance Class/Club,Brimbank,North and West Metropolitan Region
Funkidance Australia,162 Bay Street,Port Melbourne,3207,VIC,Dance Class/Club,Port Phillip (C); Melbourne (C),Southern Metropolitan Region; North and West Metropolitan Region
FunkTap.com,,Richmond,3121,VIC,Dance Class/Club,Yarra,North and West Metropolitan Region
Geelong Ballet Centre,126-128 Ryrie Street,Geelong,3220,VIC,Dance Class/Club,Greater Geelong,Barwon S/W
Geelong City Rock 'n' Roll,"Unit 2, 28 Isabella Street",Geelong West,3218,VIC,Dance Class/Club,Greater Geelong,Barwon S/W
Geelong Jukebox Rockers,PO Box 2046,Geelong,3220,VIC,Dance Class/Club,Greater Geelong,Barwon S/W
Geraldine O'Shea Irish Dance School,406 Highbury Road,Mount Waverley,3149,VIC,Dance Class/Club,Monash,Eastern Metro
Glinski Julie School Of Dance,155 Melbourne Road,Wodonga,3690,VIC,Dance Class/Club,Wodonga Rural,Hume
Golden Sands Bellydance Studio,,South Melbourne,3205,VIC,Dance Class/Club,Port Phillip,Southern Metro
Gotta Dance Studio,7 Gleeson Drive,Bundoora,3083,VIC,Dance Class/Club,Whittlesea; Darebin; Banyule,North and West Metropolitan Region
Goulburn Valley Academy of Ballet,50 Palmer Road,Shepparton,3630,VIC,Dance Class/Club,Greater Shepparton,Hume
Graham & Marjorie Kavanagh Ballroom Dancing Academy,2 Edina Court,Leopold,3224,VIC,Dance Class/Club,Greater Geelong,Barwon S/W
Granada Dance Centre,1927a Malvern Road,Malvern East,3145,VIC,Dance Class/Club,"Stonnington , Glen Eira",Southern Metro
Hamilton R & R,,Hamilton,3300,VIC,Dance Class/Club,Southern Grampians,Barwon S/W
Hawthorn Calisthenics College,241 Auburn Road,Hawthorn,3122,VIC,Dance Class/Club,Boroondara,Eastern Metro
Hawthorn Studio Of Dance,,Hawthorn,3122,VIC,Dance Class/Club,Boroondara,Eastern Metro
Helen Curwood Dance Centre,314 Mt Alexander Road,Ascot Vale,3032,VIC,Dance Class/Club,Moonee Valley ; Maribyrnong,North and West Metropolitan Region
Hesketh Russ,5 Malabar Court,Keysborough,3173,VIC,Dance Class/Club,Greater Dandenong,Southern Metro
Hightone Dance Academy,34 Heyers Road,Grovedale,3216,VIC,Dance Class/Club,Greater Geelong,Barwon S/W
Hildebrand Carole,51 Westerfield Drive,Clayton North,3168,VIC,Dance Class/Club,Monash (C),Eastern Metropolitan Region
Hildebrand Carole,568 Brown Road,Officer,3809,VIC,Dance Class/Club,Cardinia (S),Southern Metropolitan Region
Hip to Hip Middle Eastern Dance Studio,Level 1,Richmond,3121,VIC,Dance Class/Club,Yarra,North and West Metropolitan Region
Horsham R & R,,Horsham,3400,VIC,Dance Class/Club,Horsham Rural,Grampians
Hot Rod Rockers,,Bacchus Marsh,3340,VIC,Dance Class/Club,"Wyndham , Moorabool , Melton",Grampians
Imperial Society Of Teachers Of Dancing Victoria,PO Box 151,Ferny Creek,3786,VIC,Dance Class/Club,Yarra Ranges,Eastern Metro
Institute of Performing Arts,138 A & B Puckle Street,Moonee Ponds,3039,VIC,Dance Class/Club,Moonee Valley,North and West Metropolitan Region
International Dance Studios,"2nd Floor, 207 Glenhuntly Road",Elsternwick,3185,VIC,Dance Class/Club,"Port Phillip , Glen Eira , Bayside",Southern Metro
Irish Dance Company Of Australia,11 Herbert Street,Avondale Heights,3034,VIC,Dance Class/Club,Moonee Valley,North and West Metropolitan Region
Irish Dancing School,20 West Street,Footscray,3011,VIC,Dance Class/Club,Maribyrnong,North and West Metropolitan Region
Isolation Performing Arts Studio,51 Catalina Drive,Tullamarine,3043,VIC,Dance Class/Club,Moreland ; Hume,North and West Metropolitan Region
J & J Line Dancing,42 Spruce Drive,Rowville,3178,VIC,Dance Class/Club,Knox,Eastern Metro
Jacqui Cooper Ballroom Dancing,,Paynesville,3880,VIC,Dance Class/Club,East Gippsland,Gippsland
Jay-Dee Dance Studios,309 Riversdale Road,Hawthorn East,3123,VIC,Dance Class/Club,Boroondara,Eastern Metro
Jay-Zee Dance Classes - Scoresby,Scorebsy Primary School,Scoresby,3179,VIC,Dance Class/Club,Knox (C),Eastern Metropolitan Region
Jay-Zee Dance Classes - Wantirna,Templeton Primary School,Wantirna,3152,VIC,Dance Class/Club,Knox (C),Eastern Metropolitan Region
Jazz Reaction Dance Studio,Personal Best Fitness Centre,Bayswater,3153,VIC,Dance Class/Club,"Maroondah , Knox",Eastern Metro
Jewelled Serpent,Canterbury Road,Forest Hill,3131,VIC,Dance Class/Club,Whitehorse,Eastern Metro
"Jewels Belly Dance, Costumes & Accessories",Service Street,Malmsbury,3446,VIC,Dance Class/Club,,
Jhanak Dance Company,24 Trent Court,Burwood East,3151,VIC,Dance Class/Club,Whitehorse,Eastern Metro
Jim Welsh Dance Studio,12 Armstrong Street,Ballarat,3350,VIC,Dance Class/Club,Ballarat,Grampians
Jive 55,,Gippsland,3850,VIC,Dance Class/Club,,
Jo-Maree School of Dance,Hampton Park Primary School,Hampton Park,3976,VIC,Dance Class/Club,Greater Dandenong (C); Casey (C),Southern Metropolitan Region
Johnny Young Talent School - Mill Park,"Mill Park Secondary College, Moorehead Drive",Mill Park,3082,VIC,Dance Class/Club,Whittlesea,North and West Metropolitan Region
Joining the Chorus,49 Batman Street,West Melbourne,3003,VIC,Dance Class/Club,Melbourne,North and West Metropolitan Region
Judy R Dance Studio,16 Spratling Street,Reservoir,3073,VIC,Dance Class/Club,Darebin,North and West Metropolitan Region
Jukebox Jive - Bagheera's,Studio 8,Hallam,3803,VIC,Dance Class/Club,Casey,Southern Metro
Julie Glinski's School of Dance,155 Melbourne Road,Wodonga,3690,VIC,Dance Class/Club,Wodonga Rural,Hume
Julie Heydon School of Dance,50 View Street,Bendigo,3550,VIC,Dance Class/Club,Greater Bendigo,Loddon-Mallee
J.A.M.M. Dance Centre Eltham,47 Ryans Road,Eltham,3095,VIC,Dance Class/Club,Nillumbik,North and West Metropolitan Region
J.A.M.M. Dance Centre Lower Templestowe,286 Thompsons Road,Lower Templestowe,3107,VIC,Dance Class/Club,Manningham,Eastern Metro
K C's School of Dance,81 Burke Street,Warragul,3820,VIC,Dance Class/Club,Baw Baw,Gippsland
K J Dance Studio & Boutique,8 Driffield Road,Morwell,3840,VIC,Dance Class/Club,La Trobe,Gippsland
Kallista Dance Academy,12 Mansfield Street,Blackburn South,3130,VIC,Dance Class/Club,Whitehorse,Eastern Metro
Kallista Dance Academy,18 Main Street,Monbulk,3793,VIC,Dance Class/Club,Yarra Ranges,Eastern Metro
Karen Dempster School Of Dance,34 Whernside Drive,Wodonga,3690,VIC,Dance Class/Club,Wodonga Rural,Hume
Karen Feldman's Dance Studio,Vines Road Community Centre,Hamlyn Heights,3215,VIC,Dance Class/Club,Greater Geelong,Barwon S/W
Kates Dance World,PO Box 40,Mooroolbark,3138,VIC,Dance Class/Club,"Yarra Ranges , Maroondah",Eastern Metro
Kathleen McAleer School of Irish Dance,,Narre Warren,3805,VIC,Dance Class/Club,Casey,Southern Metro
Kathleen McAleer School of Irish Dance,,Pakenham,3810,VIC,Dance Class/Club,Cardinia,Southern Metro
Kathleen McAleer School of Irish Dance,,Cranbourne,3977,VIC,Dance Class/Club,"Frankston , Casey",Southern Metro
Kathleen McAleer School of Irish Dance,,Dandenong,3175,VIC,Dance Class/Club,Greater Dandenong,Southern Metro
Kathleen McAleer School of Irish Dance,,Belgrave,3160,VIC,Dance Class/Club,Yarra Ranges,Eastern Metro
Kathleen McAleer School of Irish Dance,,Endeavour Hills,3802,VIC,Dance Class/Club,Casey,Southern Metro
Keilor Ballet School,106 Buckingham Street,Richmond,3121,VIC,Dance Class/Club,Yarra,North and West Metropolitan Region
Kenlaurel,6 Janiesleigh Road,Upper Ferntree Gully,3156,VIC,Dance Class/Club,"Yarra Ranges , Knox",Eastern Metro
Keryn Louise Dancing Academy,,Geelong,3220,VIC,Dance Class/Club,Greater Geelong,Barwon S/W
Km Latin Dance Studio,"Level 1, 493 - 495 Church Street",Richmond,3121,VIC,Dance Class/Club,Yarra,North and West Metropolitan Region
Knox School Of Dance,250 Burwood Hwy,Wantirna South,3152,VIC,Dance Class/Club,Knox,Eastern Metro
LA Tap & Jazz Dance Studio,"Unit 1, 22 Millar Street",Horsham,3400,VIC,Dance Class/Club,Horsham Rural,Grampians
Lakeside Rockers,PO Box 9056,Sale,3850,VIC,Dance Class/Club,Wellington,Gippsland
Lambados Latin Dance Studios,"Level 1, 493-495 Church Street",Richmond,3121,VIC,Dance Class/Club,Yarra,North and West Metropolitan Region
Latin Dance Classes,Doyles/Bridge Hotel,Mordialloc,3195,VIC,Dance Class/Club,Kingston,Southern Metro
Latinfusion Dance Coaching,c/- Studio 8,Hallam,3803,VIC,Dance Class/Club,Casey,Southern Metro
Latrobe Rockers,,Gippsland,3841,VIC,Dance Class/Club,,
Latrobe Valley Scottish Country Dance Group Inc.,Monomeath Senior Citizens' Centre,Traralgon,3844,VIC,Dance Class/Club,La Trobe,Gippsland
Layla's Bellydance,392 Bell Street,Pascoe Vale South,3044,VIC,Dance Class/Club,Moreland,North and West Metropolitan Region
Le Bop - Modern Jive,Upstairs 318 Chapel Street,Prahran,3181,VIC,Dance Class/Club,Stonnington,Southern Metro
Leanne McKiernan School of Dancing,46 Michigan Avenue,Corio,3214,VIC,Dance Class/Club,Greater Geelong,Barwon S/W
Lesley Cox School Of Ballet,Cnr High & Laurel Street,Bendigo,3550,VIC,Dance Class/Club,Greater Bendigo,Loddon-Mallee
Let's Dance Studio,52 Errol Street,North Melbourne,3051,VIC,Dance Class/Club,Melbourne,North and West Metropolitan Region
Let's Go Dance,15 Male Street,Brighton,3186,VIC,Dance Class/Club,Bayside,Southern Metro
Lets Rock,,Hoppers Crossing,3029,VIC,Dance Class/Club,Wyndham,North and West Metropolitan Region
Lily Cotronea's School of Dance,"Level 1, 3 Belair Avenue",Glenroy,3046,VIC,Dance Class/Club,Moreland,North and West Metropolitan Region
Lind-Elle School of Dance,Fountain Drive,Fountain Gate,3805,VIC,Dance Class/Club,Casey,Southern Metro
Lind-Elle School of Dance,Reema Boulevard,Endeavour Hills,3802,VIC,Dance Class/Club,Casey,Southern Metro
Lind-Elle School of Dance,18 Buckley Street,Noble Park,3174,VIC,Dance Class/Club,Greater Dandenong,Southern Metro
Linda Jean Dancing Academy,Ironbark Road,Yarrambat,3091,VIC,Dance Class/Club,Whittlesea; Nillumbik,North and West Metropolitan Region
Lindy Hop Melbourne,PO Box 271 ,Burwood,3125,VIC,Dance Class/Club,"Whitehorse , Monash , Boroondara",Eastern Metro
Lindybugs,1 Freeman Street,Yarraville,3013,VIC,Dance Class/Club,Maribyrnong,North and West Metropolitan Region
Longyard Dance Studio,403 Pakington Street,Newtown,3220,VIC,Dance Class/Club,Greater Geelong,Barwon S/W
Lorraine Mead Dance Studio,Lee Street,Fawkner,3060,VIC,Dance Class/Club,Moreland,North and West Metropolitan Region
Lydia Morris School of Dance - Doncaster East,,Doncaster East,3109,VIC,Dance Class/Club,Manningham,Eastern Metro
Lydia Morris School of Dance - Epping,,Epping,3076,VIC,Dance Class/Club,Whittlesea,North and West Metropolitan Region
Magic Moves School Of Dance,Yarrambat Golf Club,Yarrambat,3091,VIC,Dance Class/Club,Whittlesea ; Nillumbik,North and West Metropolitan Region
Magic Moves School Of Dance,Watsonia Heights Primary School,Greensborough,3088,VIC,Dance Class/Club,Nillumbik ; Banyule,North and West Metropolitan Region
Magic Moves School Of Dance,Hurstbridge Primary School,Hurstbridge,3099,VIC,Dance Class/Club,Nillumbik,North and West Metropolitan Region
Margail Dance Academy,,Bayswater,3153,VIC,Dance Class/Club,"Maroondah , Knox",Eastern Metro
MarShere Dance Studios,6/772 Burwood Highway,Ferntree Gully,3156,VIC,Dance Class/Club,"Yarra Ranges , Knox",Eastern Metro
MarShere Dance Studios,380 Canterbury Road,Heathmont,3135,VIC,Dance Class/Club,Maroondah,Eastern Metro
MarShere Dance Studios,90 Boronia Road,Boronia,3155,VIC,Dance Class/Club,"Maroondah , Knox",Eastern Metro
May Downs School Of Dancing,2 Berrima Road,Donvale,3111,VIC,Dance Class/Club,Manningham,Eastern Metro
Mayfair Ballroom Dancing Academy,16-18 Wattlepark Avenue,Moolap,3221,VIC,Dance Class/Club,,
McPhersons Dance Studio,15 Robinson Street,Dandenong,3175,VIC,Dance Class/Club,Greater Dandenong,Southern Metro
Melbourne Colonial Dancers Inc.,9 Devon Street,Croydon,3136,VIC,Dance Class/Club,Maroondah,Eastern Metro
Melbourne Dance Academy,RSL Hall 301 High Street,Prahran,3181,VIC,Dance Class/Club,Stonnington,Southern Metro
Melbourne Dance Xchange (MDX),"Unit 2, 1 Akuna Drive",Williamstown,3016,VIC,Dance Class/Club,Hobsons Bay,North and West Metropolitan Region
Melissa Abley Dance House,School Street,California Gully,3556,VIC,Dance Class/Club,Greater Bendigo,Loddon-Mallee
Melton Bacchus Marsh Dancing Festival,PO Box 383,Melton,3337,VIC,Dance Class/Club,Wyndham ; Melton,North and West Metropolitan Region
Memory Lane Dance Company,2 Adair Street,Linton,3360,VIC,Dance Class/Club,Golden Plains,Grampians
Mi Style Dance Studio - Kealba,,Kealba,3021,VIC,Dance Class/Club,Brimbank,North and West Metropolitan Region
Mi Style Dance Studio - Mt Evelyn,,Mount Evelyn,3796,VIC,Dance Class/Club,Yarra Ranges,Eastern Metro
Mi Style Dance Studio - The Basin,,The Basin,3154,VIC,Dance Class/Club,Knox,Eastern Metro
Middle Eastern Dance Company,,North Melbourne,3051,VIC,Dance Class/Club,Melbourne,North and West Metropolitan Region
Mill Park Ballet Centre,7 Wickham Court,Mill Park,3082,VIC,Dance Class/Club,Whittlesea,North and West Metropolitan Region
Millennium Dance Concepts (MDC),Wyndham Green,Wyndham Vale,3024,VIC,Dance Class/Club,Wyndham,North and West Metropolitan Region
Mirage Jamal - Bellydance Retreat,1170 Sayers Road,Tarneit,3029,VIC,Dance Class/Club,,
Miss Emily Hamilton School of Dance,Iramoo Community Centre,Wyndham Vale,3024,VIC,Dance Class/Club,Wyndham,North and West Metropolitan Region
Modern Square Dancing,,Bendigo,3550,VIC,Dance Class/Club,Greater Bendigo,Loddon-Mallee
Mt Waverley School Of Ballet,Edward Street,Chadstone,3148,VIC,Dance Class/Club,"Stonnington , Monash","Southern Metro, Eastern Metro"
Mzuri Dance Network,,Brunswick,3056,VIC,Dance Class/Club,Moreland,North and West Metropolitan Region
Nella Randone Flamenco Productions & Classes,419 Albion Street,Brunswick West,3055,VIC,Dance Class/Club,Moreland,North and West Metropolitan Region
North East Middle Eastern Dance Association,Upper Lurg Road,Upper Lurg,3673,VIC,Dance Class/Club,,
Northern Dance Exposure,62A Deakin Street,Essendon,3040,VIC,Dance Class/Club,Moonee Valley,North and West Metropolitan Region
O'Connor School of Irish Dancing,,Heathmont,3135,VIC,Dance Class/Club,Maroondah,Eastern Metro
O'Connor School of Irish Dancing,,Blackburn,3130,VIC,Dance Class/Club,Whitehorse,Eastern Metro
O'Connor School of Irish Dancing,,Lower Templestowe,3107,VIC,Dance Class/Club,Manningham,Eastern Metro
O'Shea-Ryan Academy of Irish Dance,406 Highbury Road,Mount Waverley,3149,VIC,Dance Class/Club,Monash,Eastern Metro
O'Shea-Ryan Academy of Irish Dance,VRI Hall,Warragul,3820,VIC,Dance Class/Club,Baw Baw,Gippsland
O'Shea-Ryan Irish Dance Academy,,Bendigo,3550,VIC,Dance Class/Club,Greater Bendigo,Loddon-Mallee
One Step Ahead Dance Studio,10 Cadby Court,Warragul,3820,VIC,Dance Class/Club,Baw Baw,Gippsland
One Step Ahead Dance Studio,Factory 3,Narre Warren,3805,VIC,Dance Class/Club,Casey,Southern Metro
Over The Moon Dance Studio,,Castlemaine,3450,VIC,Dance Class/Club,Mount Alexander,Loddon-Mallee
Pam Speedy Dance School,12 Wattle Grove,Malvern East,3145,VIC,Dance Class/Club,"Stonnington , Glen Eira",Southern Metro
Patrick Studios Australia,4/40 Green Street,Prahran,3181,VIC,Dance Class/Club,Stonnington (C); Melbourne (C),Southern Metropolitan Region
Pegasus Dance Academy,282 Edgars Road,Lalor,3075,VIC,Dance Class/Club,Whittlesea,North and West Metropolitan Region
Plaza Ballroom,3/128 Canterbury Road,Kilsyth,3137,VIC,Dance Class/Club,"Yarra Ranges , Maroondah",Eastern Metro
Pole Dancing for Fun & Fitness,,Keilor,3036,VIC,Dance Class/Club,Brimbank,North and West Metropolitan Region
Professional Dance Coaching,,Cheltenham,3192,VIC,Dance Class/Club,"Kingston , Bayside",Southern Metro
Rebecca's School of Dance,Factory 9,Hampton Park,3976,VIC,Dance Class/Club,"Greater Dandenong , Casey",Southern Metro
Red Coyote Bootscootin,2 Yarraview Parade,Macleod,3085,VIC,Dance Class/Club,Darebin; Banyule,North and West Metropolitan Region
Renegade Rockers,,Altona,3018,VIC,Dance Class/Club,Hobsons Bay,North and West Metropolitan Region
Renvin Dance,115A Pakington Street,Geelong West,3218,VIC,Dance Class/Club,Greater Geelong,Barwon S/W
Riga Victoria Dance Academy,PO Box 8297 ,Preston,3072,VIC,Dance Class/Club,Darebin,North and West Metropolitan Region
Ring O'Roses Dance For Children,Corner Windalla Avenue,Kew East,3102,VIC,Dance Class/Club,Boroondara,Eastern Metro
Ringwood Ballet Group,"Bedford Park, Bedford Road,",Ringwood,3134,VIC,Dance Class/Club,"Manningham , Maroondah",Eastern Metro
Rio Dance Studio Pty Ltd,439 Elizabeth Street,Melbourne,3000,VIC,Dance Class/Club,Melbourne,North and West Metropolitan Region
Rio Dance Studio Pty Ltd,275 High Street,Prahran,3181,VIC,Dance Class/Club,Stonnington,Southern Metro
Rio Dance Studio Pty Ltd,675 Glenferrie Road,Hawthorn,3122,VIC,Dance Class/Club,Boroondara,Eastern Metro
Ritz Dance Club,936 North Road,Bentleigh East,3165,VIC,Dance Class/Club,Glen Eira,Southern Metro
Rizing Stars Creative Dance Group,252 Kronks Lane,Strathfieldsaye,3551,VIC,Dance Class/Club,Greater Bendigo,Loddon-Mallee
Rock 'n' Roll Lessons With Linda,New Street,Ringwood,3134,VIC,Dance Class/Club,"Manningham , Maroondah",Eastern Metro
Rock the House,,Wantirna,3152,VIC,Dance Class/Club,Knox,Eastern Metro
Rock & Roll Lessons,,Tooradin,3980,VIC,Dance Class/Club,Casey,Southern Metro
Rock & Roll Lessons,,Harkaway,3806,VIC,Dance Class/Club,,
Rockin' 50's,22 Park Street,Bendigo,3550,VIC,Dance Class/Club,Greater Bendigo,Loddon-Mallee
Romina's School Of Modern Dancing,Barrymore Road,Greenvale,3059,VIC,Dance Class/Club,Hume,North and West Metropolitan Region
Rositas Southern Flaminco Centre,"Studio 1, 10 Park Road",Cheltenham,3192,VIC,Dance Class/Club,"Kingston , Bayside",Southern Metro
Rosland's School Of Dance,Malone Street,Geelong,3220,VIC,Dance Class/Club,Greater Geelong,Barwon S/W
Ross Dance Studio,25 Pritchard Street,Swan Hill,3585,VIC,Dance Class/Club,Swan Hill Rural,Loddon-Mallee
Rowville Ballet Academy,10 Booth Crescent,Dandenong North,3175,VIC,Dance Class/Club,Greater Dandenong,Southern Metro
Royal Scottish Country Dance Society,"Athenry, 12 Meadowgate Drive",Chirnside Park,3116,VIC,Dance Class/Club,Yarra Ranges,Eastern Metro
Rye Rock & Roll Class,,Rye,3941,VIC,Dance Class/Club,Mornington Peninsula,Southern Metro
Saddle Tramps,39 Spence Street,Keilor Park,3042,VIC,Dance Class/Club,Moonee Valley ; Brimbank,North and West Metropolitan Region
Saddle Tramps (Noel),Cnr Glengala & Simmie Streets,Sunshine West,3020,VIC,Dance Class/Club,Maribyrnong ; Brimbank,North and West Metropolitan Region
Salzone Dance Studio,Crn Cromwell & Murrell Streets,Glenroy,3046,VIC,Dance Class/Club,Moreland,North and West Metropolitan Region
Sandra Clack Ballet Centre,2 Powell Place,Geelong,3220,VIC,Dance Class/Club,Greater Geelong,Barwon S/W
Sara's - Under 18's,,The Basin,3154,VIC,Dance Class/Club,Knox,Eastern Metro
Sassi Dance,,Lilydale,3140,VIC,Dance Class/Club,Yarra Ranges,Eastern Metro
Sharon Saunders Dancers,PO Box 103,Marong,3515,VIC,Dance Class/Club,Greater Bendigo,Loddon-Mallee
Shelton Pat,90 Koetong Parade,Mount Eliza,3930,VIC,Dance Class/Club,Mornington Peninsula,Southern Metro
Shepparton Dance Studio,124a High Street,Shepparton,3630,VIC,Dance Class/Club,Greater Shepparton,Hume
Shepparton R & R,,Shepparton,3630,VIC,Dance Class/Club,Greater Shepparton,Hume
Sheree's Dancercise,Bacchus Marsh Shire Hall,Bacchus Marsh,3340,VIC,Dance Class/Club,"Wyndham , Moorabool , Melton",Grampians
Sheree's Dancercise - Ballan,Mechanics Halls,Ballan,3342,VIC,Dance Class/Club,Moorabool,Grampians
Showbiz Dance,"Bruce Park Hall, Margate Avenue",Frankston,3199,VIC,Dance Class/Club,Frankston,Southern Metro
Sidewalk Tango,327 Swan Street,Richmond,3121,VIC,Dance Class/Club,Yarra,North and West Metropolitan Region
Sierra Dance Centrepointe,19 Graham Road,Rosanna,3084,VIC,Dance Class/Club,Banyule,North and West Metropolitan Region
Simply Dancin,15/217 Mickleham Road,Tullamarine,3043,VIC,Dance Class/Club,Moreland ; Hume,North and West Metropolitan Region
Siobhan's Dance Studios,St Francis Xaviers School Hall,Box Hill,3128,VIC,Dance Class/Club,Whitehorse,Eastern Metro
Soul Latin Dance Studio,480C Glenhuntly Road,Elsternwick,3185,VIC,Dance Class/Club,"Port Phillip , Glen Eira , Bayside",Southern Metro
Southern Cross Ballroom Dancing,1 Coprosma Avenue,Frankston,3199,VIC,Dance Class/Club,Frankston,Southern Metro
Southside - Frankston,Frankston East Hall,Frankston,3199,VIC,Dance Class/Club,Frankston,Southern Metro
Southside - Springvale,Waltzing Matilda Hotel,Springvale,3171,VIC,Dance Class/Club,Greater Dandenong,Southern Metro
Southside Dance - Seaford,Seaford Community Hall,Seaford,3198,VIC,Dance Class/Club,Frankston,Southern Metro
Spendlove Dancing Academy,11 Wellman Street,Launching Place,3139,VIC,Dance Class/Club,Yarra Ranges,Eastern Metro
Stage Door Dance Academy,2 Newington Avenue,Rosebud,3939,VIC,Dance Class/Club,Mornington Peninsula,Southern Metro
Stapleton Dance Academy,Corner Clarinda & Ardmillan Road,Moonee Ponds,3039,VIC,Dance Class/Club,Moonee Valley,North and West Metropolitan Region
Star Studios,"Level 1, 325 Centre Road",Bentleigh,3204,VIC,Dance Class/Club,"Kingston , Glen Eira",Southern Metro
Star Train Academy,Knox Performing Arts Centre,Bayswater,3153,VIC,Dance Class/Club,"Maroondah , Knox",Eastern Metro
Starr-belle Dance Studio - Noble Park,,Noble Park,3174,VIC,Dance Class/Club,Greater Dandenong,Southern Metro
Starr-belle Dance Studio - Pakenham,,Pakenham,3810,VIC,Dance Class/Club,Cardinia,Southern Metro
Starr-belle Dance Studio - Poowong,,Poowong,3988,VIC,Dance Class/Club,"South Gippsland , Baw Baw",Gippsland
Starr-belle Dance Studio - Traralgon,,Traralgon,3844,VIC,Dance Class/Club,La Trobe,Gippsland
Starr-belle Dance Studio - Wonthaggi,,Wonthaggi,3995,VIC,Dance Class/Club,Bass Coast,Gippsland
State Dance Association,,Belgrave South,3160,VIC,Dance Class/Club,Yarra Ranges,Eastern Metro
Steps Performing Arts School,,Yarraville,3013,VIC,Dance Class/Club,Maribyrnong,North and West Metropolitan Region
Stompin' Cowboys Country Music & Dance Promotions,PO Box 69 ,Altona,3018,VIC,Dance Class/Club,Hobsons Bay,North and West Metropolitan Region
Studio D,,Mount Waverley,3149,VIC,Dance Class/Club,Monash,Eastern Metro
Studio Two Dance Centre,1/18 - 22 Williams Road,Dandenong South,3175,VIC ,Dance Class/Club,Greater Dandenong (C),Southern Metropolitan Region
Surrey Dance,St Aidan's Church Hall,Box Hill South,3128,VIC,Dance Class/Club,Whitehorse,Eastern Metro
Sway Dance Studio,Corner Oxford & Station Street,Box Hill,3129,VIC,Dance Class/Club,Whitehorse,Eastern Metro
Swing and Rock - Epping,,Epping,3076,VIC,Dance Class/Club,Whittlesea,North and West Metropolitan Region
Swing and Rock - Taylors Lakes,,Taylors Lakes,3038,VIC,Dance Class/Club,Melton ; Brimbank,North and West Metropolitan Region
Swing and Rock - Yarraville,,Yarraville,3013,VIC,Dance Class/Club,Maribyrnong,North and West Metropolitan Region
Swing Central,"Mayfields, 103 Smith Street",Fitzroy,3065,VIC,Dance Class/Club,Yarra,North and West Metropolitan Region
Swing Patrol,3 Grattan Street,Prahran,3181,VIC,Dance Class/Club,Stonnington,Southern Metro
Take Five Dance & Fitness Studios,435 Nepean Highway,Frankston,3199,VIC,Dance Class/Club,Frankston,Southern Metro
Tap-High Dance Studio,,Grovedale,3216,VIC,Dance Class/Club,Greater Geelong,Barwon S/W
Tempo Dance Company,2 Leyland Road,Ferntree Gully,3156,VIC,Dance Class/Club,"Yarra Ranges , Knox",Eastern Metro
The Ballerina Co.,"3rd Melton Scout Hall, Cnr Smith and Henry Streets",Melton,3013,VIC,Dance Class/Club,Wyndham (C); Melton (S),North and West Metropolitan Region
The Dance Company,,Little River,3211,VIC,Dance Class/Club,Wyndham ; Greater Geelong,North and West Metropolitan Region; Barwon S/W
The Dance Room,,Brunswick West,3055,VIC,Dance Class/Club,Moreland,North and West Metropolitan Region
The Dance Room,,Brunswick West,3055,VIC,Dance Class/Club,Moreland,North and West Metropolitan Region
The Dance Studio,"1st Floor, 35 Sturt Street",Ballarat North,3350,VIC,Dance Class/Club,Ballarat,Grampians
The Dawn School of Dancing,9 Elliot Street,Reservoir,3073,VIC,Dance Class/Club,Darebin,North and West Metropolitan Region
The Edge Performers School & Agency,1A /20 Peel Street,Eltham,3095,VIC,Dance Class/Club,Nillumbik,North and West Metropolitan Region
The Jazz Centre,29 Burke Road,Malvern East,3145,VIC,Dance Class/Club,"Stonnington , Glen Eira",Southern Metro
The Laurelle Dance Connection,Raleigh Street,Westmeadows,3049,VIC,Dance Class/Club,Hume,North and West Metropolitan Region
The Secret Garden of Dance,"Level 1, 823 Burke Road",Camberwell,3124,VIC,Dance Class/Club,Boroondara (C),Eastern Metropolitan Region
The Space Dance and Arts Centre,Upstairs 318 Chapel Street,Prahran,3181,VIC,Dance Class/Club,Stonnington,Southern Metro
Theatre De La DanSe,Brighton Recreation Centre,Brighton,3186,VIC,Dance Class/Club,Bayside,Southern Metro
Thunderbird Linedancers,44 Cleveland Road,Ashwood,3147,VIC,Dance Class/Club,"Monash , Boroondara",Eastern Metro
Toucan Dance,142 Glenferrie Road,Malvern,3144,VIC,Dance Class/Club,Stonnington,Southern Metro
Trivical Performance Academy,2/96 Voltri Street,Mentone,3194,VIC,Dance Class/Club,"Kingston , Bayside",Southern Metro
Tush Push,,St Albans,3021,VIC,Dance Class/Club,Brimbank,North and West Metropolitan Region
Twinkles Toes Dance School,Orvieto Street,Merlynston,3058,VIC,Dance Class/Club,Moreland,North and West Metropolitan Region
Underbelly,1/ 279- 281 Smith Street,Fitzroy,3065,VIC,Dance Class/Club,Yarra,North and West Metropolitan Region
Vicki's Dancing Academy,110 Airlie Bank Road,Morwell,3840,VIC,Dance Class/Club,La Trobe,Gippsland
Victoria Mead School of Belly Dance,,Mount Waverley,3149,VIC,Dance Class/Club,Monash,Eastern Metro
Victorian Ballet School,4 Second Avenue,Box Hill North,3129,VIC,Dance Class/Club,"Whitehorse , Boroondara",Eastern Metro
Victorian Line Dance Association,PO Box 385,Melbourne,3005,VIC,Dance Class/Club,Melbourne,North and West Metropolitan Region
Vision Dance Studios,Royal Crescent ,Hillside,3037,VIC,Dance Class/Club,Melton ; Brimbank,North and West Metropolitan Region
Viva La Dance,"Studio, 125 Main Street ",Croydon,3136,VIC,Dance Class/Club,Maroondah,Eastern Metro
Vogue School of Performing Arts,Cnr Bell Street & Melville Road,Pascoe Vale South,3044,VIC,Dance Class/Club,Moreland,North and West Metropolitan Region
Warracknabeal School Of Dancing,"Unit 1, 22 Millar Street",Warracknabeal,3393,VIC,Dance Class/Club,Yarriambiack,Grampians
Wendon Dance Studio - Mornington,Unit 25 - 1140 Nepean Highway,Mornington,3931,VIC,Dance Class/Club,Mornington Peninsula,Southern Metro
Wendon Dance Studios - Glen Waverley,"1st Floor, 24 Kingsway ",Glen Waverley,3150,VIC,Dance Class/Club,Monash,Eastern Metro
Werribee Dance Academy,Uniting Church Hall,Werribee,3030,VIC,Dance Class/Club,Wyndham ; Melton ; Brimbank,North and West Metropolitan Region
West Coast Rockers,19 Gravesend Street,Colac,3250,VIC,Dance Class/Club,Colac-otway,Barwon S/W
Western Academy Of Dance,Uniting Church Hall,Essendon North,3041,VIC,Dance Class/Club,Moonee Valley,North and West Metropolitan Region
Westside Dance,28 Trafalgar Avenue,Altona Meadows,3028,VIC,Dance Class/Club,Wyndham ; Hobsons Bay,North and West Metropolitan Region
Westside Rockers,,Deer Park,3023,VIC,Dance Class/Club,Brimbank,North and West Metropolitan Region
Wightman Gay School Of Ballet,309 Doncaster Road,Balwyn North,3104,VIC,Dance Class/Club,Boroondara,Eastern Metro
Wolf Dancing,,Melbourne,3000,VIC,Dance Class/Club,Melbourne,
Yarra Heights Dance Academy,,Lilydale,3140,VIC,Dance Class/Club,Yarra Ranges,Eastern Metro
ZOOZ Israeli Dancing School - Elsternwick,Scout Hall,Elsternwick,3185,VIC,Dance Class/Club,Port Phillip (C); Glen Eira (C); Bayside (C); Glen Eira (C),Southern Metropolitan Region; 
ZOOZ Israeli Dancing School - Malvern,Malvern Central School,Malvern,3145,VIC,Dance Class/Club,Stonnington (C),Southern Metropolitan Region
Gateway Family Church,Gateway Business Centre,Baxter,3911,VIC,"Basketball Club,Dance Class/Club,Fishing Club",Mornington Peninsula (S); Frankston (C),Southern Metropolitan Region
Life Activities Club Waverley,PO Box 3045,Syndal,3149,VIC,"Bicycle Club,Dance Class/Club,Recreation Group,Table Tennis Club,Tai Chi,Walking Club/Group",Monash (C),Eastern Metropolitan Region
East Frankston Over 55's Club,200 Beach Street,Frankston,3199,VIC,"Bowling Club,Dance Class/Club,Recreation Group",Frankston,Southern Metro
Akira Calisthenics College,P.O. Box 301,Lilydale,3140,VIC,Calisthenics,Yarra Ranges (S),Eastern Metropolitan Region
Mildura Calisthenics Club,,Mildura,3500,VIC,Calisthenics,Mildura Rural,Loddon-Mallee
Arden Calisthenics Club,PO Box 135,Rosanna,3084,VIC,"Calisthenics,Dance Class/Club",Banyule (C),North and West Metropolitan Region
Aurora Calisthenics College,,Brighton,3186,VIC,"Calisthenics,Dance Class/Club",Bayside,Southern Metro
Avonde Calisthenics College,,Avondale Heights,3034,VIC,"Calisthenics,Dance Class/Club",Moonee Valley,North and West Metropolitan Region
Balmoral Calisthenics Club,,Bentleigh,3204,VIC,"Calisthenics,Dance Class/Club","Kingston , Glen Eira",Southern Metro
Bendigo Calisthenics Club,PO Box 2119,Bendigo,3550,VIC,"Calisthenics,Dance Class/Club",Greater Bendigo,Loddon-Mallee
Berwick Calisthenics Club,,Berwick,3806,VIC,"Calisthenics,Dance Class/Club",Casey,Southern Metro
Blackburn Calisthenics College,,Blackburn South,3130,VIC,"Calisthenics,Dance Class/Club",Whitehorse,Eastern Metro
Boronia Calisthenics College Inc.,,Boronia,3155,VIC,"Calisthenics,Dance Class/Club","Maroondah , Knox",Eastern Metro
Brianna Calisthenics Inc.,P.O. Box 7030,Croydon South,3136,VIC,"Calisthenics,Dance Class/Club",Maroondah,Eastern Metro
Bundoora Calisthenics Club,,Bundoora,3083,VIC,"Calisthenics,Dance Class/Club",Whittlesea; Darebin; Banyule,North and West Metropolitan Region
Canadian Bay Calisthenic Club,,Mount Eliza,3930,VIC,"Calisthenics,Dance Class/Club",Mornington Peninsula (S),Southern Metropolitan Region
Caroline Springs Calisthenics Club,,Caroline Springs,3023,VIC,"Calisthenics,Dance Class/Club",Brimbank (C); Melton (S),North and West Metropolitan Region
Ceres Calisthenic College Inc.,,Mulgrave,3170,VIC,"Calisthenics,Dance Class/Club",Monash,Eastern Metro
Chadstone Calisthenics Club,Brine Street,Hughesdale,3166,VIC,"Calisthenics,Dance Class/Club",Monash,Eastern Metro
Chelsea Girls Calisthenics Club,,Chelsea,3196,VIC,"Calisthenics,Dance Class/Club",Kingston,Southern Metro
Clarinda Calisthenics Club,,Oakleigh South,3167,VIC,"Calisthenics,Dance Class/Club",Kingston,"Southern Metro, Eastern Metro"
Cranbourne Calisthenics College,,Cranbourne,3977,VIC,"Calisthenics,Dance Class/Club","Frankston , Casey",Southern Metro
Crown Calisthenics College,,Balwyn North,3104,VIC,"Calisthenics,Dance Class/Club",Boroondara,Eastern Metro
Doncaster Calisthenics Club,,Doncaster,3108,VIC,"Calisthenics,Dance Class/Club",Manningham,Eastern Metro
Donvale Calisthenics Club,,Doncaster East,3109,VIC,"Calisthenics,Dance Class/Club",Manningham,Eastern Metro
Dorset Calisthenics College,,Boronia,3155,VIC,"Calisthenics,Dance Class/Club","Maroondah , Knox",Eastern Metro
Dresden Calisthenics College,,Noble Park,3174,VIC,"Calisthenics,Dance Class/Club",Greater Dandenong,Southern Metro
Eastside Calisthenics College,,East Geelong,3219,VIC,"Calisthenics,Dance Class/Club",Greater Geelong,Barwon S/W
Ellanda Calisthenics College,,Vermont,3133,VIC,"Calisthenics,Dance Class/Club","Whitehorse , Maroondah",Eastern Metro
Elle Calisthenic College,,Carrum Downs,3201,VIC,"Calisthenics,Dance Class/Club",Frankston,Southern Metro
Eltham Calisthenics College,,Montmorency,3094,VIC,"Calisthenics,Dance Class/Club",Banyule,North and West Metropolitan Region
Emmanuel Calisthenics Inc.,,Huntingdale,3166,VIC,"Calisthenics,Dance Class/Club",Monash,Eastern Metro
Fernleigh Calisthenics Club,,Boronia,3155,VIC,"Calisthenics,Dance Class/Club","Maroondah , Knox",Eastern Metro
Findon Calisthenics Club,,South Morang,3752,VIC,"Calisthenics,Dance Class/Club",Whittlesea,North and West Metropolitan Region
Geelong Calisthenics College,Uniting Church,Newtown,3220,VIC,"Calisthenics,Dance Class/Club",Greater Geelong (C); Ararat (RC),Barwon South Western Region; Grampians Region
Glenroy Calisthenics,,Glenroy,3046,VIC,"Calisthenics,Dance Class/Club",Moreland,North and West Metropolitan Region
Goldfields Calisthenics Club,Kangaroo Flat,Bendigo,3550,VIC,"Calisthenics,Dance Class/Club",Greater Bendigo,Loddon-Mallee
Grampians Calisthenics College Inc.,,Stawell,3380,VIC,"Calisthenics,Dance Class/Club",Northern Grampians (S),Grampians Region
Horsham Calisthenics College,,Horsham,3400,VIC,"Calisthenics,Dance Class/Club",Horsham (RC),Grampians Region
Janelle Calisthenics College,,Greensborough,3088,VIC,"Calisthenics,Dance Class/Club",Nillumbik ; Banyule,North and West Metropolitan Region
Japara Calisthenics,,Montrose,3765,VIC,"Calisthenics,Dance Class/Club",Yarra Ranges,Eastern Metro
Jayde Calisthenic Club,,Wendouree,3355,VIC,"Calisthenics,Dance Class/Club",Ballarat (C),Grampians Region
Jeaden Calisthenics College,,Mount Waverley,3149,VIC,"Calisthenics,Dance Class/Club",Monash,Eastern Metro
Joscelle Calisthenics College,,Hoppers Crossing,3029,VIC,"Calisthenics,Dance Class/Club",Wyndham,North and West Metropolitan Region
Joulle Calisthenics Academy Inc.,,North Croydon,3136,VIC,"Calisthenics,Dance Class/Club",Maroondah,Eastern Metro
Kallara Calisthenics College,,Beaumaris,3193,VIC,"Calisthenics,Dance Class/Club",Bayside,Southern Metro
Karrington Calisthenics Club,,St Albans,3021,VIC,"Calisthenics,Dance Class/Club",Brimbank (C),North and West Metropolitan Region
Kendara Calisthenics College,,Keilor Downs,3038,VIC,"Calisthenics,Dance Class/Club",Melton ; Brimbank,North and West Metropolitan Region
Kingston Calisthenics Club,,Mordialloc,3195,VIC,"Calisthenics,Dance Class/Club",Kingston,Southern Metro
Larinda Calisthenics College,,Lara,3212,VIC,"Calisthenics,Dance Class/Club",Greater Geelong,Barwon S/W
Laurieton Calisthenics College,,Hampton Park,3976,VIC,"Calisthenics,Dance Class/Club","Greater Dandenong , Casey",Southern Metro
Leawarra Calisthenics Club,,Frankston,3199,VIC,"Calisthenics,Dance Class/Club",Frankston,Southern Metro
LeMor Calisthenics Inc.,,Bentleigh East,3165,VIC,"Calisthenics,Dance Class/Club","Kingston , Glen Eira",Southern Metro
Lotus Calisthenics Inc,,Pakenham,3810,VIC,"Calisthenics,Dance Class/Club",Cardinia,Southern Metro
Macedon Ranges Calisthenics College,,Woodend,3442,VIC,"Calisthenics,Dance Class/Club",Macedon Ranges,Loddon-Mallee
Maroondah Calisthenics Club,,Ringwood,3134,VIC,"Calisthenics,Dance Class/Club",Manningham (C),Eastern Metropolitan Region
Melton Calisthenics Club,,Melton,3337,VIC,"Calisthenics,Dance Class/Club",Wyndham ; Melton,North and West Metropolitan Region
Merinda Calisthenics College Inc.,,Reservoir,3073,VIC,"Calisthenics,Dance Class/Club",Darebin,North and West Metropolitan Region
Millbrooke Calisthenics Club,,Preston,3072,VIC,"Calisthenics,Dance Class/Club",Darebin,North and West Metropolitan Region
Newport Calisthenics Club,,Newport,3015,VIC,"Calisthenics,Dance Class/Club",Maribyrnong ; Hobsons Bay,North and West Metropolitan Region
Northcrest Calisthenics Club,,Epping,3076,VIC,"Calisthenics,Dance Class/Club",Whittlesea (C),North and West Metropolitan Region
Ocean Grove Calisthenic College Inc.,,Ocean Grove,3226,VIC,"Calisthenics,Dance Class/Club",Greater Geelong (C),Barwon South Western Region
Otway Calisthenics Academy,,Colac,3250,VIC,"Calisthenics,Dance Class/Club",Colac-otway,Barwon S/W
Ovens Valley Calisthenics College,,Bright,3741,VIC,"Calisthenics,Dance Class/Club",Alpine (S),Hume Region
Pentland Calisthenics College,,Bacchus Marsh,3340,VIC,"Calisthenics,Dance Class/Club","Wyndham , Moorabool , Melton",Grampians
Raieburn Calisthenics College,,Craigieburn,3064,VIC,"Calisthenics,Dance Class/Club",Whittlesea ; Hume,North and West Metropolitan Region
Regency Calisthenics College,,Wantirna,3152,VIC,"Calisthenics,Dance Class/Club",Knox,Eastern Metro
Robyna Calisthenics College,,Hoppers Crossing,3029,VIC,"Calisthenics,Dance Class/Club",Wyndham,North and West Metropolitan Region
Robynmore Calisthenics College,,Essendon,3040,VIC,"Calisthenics,Dance Class/Club",Moonee Valley,North and West Metropolitan Region
Roselind Calisthenics,,Sunbury,3429,VIC,"Calisthenics,Dance Class/Club",Melton ; Hume,North and West Metropolitan Region
Roxvale Calisthenics College,,Greenvale,3059,VIC,"Calisthenics,Dance Class/Club",Hume,North and West Metropolitan Region
Solar City Calisthenics,,Mooroopna,3629,VIC,"Calisthenics,Dance Class/Club",Greater Shepparton,Hume
Sovereign Calisthenic College,,Ballarat,3350,VIC,"Calisthenics,Dance Class/Club",Ballarat,Grampians
Sterling Calisthenics Inc.,,Endeavour Hills,3802,VIC,"Calisthenics,Dance Class/Club",Casey,Southern Metro
St. Marks Calisthenics Club,,Reservoir,3073,VIC,"Calisthenics,Dance Class/Club",Darebin (C),North and West Metropolitan Region
Sunbury School of Calisthenics Inc.,,Sunbury,3429,VIC,"Calisthenics,Dance Class/Club",Melton ; Hume,North and West Metropolitan Region
Surf Coast Calisthenics,,Torquay and the Surf Coast,3228,VIC,"Calisthenics,Dance Class/Club",Surf Coast (S),Barwon South Western Region
Upper Kiewa Valley Calisthenics,,Mount Beauty,3699,VIC,"Calisthenics,Dance Class/Club",Alpine,Hume
Warrandyte Calisthenics Club,,Warrandyte,3113,VIC,"Calisthenics,Dance Class/Club","Nillumbik , Manningham",Eastern Metro
Warrnambool Calisthenic Club,,Warrnambool,3280,VIC,"Calisthenics,Dance Class/Club",Warrnambool (C),Barwon South Western Region
Westaire Calisthenics College Inc.,,Airport West,3042,VIC,"Calisthenics,Dance Class/Club",Moonee Valley ; Brimbank,North and West Metropolitan Region
Westcoast Calisthenics Club Inc.,,Belmont/Highton,3216,VIC,"Calisthenics,Dance Class/Club",Greater Geelong (C),Barwon South Western Region
Wingrove School of Calisthenics,,Grovedale,3216,VIC,"Calisthenics,Dance Class/Club",Greater Geelong (C),Barwon South Western Region
Calisthenics Victoria,6/104 Ferntree Gully Road,Oakleigh,3166,VIC,"Calisthenics,State body",Monash (C),Eastern Metropolitan Region
Balwyn Leisure Centre,230 Balwyn Road,Balwyn North,3104,VIC,"Dance Class/Club,Disability,Fitness centre,Gymnastics,Martial Arts,Netball Club,Strength Training,Yoga",Boroondara (C),Eastern Metropolitan Region
Outlets Co-operative Neighbourhood House Ltd,43 Mason Street,Newport,3015,VIC,"Dance Class/Club,Disability,Neighbourhood house,Walking Club/Group,Yoga",Maribyrnong (C); Hobsons Bay (C),North and West Metropolitan Region
Club Wild,PO Box 102,Geelong,3220,VIC,"Dance Class/Club,Disability,Recreation Group",Greater Geelong,Barwon S/W
Domeney Recreation Centre,Knees Road,Park Orchards,3114,VIC,"Dance Class/Club,Fitness centre",Manningham (C),Eastern Metropolitan Region
Lifestyle for Kids,Market Street,Newport,3015,VIC,"Dance Class/Club,Gymnastics",Maribyrnong (C); Hobsons Bay (C),North and West Metropolitan Region
Bulleen & Templestowe Community House,284 Thompsons Road,Lower Templestowe,3107,VIC,"Dance Class/Club,Neighbourhood house,Strength Training,Walking Club/Group,Yoga",Manningham (C),Eastern Metropolitan Region
Community Group Exercise Classes,"Scout Hall, Centennary Park",Bentleigh,3165,VIC,"Dance Class/Club,Recreation Group","Kingston , Glen Eira",Southern Metro
Latinlover,PO Box 1038,Newport,3015,VIC,"Dance Class/Club,Recreation Group",Maribyrnong ; Hobsons Bay,North and West Metropolitan Region
Ferntree Gully Community Arts Centre,1010 Burwood Highway,Ferntree Gully,3156,VIC,"Dance Class/Club,Recreation Group,Strength Training,Tai Chi,Yoga",Yarra Ranges (S); Knox (C),Eastern Metropolitan Region
Werribee Marching Club,,Werribee,3030,VIC,"Dance Class/Club,Sports Club/Association",Wyndham ; Melton ; Brimbank,North and West Metropolitan Region
Manningham U3A Inc.,The Pines Learning & Activity Centre,Doncaster East,3109,VIC,"Dance Class/Club,Strength Training,Tai Chi,Volunteering,Walking Club/Group,Yoga",Manningham (C),Eastern Metropolitan Region
Gaia School Of Yoga & Dance,,Belmont,3216,VIC,"Dance Class/Club,Yoga",Greater Geelong,Barwon S/W
