Service Name,Street,Suburb,Postcode,State,LGA
123KIDS,107-113 Hallam Road,HAMPTON PARK,3976,VIC,CASEY CITY
3 Apples Childcare Centre & Kindergarten,104 Balwyn Road,BALWYN,3103,VIC,BOROONDARA CITY
325 Early Education Craigieburn,16 Bridgewater Road,CRAIGIEBURN,3064,VIC,HUME CITY
5 Star Childcare & Early Learning Centre, Cnr Grieve Pde & Doherty's Rd,ALTONA NORTH,3025,VIC,HOBSONS BAY CITY
A G Leech Kindergarten, 26 Alma Street,MARYBOROUGH,3465,VIC,CENTRAL GOLDFIELDS SHIRE
A Step Ahead Early Learning Centre,5 Spavin Drive,SUNBURY,3429,VIC,HUME CITY
Abacus Child Care Centre,3-5 William Street,GREENSBOROUGH,3088,VIC,BANYULE CITY
Abeles Liberman Preschool,81 Balaclava Road,CAULFIELD SOUTH,3162,VIC,GLEN EIRA CITY
Acacia Avenue Preschool,35 Acacia Avenue,MENTONE,3194,VIC,KINGSTON CITY
Acacia Children's Centre,13 Belgium Avenue,RICHMOND,3121,VIC,YARRA CITY
Acacia Fitzroy Creche, Cnr Condell St & Napier St,FITZROY,3065,VIC,YARRA CITY
ACE Child Care Centre,2 Renshaw Street,DONCASTER EAST,3109,VIC,MANNINGHAM CITY
Ada Mary A'beckett Children's Centre Inc,7 Cumberland Road,PORT MELBOURNE,3207,VIC,PORT PHILLIP CITY
Adass Israel Preschool,10-12 King Street,ELSTERNWICK,3185,VIC,GLEN EIRA CITY
Airport West Child Care Co-operative,4 Clydesdale Road,AIRPORT WEST,3042,VIC,MOONEE VALLEY CITY
Airport West Kindergarten,97 McNamara Avenue,AIRPORT WEST,3042,VIC,MOONEE VALLEY CITY
Alamanda Kindergarten,86-100 Alamanda Boulevard,POINT COOK,3030,VIC,WYNDHAM CITY
Albanvale Community Kindergarten,44 Diamond Avenue,ST ALBANS,3021,VIC,BRIMBANK CITY
Albert Park College Childcare Centre,415 Graham Street,PORT MELBOURNE,3207,VIC,PORT PHILLIP CITY
Albert Park Preschool Centre,18 Dundas Place,ALBERT PARK,3206,VIC,PORT PHILLIP CITY
Albion Kindergarten,33A Derrimut Street,ALBION,3020,VIC,BRIMBANK CITY
Alchester Village Preschool,30 Lockwoods Road,BORONIA,3155,VIC,KNOX CITY
Alexander Magit Kindergarten,11 Harwell Road,FERNTREE GULLY,3156,VIC,KNOX CITY
Alexander Thomson Preschool,48 Thomson Street,BELMONT,3216,VIC,GREATER GEELONG CITY
Alexandra & District Kindergarten,15 Bayley Street,ALEXANDRA,3714,VIC,MURRINDINDI SHIRE
Alexandra Avenue Children's Centre,31 Alexandra Avenue,SUNSHINE,3020,VIC,BRIMBANK CITY
Alexandra Street Kindergarten, Cnr Alexandra Street and Morrell Street,MOOROOPNA,3629,VIC,GREATER SHEPPARTON CITY
Alfred Child Care Centre, 11 Alfred Lane,MELBOURNE,3004,VIC,MELBOURNE CITY
Alfred Nuttall Memorial Kindergarten,34 Separation Street,FAIRFIELD,3078,VIC,DAREBIN CITY
Alfred Road Kindergarten,48A Alfred Road,GLEN IRIS,3146,VIC,BOROONDARA CITY
Alfredton Child Care Centre,83 Elaine Avenue,ALFREDTON,3350,VIC,BALLARAT CITY
Alfredton Preschool,6 Balyarta Street,ALFREDTON,3350,VIC,BALLARAT CITY
Alice Johnson Kindergarten, Park Boulevard,FERNTREE GULLY,3156,VIC,KNOX CITY
All for Kids Childcare and Early Learning Centre,L1 767-773 Mt Alexander Road,MOONEE PONDS,3039,VIC,MOONEE VALLEY CITY
All Saints Preschool Yarra Junction Inc,2438 Warburton Highway,YARRA JUNCTION,3797,VIC,YARRA RANGES SHIRE
Allansford & District Preschool,82 Ziegler Parade,ALLANSFORD,3277,VIC,WARRNAMBOOL CITY
Allanvale Preschool,28 Allanvale Avenue,LEOPOLD,3224,VIC,GREATER GEELONG CITY
Allara Kindergarten,15-17 Gleneagles Drive,ENDEAVOUR HILLS,3802,VIC,CASEY CITY
Allora Kindergarten,1 Symmons Street,LEONGATHA,3953,VIC,SOUTH GIPPSLAND SHIRE
Alpha Children's Centre,8 Corsair Street,RICHMOND,3121,VIC,YARRA CITY
Alphington Grammar Preschool,18 Old Heidelberg Road,ALPHINGTON,3078,VIC,YARRA CITY
Alpine View Children's Centre,23 Deacon Avenue,BRIGHT,3741,VIC,ALPINE SHIRE
Alto Early Learning,24-26 Malcolm Road,LANGWARRIN,3910,VIC,FRANKSTON CITY
Altona Gate Kindergarten,80 Walker Close,ALTONA NORTH,3025,VIC,HOBSONS BAY CITY
Altona Kindergarten,89 Blyth Street,ALTONA,3018,VIC,HOBSONS BAY CITY
Altona Meadows Children's Centre,342 Queen Street,ALTONA MEADOWS,3028,VIC,HOBSONS BAY CITY
Altona Meadows Kindergarten,65-71 Powlett Street,ALTONA MEADOWS,3028,VIC,HOBSONS BAY CITY
Altona North Children's Centre,10 Fifth Avenue,ALTONA NORTH,3025,VIC,HOBSONS BAY CITY
Altona North Early Childhood Centre,30 Ronald Avenue,ALTONA NORTH,3025,VIC,HOBSONS BAY CITY
Altona West Kindergarten,14 Lindwood Ave,ALTONA,3018,VIC,HOBSONS BAY CITY
Alvie and District Kindergarten Inc., Corangamite Lake Road,CORAGULAC,3249,VIC,COLAC-OTWAY SHIRE
Amberley Park Childcare & Early Learning Centre,2 - 4 Amberly Park Drive,NARRE WARREN,3805,VIC,CASEY CITY
Amici - Westbourne Early Learning Centre,300 Sayers Road,HOPPERS CROSSING,3029,VIC,WYNDHAM CITY
Anaconda Child Care Centre,102 Anaconda Road,NARRE WARREN,3805,VIC,CASEY CITY
Anderson Road Child Care Centre,145 Anderson Road,ALBION,3020,VIC,BRIMBANK CITY
Andrews Community Kindergarten,210 Henty Way,PAKENHAM,3810,VIC,CARDINIA SHIRE
Anglesea Kindergarten, McMillan Street,ANGLESEA,3230,VIC,SURF COAST SHIRE
Angliss Children's Centre, Cnr Vipont St & Seelaf Sq,FOOTSCRAY,3011,VIC,MARIBYRNONG CITY
Anne Sgro Children's Centre,45-47 May Street,COBURG,3058,VIC,MORELAND CITY
Annie Dennis Children's Centre,2 Oldis Avenue,NORTHCOTE,3070,VIC,DAREBIN CITY
Annie Galvin Early Learning Centre, 2 Gladstone Street,BENDIGO,3550,VIC,GREATER BENDIGO CITY
Antonine Sisters Child Care Centre,11-13 Barrow Street,COBURG,3058,VIC,MORELAND CITY
Apex Preschool,7 Howarth Street,ELLIMINYT,3250,VIC,COLAC-OTWAY SHIRE
Apollo Bay Kindergarten,35 McLachlan Street,APOLLO BAY,3233,VIC,COLAC-OTWAY SHIRE
Apollo Parkways Preschool,31 Plenty River Drive,GREENSBOROUGH,3088,VIC,BANYULE CITY
Appin Park Kindergarten,69A Appin Street,WANGARATTA,3677,VIC,WANGARATTA RURAL CITY
Appletree Hill Kindergarten,37 Shepherd Road,GLEN WAVERLEY,3150,VIC,MONASH CITY
Ararat North Kinder Care,66 Blake Street,ARARAT,3377,VIC,ARARAT RURAL CITY
Arbourlea Kindergarten,75 Wheelers Pde,CRANBOURNE NORTH,3977,VIC,CASEY CITY
Ardlie Street Early Learning Centre,24-26 Ardlie Street,WESTMEADOWS,3049,VIC,HUME CITY
Armadale Early Learning Centre,3 Fulton Street,ARMADALE,3143,VIC,STONNINGTON CITY
Arndell Park Early Childhood Learning Centre,55 Caradon Drive,TRUGANINA,3029,VIC,WYNDHAM CITY
Arndell Park Kindergarten,29 - 49 Federation Boulevard,TRUGANINA,3029,VIC,WYNDHAM CITY
Arnolds Creek Kindergarten,19 Claret Ash Boulevard,WEST MELTON,3337,VIC,MELTON SHIRE
Arrabri Kindergarten Inc, Allambanan Drive,BAYSWATER NORTH,3153,VIC,MAROONDAH CITY
Arthur Dickman Childcare Centre,102-104 Maude Street,SHEPPARTON,3630,VIC,GREATER SHEPPARTON CITY
Arthur Mawson Children's Centre,120  St Georges Road,SHEPPARTON,3632,VIC,GREATER SHEPPARTON CITY
Ascot Kindergarten,1 West Street,ASCOT VALE,3032,VIC,MOONEE VALLEY CITY
Ascot Vale Progress Kindergarten,11 Brown Avenue,ASCOT VALE WEST,3032,VIC,MOONEE VALLEY CITY
Ashwood Children's Centre,6-8 Yooralla Street,ASHWOOD,3147,VIC,MONASH CITY
Ashwood Memorial Kindergarten,17A Arthur Street,ASHWOOD,3147,VIC,MONASH CITY
Aspendale Gardens Community Service,103 Kearney Drive,ASPENDALE GARDENS,3195,VIC,KINGSTON CITY
Aspendale North Kindergarten,13 Connewarra Avenue,ASPENDALE,3195,VIC,KINGSTON CITY
Atherton Gardens Kindergarten,125 Napier Street,FITZROY,3065,VIC,YARRA CITY
Athol Road Primary School Kindergarten,159-167 Athol Road,SPRINGVALE SOUTH,3172,VIC,GREATER DANDENONG CITY
Attwood Child Care Centre and Kindergarten,475-485 Mickleham Road,ATTWOOD,3049,VIC,HUME CITY
Auburn Kindergarten & Child Care Centre,27 Station Street,HAWTHORN EAST,3123,VIC,BOROONDARA CITY
Auburn South Preschool,5 Anderson Road,HAWTHORN EAST,3123,VIC,BOROONDARA CITY
Audrey Brooks Preschool,347 Bell Street,HEIDELBERG WEST,3081,VIC,BANYULE CITY
Austin Child Care Centre, Studley Road,HEIDELBERG,3084,VIC,BANYULE CITY
Australian Christian College - Hume,21 SYDNEY ROAD,BENALLA,3671,VIC,MOIRA SHIRE
Autumn Place Kindergarten, Autumn Place,DOVETON,3177,VIC,CASEY CITY
Ave Maria Kindergarten,35 Fawkner Street,ABERFELDIE,3040,VIC,MOONEE VALLEY CITY
Avenel Preschool, 31 Watson St,AVENEL,3664,VIC,STRATHBOGIE SHIRE
Avoca Preschool,22 Liebig Street,AVOCA,3467,VIC,PYRENEES SHIRE
Avondale Heights Childcare and Early Learning Centre,63 - 67 Canning Street,AVONDALE HEIGHTS,3034,VIC,MOONEE VALLEY CITY
Avondale Heights Early Years Centre,2a Clarendon Street,AVONDALE HEIGHTS,3034,VIC,MOONEE VALLEY CITY
Avondale Heights Kindergarten,7 Clarendon Street,AVONDALE HEIGHTS,3034,VIC,MOONEE VALLEY CITY
Avonsleigh Kindergarten, 15a Avon Road,AVONSLEIGH,3782,VIC,CARDINIA SHIRE
Axedale Preschool, High Street,AXEDALE,3551,VIC,GREATER BENDIGO CITY
Baby Bells Child Care Centre,1A Fitzpatrick Drive,ALTONA MEADOWS,3028,VIC,HOBSONS BAY CITY
Bacchus Marsh Child Care & Kindergarten Centre,6 Clifton Drive,BACCHUS MARSH,3340,VIC,MOORABOOL SHIRE
Bacchus Marsh Montessori Preschool,176 Gisborne Road,BACCHUS MARSH,3340,VIC,MOORABOOL SHIRE
Back Creek Kindergarten, 2 Fyffe Street,TALBOT,3371,VIC,CENTRAL GOLDFIELDS SHIRE
Baden Powell Preschool, Humphries Road,FRANKSTON,3199,VIC,FRANKSTON CITY
Badger Creek Preschool,368 Badger Creek Road,HEALESVILLE,3777,VIC,YARRA RANGES SHIRE
Bairnsdale Early Learning Centre,72 Lucknow Street,BAIRNSDALE,3875,VIC,EAST GIPPSLAND SHIRE
Bairnsdale Kindergarten,37 Turnbull Street,BAIRNSDALE,3875,VIC,EAST GIPPSLAND SHIRE
Bairnsdale Neighbourhood House Community Kindergarten,27 Dalmahoy Street,BAIRNSDALE,3875,VIC,EAST GIPPSLAND SHIRE
Bakery Hill Kindergarten,82 Mair Street East,BALLARAT,3350,VIC,BALLARAT CITY
Balaclava Road Child Care Centre,205 Balaclava Road,SHEPPARTON,3630,VIC,GREATER SHEPPARTON CITY
Balcombe Preschool, 144 Bay Road,MOUNT MARTHA,3934,VIC,MORNINGTON PENINSULA SHIRE
Ballam Park Preschool, 26 Naranga Crescent,FRANKSTON,3199,VIC,FRANKSTON CITY
Ballan & District Preschool,88 Simpson Street,BALLAN,3342,VIC,MOORABOOL SHIRE
Ballarat & Clarendon College Preschool,614 Mair Street,BALLARAT,3350,VIC,BALLARAT CITY
Ballarat Fidelity Club Kindergarten,210 Ripon Street South,BALLARAT,3350,VIC,BALLARAT CITY
Ballarat North Early Learning Centre,1013 Ligar Street,BALLARAT,3350,VIC,BALLARAT CITY
Ballarat North Kindergarten,506 Armstrong Street North,BALLARAT,3350,VIC,BALLARAT CITY
Ballarat Rudolf Steiner Kindergarten,244 Moss Avenue,MOUNT HELEN,3350,VIC,BALLARAT CITY
Ballarat Specialist School - Early Learning Centre,25 Gillies Street North,LAKE GARDENS,3355,VIC,BALLARAT CITY
Balnarring Early Learning Centre, 2984 Frankston-Flinders Rd,BALNARRING,3926,VIC,MORNINGTON PENINSULA SHIRE
Balnarring Preschool, 2 Civic Court,BALNARRING,3926,VIC,MORNINGTON PENINSULA SHIRE
Balwyn ChildCare Centre & Kindergarten,105 Balwyn Road,BALWYN,3103,VIC,BOROONDARA CITY
Balwyn East Kindergarten, Belmore Road,BALWYN,3103,VIC,BOROONDARA CITY
Bambini Early Learning Centre,13-15 Asling Street,BRIGHTON,3186,VIC,BAYSIDE CITY
Bambini Juniors Early Learning Centre,75 Wilson Street,BRIGHTON,3186,VIC,BAYSIDE CITY
Bambino's Childcare,763 Gilbert Road,RESERVOIR,3073,VIC,DAREBIN CITY
Bambou Early Learning Centre,464 Blackburn Road,GLEN WAVERLEY,3150,VIC,MONASH CITY
Banana Splits Childcare Centre, 36 Ferguson Street,CAMPERDOWN,3260,VIC,CORANGAMITE SHIRE
Bank Street Preschool,26 Bank Street,CRAIGIEBURN,3064,VIC,HUME CITY
Bannockburn Kindergarten,2A Pope Street,BANNOCKBURN,3331,VIC,GOLDEN PLAINS SHIRE
Bannockburn Long Day Care, 2 Pope Street,BANNOCKBURN,3331,VIC,GOLDEN PLAINS SHIRE
Banyan Fields Child and Family Centre, Cadles Road,CARRUM DOWNS,3201,VIC,FRANKSTON CITY
Baranbali Camperdown Kindergarten, Campbell Street,CAMPERDOWN,3260,VIC,CORANGAMITE SHIRE
Baranduda Community Centre,4 Sage Court,BARANDUDA,3691,VIC,WODONGA RURAL CITY
Barbara Tolson Centre - Melbourne Girls Grammar,63 Clowes Street,SOUTH YARRA,3141,VIC,MELBOURNE CITY
Barbary Crescent Preschool, Barbary Crescent,TAYLORS LAKES,3038,VIC,BRIMBANK CITY
Barmah Outreach Kindergarten, Schier Street,BARMAH TOWN,3639,VIC,MOIRA SHIRE
Barngeong Reserve Kindergarten, Bambra Street,CROYDON NORTH,3136,VIC,MAROONDAH CITY
Barriburn Preschool,337 Morack Road,VERMONT SOUTH,3133,VIC,WHITEHORSE CITY
Barry Beckett Children's Centre, 12 Connolly Avenue,COBURG,3058,VIC,MORELAND CITY
Barry Road Preschool,32 Barry Road,THOMASTOWN,3074,VIC,WHITTLESEA CITY
Barrymore Road Children's Centre,27 Barrymore Road,GREENVALE,3059,VIC,HUME CITY
Barwon Heads Kindergarten,5 Clifford Parade,BARWON HEADS,3227,VIC,GREATER GEELONG CITY
Bass Coast Children's Centre,244 White Road,WONTHAGGI,3995,VIC,BASS COAST SHIRE
Batman Park Kindergarten,79 Elm Street,NORTHCOTE,3070,VIC,DAREBIN CITY
Baxter Childcare Centre,111 Baxter-Tooradin Road,BAXTER,3911,VIC,MORNINGTON PENINSULA SHIRE
Baxter Preschool,26 Olstead Drive,BAXTER,3911,VIC,MORNINGTON PENINSULA SHIRE
Bay City Early Learning Centre,16 Little Ryrie Street,GEELONG,3220,VIC,GREATER GEELONG CITY
Bay City Montessori Centre,221A Yarra Street,GEELONG,3220,VIC,GREATER GEELONG CITY
Bayles Kindergarten, Main Street,BAYLES,3981,VIC,CARDINIA SHIRE
Bayport Pre-School,20-22 Bayport Drive,LANGWARRIN,3910,VIC,FRANKSTON CITY
Bayside Christian College Early Learning Centre,120-128 Robinson Rd,LANGWARRIN,3910,VIC,FRANKSTON CITY
Bayswater North Kindergarten,17 Wonthulong Drive,BAYSWATER NORTH,3153,VIC,MAROONDAH CITY
Bayview Preschool,13 Willow Road,FRANKSTON,3199,VIC,FRANKSTON CITY
Beacon Point Preschool,49-55 Centaurus Avenue,CLIFTON SPRINGS,3222,VIC,GREATER GEELONG CITY
Beacon Street Children's Centre,463 Burwood Highway,VERMONT SOUTH,3133,VIC,WHITEHORSE CITY
Beaconhill Drive Children's Centre, Beaconhill Drive,BEACONSFIELD,3807,VIC,CARDINIA SHIRE
Beaconsfield Children's Hub Panorama Estate,2-8 Windsor Drive,BEACONSFIELD,3807,VIC,CARDINIA SHIRE
Beaconsfield Kindergarten, 11-17 Wood Street,BEACONSFIELD,3807,VIC,CARDINIA SHIRE
Beaconsfield Kindergarten- O'Neil Road, 8-12 O'Neil Road,BEACONSFIELD,3807,VIC,CARDINIA SHIRE
Beamish Street Kindergarten,23 Beamish Street,WARRNAMBOOL,3280,VIC,WARRNAMBOOL CITY
Beaufort Early Childhood Centre,13 Park Street,BEAUFORT,3373,VIC,PYRENEES SHIRE
Beaver Street Kindergarten,13 Beaver Street,ESSENDON,3040,VIC,MOONEE VALLEY CITY
Beechworth Kindergarten Inc., Albert Road  (Latrobe Campus),BEECHWORTH,3747,VIC,INDIGO SHIRE
Beechworth Montessori Children's Group, Albert Road,BEECHWORTH,3747,VIC,INDIGO SHIRE
Being 3,1 England Road,GLEN WAVERLEY,3150,VIC,MONASH CITY
Beleura Hill Preschool,32 Amelia Avenue,MORNINGTON,3931,VIC,MORNINGTON PENINSULA SHIRE
Belford Oaks Community Children's Centre,3 Belford Road,KEW,3101,VIC,BOROONDARA CITY
Belgrade Avenue Preschool,12A Belgrade Avenue,WODONGA,3690,VIC,WODONGA RURAL CITY
Belgrave Heights Christian School Early Learning Centre, Wattle Valley Road,BELGRAVE HEIGHTS,3160,VIC,YARRA RANGES SHIRE
Belgrave Preschool,6 Hayes Avenue,BELGRAVE,3160,VIC,YARRA RANGES SHIRE
Bell Park Kindergarten,10 Barton Street,BELL PARK,3215,VIC,GREATER GEELONG CITY
Bell Post Hill Kindergarten,58 Ernest Street,BELL POST HILL,3215,VIC,GREATER GEELONG CITY
Bell Street Early Learning Centre,591 Bell Street,PRESTON,3072,VIC,DAREBIN CITY
Bellarine Children's Centre,158-160 Bellarine Highway,MOOLAP,3221,VIC,GREATER GEELONG CITY
Bellbrae Preschool,19 Bellbrae Court,COOLAROO,3048,VIC,HUME CITY
Belle Vue Park Kindergarten,2 Everard Street,GLENROY,3046,VIC,MORELAND CITY
Bellevue Hill Preschool,14 Royal Crescent,HILLSIDE,3037,VIC,MELTON SHIRE
Bellevue Kindergarten,49 Bulleen Road,BALWYN NORTH,3104,VIC,BOROONDARA CITY
Bellevue Preschool,224 Roslyn Road,HIGHTON,3216,VIC,GREATER GEELONG CITY
Belmont Community Kindergarten,44 Kidman Avenue,BELMONT,3216,VIC,GREATER GEELONG CITY
Belvedere Park Preschool,2 Keerok Avenue,SEAFORD,3198,VIC,FRANKSTON CITY
Bena Angliss Kindergarten,30b Forest Road,FERNTREE GULLY,3156,VIC,KNOX CITY
Bendigo Early Learning Centre, 17 Park Road,BENDIGO,3550,VIC,GREATER BENDIGO CITY
Bendigo Preschool,90 Myrtle Street,BENDIGO,3550,VIC,GREATER BENDIGO CITY
Bennett Road Kindergarten,1 Bennett Road,HORSHAM,3400,VIC,HORSHAM RURAL CITY
Bentleigh Child Care,20-24 Brewer Road,BENTLEIGH,3204,VIC,GLEN EIRA CITY
Bentleigh East Preschool,202 East Boundary Road,BENTLEIGH EAST,3165,VIC,GLEN EIRA CITY
Bentleigh Family & Child Care Co-op,134 Brewer Road,BENTLEIGH,3204,VIC,GLEN EIRA CITY
Bentleigh Pre-School,9 Higgins Road,BENTLEIGH,3204,VIC,GLEN EIRA CITY
Bentleigh West Kindergarten,21 Patterson Road,BENTLEIGH,3204,VIC,GLEN EIRA CITY
Bentons Square Kindergarten,145 Bentons Road,MORNINGTON,3931,VIC,MORNINGTON PENINSULA SHIRE
Benwerrin Preschool, Cnr Burwood Hwy & Benwerrin Drive,BURWOOD EAST,3151,VIC,WHITEHORSE CITY
Bernard Briggs Kindergarten,72 Church Street,BENALLA,3672,VIC,BENALLA RURAL CITY
Berrabri Preschool, 80 Berrabri Drive,SCORESBY,3179,VIC,KNOX CITY
Berrimba Child Care,94 Hare Street,ECHUCA,3564,VIC,CAMPASPE SHIRE
Berringa Kindergarten,18-20 Craig Drive,BELLBRIDGE,3691,VIC,TOWONG SHIRE
Berwick Kindergarten,30-32 Peel Street,BERWICK,3806,VIC,CASEY CITY
Bestchance Children's Centre,583 Ferntree Gully Road,GLEN WAVERLEY,3150,VIC,MONASH CITY
Bethal Primary School Kindergarten,26-52 Eldorado Crescent,MEADOW HEIGHTS,3048,VIC,HUME CITY
Beulah Outreach Preschool, Henty Highway,BEULAH,3395,VIC,YARRIAMBIACK SHIRE
Beverley Hills Kindergarten,2 Damala Street,DONCASTER EAST,3109,VIC,MANNINGHAM CITY
Bialik College Early Learning Centre,429 Auburn Road,HAWTHORN EAST,3123,VIC,BOROONDARA CITY
Bilbungra Kindergarten,22 Filer Court,KEYSBOROUGH,3173,VIC,GREATER DANDENONG CITY
Billanook College - Early Learning Program,197-199 Cardigan Road,MOOROOLBARK,3138,VIC,YARRA RANGES SHIRE
Billoo Park Kindergarten,40 Birchfield Crescent,WANTIRNA,3152,VIC,KNOX CITY
Billy Lids Child Care Centre,46 Collyn Dale Drive,WANGARATTA,3677,VIC,WANGARATTA RURAL CITY
Bimbadeen Preschool,25 Bimbadeen Drive,MOOROOLBARK,3138,VIC,YARRA RANGES SHIRE
Bimbi Day Care,63 - 69 McNamara Ave,AIRPORT WEST,3042,VIC,MOONEE VALLEY CITY
Bimbi Day Care - Tullamarine,189 South Centre Road,TULLAMARINE,3043,VIC,HUME CITY
Birch Street Children and Family Centre,2 Birch Street,BAYSWATER,3153,VIC,KNOX CITY
Birchip & District Preschool,388 Cumming Avenue,BIRCHIP,3483,VIC,BULOKE SHIRE
Birralee Preschool,21 Weeden Drive,VERMONT SOUTH,3133,VIC,WHITEHORSE CITY
Birregurra Preschool Centre,95 Main Street,BIRREGURRA,3242,VIC,COLAC-OTWAY SHIRE
Bittern Preschool,31 Sudholz Street,BITTERN,3918,VIC,MORNINGTON PENINSULA SHIRE
Black Hill Kindergarten,602 Sherrard Street,BLACK HILL,3350,VIC,BALLARAT CITY
Black Rock Kindergarten,55 Bluff Road,BLACK ROCK,3193,VIC,BAYSIDE CITY
Blackburn Children's Services Centre, 15 Central Road,BLACKBURN,3130,VIC,WHITEHORSE CITY
Blackburn Early Learning Centre,118 Surrey Road,BLACKBURN,3130,VIC,WHITEHORSE CITY
Blackburn Pre-School,40 Blackburn Road,BLACKBURN,3130,VIC,WHITEHORSE CITY
Blackscamp Preschool,21 Blacks Camp Road,SOMERVILLE,3912,VIC,MORNINGTON PENINSULA SHIRE
Blake Street Kindergarten,109 Blake Street,RESERVOIR,3073,VIC,DAREBIN CITY
Bloom Early Learning Centre,47 - 49  Glen Iris Road,GLEN IRIS,3146,VIC,BOROONDARA CITY
Bloom Early Learning Centre Ashwood,66-70 High Street Rd,ASHWOOD,3147,VIC,MONASH CITY
Blossom Park Kindergarten,59 Azalea Avenue,BLOSSOM PARK,3082,VIC,WHITTLESEA CITY
Blue Hills Preschool, 41-43 Phyllis Street,BAYSWATER,3153,VIC,KNOX CITY
Bluebird Way Child and Family Centre,4 Bluebird Way,ROXBURGH PARK,3064,VIC,HUME CITY
Blyth Street Early Learning Centre,62 Blyth Street,BRUNSWICK,3056,VIC,MORELAND CITY
Bonbeach Preschool, Breeze Street,BONBEACH,3196,VIC,KINGSTON CITY
Bond Street Kindergarten,25-35 Bond Street,NEWTOWN,3220,VIC,GREATER GEELONG CITY
Bonkers Beat Music Kinder & Childcare Aspendale,49 Laura Street,ASPENDALE,3195,VIC,KINGSTON CITY
Books and Blocks Childcare, 1 Sharon Street,BENDIGO,3550,VIC,GREATER BENDIGO CITY
Boolarra Kindergarten,28 Church Street,BOOLARRA,3870,VIC,LATROBE CITY
Boort Preschool, 123-127 Godfrey Street,BOORT,3537,VIC,LODDON SHIRE
Boronia Primary Early Learning Centre,4 Rangeview Road,BORONIA,3155,VIC,KNOX CITY
Boroondara Kindergarten,12 Cooke Court,RICHMOND NORTH,3121,VIC,YARRA CITY
Boroondara Preschool,24 Midvale Avenue,BALWYN NORTH,3104,VIC,BOROONDARA CITY
Botany Park Preschool,53 Lyrebird Drive,CARRUM DOWNS,3201,VIC,FRANKSTON CITY
Boulevard Early Learning Centre,3 - 5 The Boulevard,GLEN WAVERLEY,3150,VIC,MONASH CITY
Boutique Bubs Early Education & Kindergarten,417 Bluff Road,HAMPTON,3188,VIC,BAYSIDE CITY
Bowen Park Kindergarten,155 Bowen Street,WARRAGUL,3820,VIC,BAW BAW SHIRE
Bowen Street Kindergarten,20-22 Bowen Street,CRANBOURNE,3977,VIC,CASEY CITY
Bowerbird Kindergarten,136-138 Lyrebird Drive,CARRUM DOWNS,3201,VIC,FRANKSTON CITY
Box Hill Early Learning Child Care Centre & Kindergarten,152 Dorking Road,BOX HILL NORTH,3129,VIC,WHITEHORSE CITY
Box Hill North Primary Kindergarten, Elizabeth Street,BOX HILL NORTH,3129,VIC,WHITEHORSE CITY
Box Hill South Preschool, Rotary Court,BOX HILL SOUTH,3128,VIC,WHITEHORSE CITY
Bradford Avenue Preschool,24 Bradford Avenue,GREENVALE,3059,VIC,HUME CITY
Brady Road Kindergarten,84 Brady Road,BENTLEIGH EAST,3165,VIC,GLEN EIRA CITY
Brandon Park Children's Centre,659 Ferntree Gully Road,GLEN WAVERLEY,3150,VIC,MONASH CITY
Brandon Park Kindergarten,7 Collegium Avenue,WHEELERS HILL,3150,VIC,MONASH CITY
Branxholme Kindergarten, McNicol Street,BRANXHOLME,3302,VIC,SOUTHERN GRAMPIANS SHIRE
Breakwater Kindergarten,201 St Albans Road,BREAKWATER,3219,VIC,GREATER GEELONG CITY
Brenbeal Children's Centre,8 Rayner Street,FOOTSCRAY,3011,VIC,MARIBYRNONG CITY
Brentwood Kindergarten,60 View Mount Road,GLEN WAVERLEY,3150,VIC,MONASH CITY
Brentwood Kindergarten,36 Brentwood Avenue,PASCOE VALE SOUTH,3044,VIC,MORELAND CITY
Brentwood Park Berwick Kindergarten,26 Bemersyde Drive,BERWICK,3806,VIC,CASEY CITY
Brentwood Park Kindergarten,25 Mandowie Crescent,CROYDON,3136,VIC,MAROONDAH CITY
Briagolong Kindergarten & Occasional Care Centre,28 Cahill Street,BRIAGOLONG,3860,VIC,WELLINGTON SHIRE
Briar Hill Preschool,118 Karingal Drive,BRIAR HILL,3088,VIC,BANYULE CITY
Bridge Road Early Learning Centre,624-628 Bridge Road,RICHMOND,3121,VIC,YARRA CITY
Bridgewater Kindergarten,45 Bridgewater Boulevard,BERWICK,3806,VIC,CASEY CITY
Bright Beginnings Child Care Centre,117-119 Golf Road,OAKLEIGH SOUTH,3167,VIC,MONASH CITY
Bright Early Learning Centre,22-24 Ferntree Gully Road,OAKLEIGH,3166,VIC,MONASH CITY
Bright Horizons Australia Childcare Casey,11 College Drive,NARRE WARREN,3805,VIC,CASEY CITY
Bright Horizons Australia Childcare Croydon North,156-158 Yarra Road,CROYDON HILLS,3136,VIC,MAROONDAH CITY
Bright Horizons Australia Childcare Elsternwick,9 McMillan Street,ELSTERNWICK,3185,VIC,GLEN EIRA CITY
Bright Horizons Australia Childcare Wantirna,472 Boronia Road,WANTIRNA SOUTH,3152,VIC,KNOX CITY
Bright Horizons Australia Childcare Wodonga,18 Bank Street,WODONGA,3690,VIC,WODONGA RURAL CITY
Bright Kidz Child Care & Kindergarten, Crn Wattle Valley Drive & Royal Crescent,HILLSIDE,3037,VIC,MELTON SHIRE
Bright Steps Educational Child Care & Kindergarten,82 - 84 Blackshaws Road,SOUTH KINGSVILLE,3015,VIC,HOBSONS BAY CITY
Bright Steps Educational Child Care & Kindergarten - Altona North,37 Misten Avenue,ALTONA NORTH,3025,VIC,HOBSONS BAY CITY
Bright Steps Educational Child Care & Kindergarten - Williamstown,19-23 Power Street,WILLIAMSTOWN,3016,VIC,HOBSONS BAY CITY
Brighton Baptist Kindergarten,40 Outer Crescent,BRIGHTON,3186,VIC,BAYSIDE CITY
Brighton Beach Child Care Centre,21 New Street,BRIGHTON,3186,VIC,BAYSIDE CITY
Brighton Childcare and Kindergarten,247 New Street,BRIGHTON,3186,VIC,BAYSIDE CITY
Brine Street Child Care Centre,33 Brine Street,HUGHESDALE,3166,VIC,MONASH CITY
Broadmeadows Multi-cultural Early Learning Centre,358 Barry Road,CAMPBELLFIELD,3061,VIC,HUME CITY
Broadmeadows Preschool,62-70 Blair Street,BROADMEADOWS,3047,VIC,HUME CITY
Brookfield Children's Centre,14 - 16 Blackdog Drive,MELTON SOUTH,3338,VIC,MELTON SHIRE
Brookfield Preschool, Wilson Road,MELTON SOUTH,3338,VIC,MELTON SHIRE
Brookside Early Learning Centre,22 - 24 Federation Way,CAROLINE SPRINGS,3023,VIC,MELTON SHIRE
Brookside Preschool, Federation Way,CAROLINE SPRINGS,3023,VIC,MELTON SHIRE
Brookville Kindergarten,53 Canterbury Road,TOORAK,3142,VIC,STONNINGTON CITY
Brown Hill Kindergarten,1 Reid Court,BALLARAT,3350,VIC,BALLARAT CITY
Brown Street Children's Centre,48-52 Brown Street,LEONGATHA,3953,VIC,SOUTH GIPPSLAND SHIRE
Bruce Park Preschool,23 Margate Avenue,FRANKSTON,3199,VIC,FRANKSTON CITY
Bruce Street Kindergarten,55 Bruce Street,MACEDON,3440,VIC,MACEDON RANGES SHIRE
Brunswick Creche & Day Nursery,82 Glenlyon Road,BRUNSWICK,3056,VIC,MORELAND CITY
Brunswick Kindergarten,61 Glenlyon Road,BRUNSWICK,3056,VIC,MORELAND CITY
Bruthen Kindergarten,1 Seehusen Avenue,BRUTHEN,3885,VIC,EAST GIPPSLAND SHIRE
Bruthen Street Kindergarten,2 Bruthen Street,MOORABBIN,3189,VIC,KINGSTON CITY
Bubup Nairm Children's Centre,99B Carlisle Street,ST KILDA,3182,VIC,PORT PHILLIP CITY
Bubup Wilam for Early Learning,52 -76 Main Street,THOMASTOWN,3074,VIC,WHITTLESEA CITY
Buchan Early Childhood Development Centre,5621 Buchan-Orbost Road,BUCHAN,3885,VIC,EAST GIPPSLAND SHIRE
Buckets Early Learning Centre,746 Centre Road,BENTLEIGH EAST,3165,VIC,GLEN EIRA CITY
Buckets Early Learning Centre,577 Neerim Road,HUGHESDALE,3166,VIC,MONASH CITY
Buckingham Street Early Learning Centre,42-46 Buckingham Street,LARA,3212,VIC,GREATER GEELONG CITY
Buddies Early Learning Centre,143  Jasper Road,BENTLEIGH,3204,VIC,GLEN EIRA CITY
Bulldogs Community Children's Centre,19 Hocking Street,WEST FOOTSCRAY,3012,VIC,MARIBYRNONG CITY
Bulleen Preschool,5 Derreck Avenue,BULLEEN,3105,VIC,MANNINGHAM CITY
Bulleen Rhythm and Rhyme Early Learning Centre,60 Manningham Road,BULLEEN,3105,VIC,MANNINGHAM CITY
Bumble Bee Schoolhouse,10 Karingal Street,CROYDON NORTH,3136,VIC,MAROONDAH CITY
Bumble Bees Childcare Centre,203 Melbourne Road,WODONGA,3690,VIC,WODONGA RURAL CITY
Bumble Bees Childcare Thomas Mitchell Drive,71 Thomas Mitchell Drive,WODONGA,3690,VIC,WODONGA RURAL CITY
Bundoora Preschool,20 Noorong Avenue,BUNDOORA,3083,VIC,BANYULE CITY
Buninyong Preschool,208 Learmonth Street,BUNINYONG,3357,VIC,BALLARAT CITY
Bunnykins Child Care Centre,71 Blantyre Avenue,CHELSEA,3196,VIC,KINGSTON CITY
Bunyip Kindergarten,29 Princess Street,BUNYIP,3815,VIC,CARDINIA SHIRE
Burch Family Memorial Preschool, Old Yarra Road,WONGA PARK,3115,VIC,MANNINGHAM CITY
Burwood Heights Primary School, Corner Hawthorn Road and Mahoneys Road,BURWOOD EAST,3151,VIC,WHITEHORSE CITY
Busy Kids Child Care Centre,7 Croydondale Drive,MOOROOLBARK,3138,VIC,YARRA RANGES SHIRE
Butterflies Child Care Centre Pty Ltd,2-4 Orchard Road,DOREEN,3754,VIC,WHITTLESEA CITY
Cairnlea Kindy and Child Care Centre, Corner Wattlegrove Road and Carmody Drive,CAIRNLEA,3023,VIC,BRIMBANK CITY
Californian Gully Kindergarten,31 Wills Street,MARYBOROUGH,3465,VIC,CENTRAL GOLDFIELDS SHIRE
Camberwell Baptist Church Kindergarten,1A Wills Street,HAWTHORN,3122,VIC,BOROONDARA CITY
Camberwell Girls Grammar School,4 Mont Albert Road,CANTERBURY,3126,VIC,BOROONDARA CITY
Camberwell Junction Early Learning Centre,54-56 Harold Street,HAWTHORN EAST,3123,VIC,BOROONDARA CITY
Camberwell Kindergarten and Child Care Centre,25 Trafalgar Road,CAMBERWELL,3124,VIC,BOROONDARA CITY
Cambrian Preschool, Cambrian Way,WEST MELTON,3337,VIC,MELTON SHIRE
Camelot Child Care & Early Learning Centre,173 Lennox Street,RICHMOND,3121,VIC,YARRA CITY
Cameron Street Kindergarten,41-43 Cameron Street,TRARALGON,3844,VIC,LATROBE CITY
Campaspe Community Children's Centre,392-400 High Street,ECHUCA,3564,VIC,CAMPASPE SHIRE
Campbellfield Preschool,28 Waratah Street,CAMPBELLFIELD,3061,VIC,HUME CITY
Canberra Avenue Child Care Centre,27 - 29 Canberra Avenue,DANDENONG,3175,VIC,GREATER DANDENONG CITY
Cann Valley Community Kindergarten,1 Tyson Street,CANN RIVER,3890,VIC,EAST GIPPSLAND SHIRE
Canterbury & District Preschool,26 Guilford Road,SURREY HILLS,3127,VIC,BOROONDARA CITY
Canterbury Child Care Centre,15 Gwenda Avenue,CANTERBURY,3126,VIC,BOROONDARA CITY
Canterbury Norwood Baptist Kindergarten,2 Boronia Street,CANTERBURY,3126,VIC,BOROONDARA CITY
Capel Sounds Educational Child Care Centre,1 Darvall Street,TOOTGAROOK,3941,VIC,MORNINGTON PENINSULA SHIRE
Cara Armstrong Kindergarten,169 Rathmines Road,HAWTHORN EAST,3123,VIC,BOROONDARA CITY
Carey Baptist Grammar School Early Childhood Centre,24 Wrixon Street,KEW,3101,VIC,BOROONDARA CITY
Carey Grammar Preschool,9 Era Court,DONVALE,3111,VIC,MANNINGHAM CITY
Carey St Kindergarten,9 CAREY STREET,ARARAT,3377,VIC,ARARAT RURAL CITY
Carinya Early Learning Centre,33 Rintoull Street,MORWELL,3840,VIC,LATROBE CITY
Carlisle Park Kindergarten, 2-20 Majestic Boulevard,CRANBOURNE,3977,VIC,CASEY CITY
Carnegie Kindergarten,51A Truganini Road,CARNEGIE,3163,VIC,GLEN EIRA CITY
Carrum Downs Early Learning Centre,59 Hall Road,CARRUM DOWNS,3201,VIC,FRANKSTON CITY
Casa Bambini - Blackburn,502 - 504 Middleborough Road,BLACKBURN,3130,VIC,WHITEHORSE CITY
Casa Bambini - Coburg,962-966 Sydney Road,COBURG,3058,VIC,MORELAND CITY
Casa Bambini Children's Centre - Essendon,259 - 261 Buckley Street,ESSENDON,3040,VIC,MOONEE VALLEY CITY
Casey Child Care & Kindergarten - Cardinia,10 O'Shannessy Street,PAKENHAM,3810,VIC,CARDINIA SHIRE
Casey Child Care and Kindergarten,270 Narre Warren - Cranbourne Road,CRANBOURNE,3977,VIC,CASEY CITY
Castlemaine Child Care Centre,15-17 Templeton Street,CASTLEMAINE,3450,VIC,MOUNT ALEXANDER SHIRE
Castlemaine Kindergarten,7-9 Berkley Street,CASTLEMAINE,3450,VIC,MOUNT ALEXANDER SHIRE
Castlemaine Steiner Kindergarten,11  Rilens Rd Corner Pyrenees Highway,MUCKLEFORD,3451,VIC,MOUNT ALEXANDER SHIRE
Catjump Preschool,88 Polaris Drive,DONCASTER EAST,3109,VIC,MANNINGHAM CITY
Caulfield Children's Centre,6 Lirrewa Grove,CAULFIELD,3162,VIC,GLEN EIRA CITY
Caulfield Grammar Early Childhood Centre-Malvern Campus,5 Willoby Avenue,GLEN IRIS,3146,VIC,STONNINGTON CITY
Caulfield Grammar Pre-Prep,74 - 82 Jells Road,WHEELERS HILL,3150,VIC,MONASH CITY
Caulfield Primary Early Childhood Centre,724 Glenhuntly Road,CAULFIELD SOUTH,3162,VIC,GLEN EIRA CITY
Caulfield South Kindergarten, 1c Birch Street,CAULFIELD SOUTH,3162,VIC,GLEN EIRA CITY
Cavendish Kindergarten, Barker Street,CAVENDISH,3314,VIC,SOUTHERN GRAMPIANS SHIRE
Centenary Drive Kindergarten,68 Centenary Drive,MILL PARK,3082,VIC,WHITTLESEA CITY
Central Box Hill Children's Services Centre,517 Station Street,BOX HILL,3128,VIC,WHITEHORSE CITY
Central Carlton Children's Centre,483 Drummond Street,CARLTON,3053,VIC,MELBOURNE CITY
Central Kindergarten - Warrnambool,2 Manifold Street,WARRNAMBOOL,3280,VIC,WARRNAMBOOL CITY
Centre for Early Education,201 Forest Street,WENDOUREE,3355,VIC,BALLARAT CITY
Centre Road Kindergarten,850-852 Centre Road,BENTLEIGH EAST,3165,VIC,GLEN EIRA CITY
Cgs Pre-preparatory Centre,55  Mont Albert Road,CANTERBURY,3126,VIC,BOROONDARA CITY
Chairo Christian School,585 Bald Hill Road,PAKENHAM,3810,VIC,CARDINIA SHIRE
Chairo Christian School Early Learning Centre,435 Lardners Track,DROUIN,3818,VIC,BAW BAW SHIRE
Chalcot Lodge Kindergarten,26 Haverstock Hill Close,ENDEAVOUR HILLS,3802,VIC,CASEY CITY
Chandler Kindergarten,160-162 Bloomfield Road,KEYSBOROUGH,3173,VIC,GREATER DANDENONG CITY
Charlie Brown Child Care Centre,1305 High Street Road,WANTIRNA SOUTH,3152,VIC,KNOX CITY
Charlton & District Kindergarten,1 Armstrong Street,CHARLTON,3525,VIC,BULOKE SHIRE
Chelsea Central Child Care Centre,29 Woodbine Grove,CHELSEA,3196,VIC,KINGSTON CITY
Chelsea Heights Kindergarten,29 Third Avenue,CHELSEA HEIGHTS,3196,VIC,KINGSTON CITY
Chelsea Kindergarten,71 Catherine Avenue,CHELSEA,3196,VIC,KINGSTON CITY
Cherish Early Learning Centre,12 Vale Street,SEBASTOPOL,3356,VIC,BALLARAT CITY
Cherry Crescent Preschool, Cherry Crescent,BRAYBROOK,3019,VIC,MARIBYRNONG CITY
Childcare on Heatherton,1548 Heatherton Road,DANDENONG,3175,VIC,GREATER DANDENONG CITY
Childrens Corner Learning Centre,2 Hedge End Road,NUNAWADING,3131,VIC,WHITEHORSE CITY
Childrens Garden Kindercare, Albert Park Railway Station 45 Ferrars Place,ALBERT PARK,3206,VIC,PORT PHILLIP CITY
Children's House of Early Learning,32 Monbulk Road,MOUNT EVELYN,3796,VIC,YARRA RANGES SHIRE
Chirnside Park Preschool, Meadowgate Drive,CHIRNSIDE PARK,3116,VIC,YARRA RANGES SHIRE
Christ Church Grammar Kindergarten,677 Punt Road,SOUTH YARRA,3141,VIC,MELBOURNE CITY
Christopher Robin Kindergarten,1A Ely Street,WANGARATTA,3677,VIC,WANGARATTA RURAL CITY
Church Hill Kindergarten,8 Clarke Street,HAMILTON,3300,VIC,SOUTHERN GRAMPIANS SHIRE
Church Street Children's Centre,47 Church Street,WEST FOOTSCRAY,3012,VIC,MARIBYRNONG CITY
Churchill Central Preschool,9 - 11 Phillip Parade,CHURCHILL,3842,VIC,LATROBE CITY
City Kids Early Learning Centre,216-222 Normanby Road,SOUTH MELBOURNE,3205,VIC,PORT PHILLIP CITY
City Kindergarten,600 Raglan Parade,WARRNAMBOOL,3280,VIC,WARRNAMBOOL CITY
City Learning & Care - Ariston,245-249 Pakington Street,NEWTOWN,3220,VIC,GREATER GEELONG CITY
City Learning & Care - Belmont,12-14 Reynolds Road,BELMONT,3216,VIC,GREATER GEELONG CITY
City Learning & Care - Corio,116 Purnell Road,CORIO,3214,VIC,GREATER GEELONG CITY
City Learning & Care - Drysdale,13 Eversley Street,DRYSDALE,3222,VIC,GREATER GEELONG CITY
City Learning & Care - The Link,19 Worden Court,WHITTINGTON,3219,VIC,GREATER GEELONG CITY
City Learning & Care - Trudy Moritz, Sparks Road,NORLANE,3214,VIC,GREATER GEELONG CITY
City of Casey Child Care Complex,52 Webb Street,NARRE WARREN,3805,VIC,CASEY CITY
Civic Kindergarten,256 Richardson Street,MIDDLE PARK,3206,VIC,PORT PHILLIP CITY
CK's Early Learning Centre and Kindergarten,105 Breens Road,CRANBOURNE WEST,3977,VIC,CASEY CITY
Clare Court Children's Service,30 Court Street,YARRAVILLE,3013,VIC,MARIBYRNONG CITY
Clarendon Children's Centre Co-op,410 Clarendon Street,SOUTH MELBOURNE,3205,VIC,PORT PHILLIP CITY
Clarendon Street Kindergarten,43A Clarendon Street,CRANBOURNE,3977,VIC,CASEY CITY
Clark Street Children's Centre,106 Clark Street,PORT MELBOURNE,3207,VIC,PORT PHILLIP CITY
Clayton Community Centre Kindergarten, 9-15 Cook Street,CLAYTON,3168,VIC,MONASH CITY
Clever Kids Childcare - Ashburton,432 Warrigal Road,ASHBURTON,3147,VIC,BOROONDARA CITY
Clever Kids Early Learning Centre,29 McCormicks Road,CARRUM DOWNS,3201,VIC,FRANKSTON CITY
Clifton Child Care Co-op,121 Rushall Crescent,FITZROY NORTH,3068,VIC,YARRA CITY
Clifton Springs Preschool, 21a Central Road,CLIFTON SPRINGS,3222,VIC,GREATER GEELONG CITY
Clifton Street Childrens Centre,55 Clifton Street,NORTHCOTE,3070,VIC,DAREBIN CITY
Clunes & District Preschool Centre,109 Fraser Street,CLUNES,3370,VIC,HEPBURN SHIRE
Clyde Street Kindergarten,70 Clyde Street,THORNBURY,3071,VIC,DAREBIN CITY
Cobden & District Kindergarten,43 Victoria Street,COBDEN,3266,VIC,CORANGAMITE SHIRE
Cobram Kids Education Centre,31-33 Broadway Street,COBRAM,3644,VIC,MOIRA SHIRE
Coburg & Pascoe Vale South Child Care Centre,236 Melville Road,PASCOE VALE SOUTH,3044,VIC,MORELAND CITY
Coburg Childrens Centre,84-86 Bell Street,COBURG,3058,VIC,MORELAND CITY
Coburns Road Child Care Centre,46 Coburns Road,MELTON SOUTH,3338,VIC,MELTON SHIRE
Cockatoo Community Childcare Centre,75-77 Pakenham Road,COCKATOO,3781,VIC,CARDINIA SHIRE
Cockatoo Kinder, 23 Bailey Road,COCKATOO,3781,VIC,CARDINIA SHIRE
Coco's Early Learning Centre, 82 Ferntree Gully Road,OAKLEIGH EAST,3166,VIC,MONASH CITY
Cohuna & District Preschool Centre,28 Channel Street,COHUNA,3568,VIC,GANNAWARRA SHIRE
Colac East Kindergarten,1 Polwarth Street,COLAC,3250,VIC,COLAC-OTWAY SHIRE
Colbinabbin Preschool, Recreation Reserve,COLBINABBIN,3559,VIC,CAMPASPE SHIRE
Colchester Park Preschool, Off Beresford Drive,BORONIA,3155,VIC,KNOX CITY
Coldstream Preschool, Kelso Street,COLDSTREAM,3770,VIC,YARRA RANGES SHIRE
Coleraine & District Kindergarten,26 Henty Street,COLERAINE,3315,VIC,SOUTHERN GRAMPIANS SHIRE
College Road Kindergarten, 34 College Road,WERRIBEE,3030,VIC,WYNDHAM CITY
Colliver Road Children's Centre, Colliver Road,SHEPPARTON,3630,VIC,GREATER SHEPPARTON CITY
Columbia Park Child Care Centre,28A Columbia Drive,WHEELERS HILL,3150,VIC,MONASH CITY
Columbia Park Pre-school,28 Columbia Drive,WHEELERS HILL,3150,VIC,MONASH CITY
Community Children - Essendon,50 Cooper Street,ESSENDON,3040,VIC,MOONEE VALLEY CITY
Community Children - Moonee Ponds,103 Holmes Road,MOONEE PONDS,3039,VIC,MOONEE VALLEY CITY
Community Children - Wyndham Vale,1 - 3 Storkbill Road,WYNDHAM VALE,3024,VIC,WYNDHAM CITY
Community Early Years Childcare Kiewa Valley Kindergarten,81 Kiewa East Road,TANGAMBALANGA,3691,VIC,INDIGO SHIRE
Community Early-years Childcare - Chiltern,55-57 Main Street,CHILTERN,3683,VIC,INDIGO SHIRE
Community Early-years Childcare - Mitta Mitta, Building 6 Magorra Park Reserve,MITTA MITTA,3701,VIC,TOWONG SHIRE
Community Early-years Childcare - South Street,67 High Street,WODONGA,3690,VIC,WODONGA RURAL CITY
Community Early-years Childcare - Tawonga Kindergarten, Kiewa Valley Highway,TAWONGA,3697,VIC,ALPINE SHIRE
Community Early-years Childcare - Yackandandah,62 Twist Creek Road,YACKANDANDAH,3749,VIC,INDIGO SHIRE
Community Kids Bayswater Early Education Centre,291 Canterbury Road,BAYSWATER NORTH,3153,VIC,MAROONDAH CITY
Community Kids Berwick Early Education Centre,9-11 Homestead Road,BERWICK,3806,VIC,CASEY CITY
Community Kids Broadford Early Education Centre,39 Ferguson St,BROADFORD,3658,VIC,MITCHELL SHIRE
Community Kids Chirnside Park Early Learning Centre,3-5 El Centro,CHIRNSIDE PARK,3116,VIC,YARRA RANGES SHIRE
Community Kids Cranbourne,133 Duff Street,CRANBOURNE,3977,VIC,CASEY CITY
Community Kids Geelong Early Education Centre,24-28 Bellnore Drive,NORLANE,3214,VIC,GREATER GEELONG CITY
Community Kids Haven Greensborough Pty Ltd,299 Plenty River Drive,GREENSBOROUGH,3088,VIC,NILLUMBIK SHIRE
Community Kids Haven Hillside,1-3  Jade Way,HILLSIDE,3037,VIC,MELTON SHIRE
Community Kids Heathmont Early Education Centre, 40 Marlborough Road,HEATHMONT EAST,3135,VIC,MAROONDAH CITY
Community Kids Meadow Heights Early Education Centre,29 Hudson Circuit,MEADOW HEIGHTS,3048,VIC,HUME CITY
Community Kids Pascoe Vale Early Education Centre,656 Bell Street,PASCOE VALE SOUTH,3044,VIC,MORELAND CITY
Community Kids Springvale South Early Education Centre,736-738 Heatherton Road,SPRINGVALE SOUTH,3172,VIC,GREATER DANDENONG CITY
Community Kids Sunbury Early Education Centre,35  Cornish Street,SUNBURY,3429,VIC,HUME CITY
Como Park Child Care & Kindergarten,162-164 Nelson Road,LILYDALE,3140,VIC,YARRA RANGES SHIRE
Complete Care for Kids,94 Grange Road,ALPHINGTON,3078,VIC,DAREBIN CITY
Complete Kids Early Learning Centre,75 Phillip Drive,SUNBURY,3429,VIC,HUME CITY
Connie Benn Early Learning Centre,160 Brunswick Street,FITZROY,3065,VIC,YARRA CITY
Cooinda Early Learning Centre, 19 Bent Street,WESTMEADOWS,3049,VIC,HUME CITY
Cooinda Kindergarten, 21 Dinsdale Road,BORONIA WEST,3155,VIC,KNOX CITY
Cooinda Kindergarten,74 Cooper Street,STAWELL,3380,VIC,NORTHERN GRAMPIANS SHIRE
Cooke Court Child Care Centre,22 Church Street,RICHMOND,3121,VIC,YARRA CITY
Coolaroo South Kindergarten at Coolaroo South Primary School,52-72 Bushfield Crescent,COOLAROO,3048,VIC,HUME CITY
Cooraminta Kindergarten,2 Skehan Boulevard,ALTONA MEADOWS,3028,VIC,HOBSONS BAY CITY
Cooraminta North Kindergarten,25 Whittaker Avenue,LAVERTON NORTH,3028,VIC,HOBSONS BAY CITY
Copperfields Preschool, Copperfield Drive,DELAHEY,3037,VIC,BRIMBANK CITY
Coral Drive Kindergarten,187-191 Coral Drive,HAMPTON PARK,3976,VIC,CASEY CITY
Corio Kindergarten,152 Purnell Road,CORIO,3214,VIC,GREATER GEELONG CITY
Corio South Norlane Kindergarten, Vermont Avenue,CORIO,3214,VIC,GREATER GEELONG CITY
Cornish College Early Learning Centre,65 Riverend Road,BANGHOLME,3175,VIC,GREATER DANDENONG CITY
Coronation Kindergarten,34 Roseberry Street,ASCOT VALE,3032,VIC,MOONEE VALLEY CITY
Coronation Kindergarten, Roy Street,WANGARATTA,3677,VIC,WANGARATTA RURAL CITY
Corrigan Rex Kindergarten,28 Kingsclere Avenue,KEYSBOROUGH,3173,VIC,GREATER DANDENONG CITY
Corryong Preschool,47 Harris Street,CORRYONG,3707,VIC,TOWONG SHIRE
Country Buddies,1 Zorro Drive,YARRAWONGA,3730,VIC,MOIRA SHIRE
Country Buddies Wahgunyah,27-29 Victoria Street,WAHGUNYAH,3687,VIC,INDIGO SHIRE
Covenant College Kindergarten, Creamery Road,BELL POST HILL,3215,VIC,GREATER GEELONG CITY
Coventry Children's Centre,328-332 Coventry Street,SOUTH MELBOURNE,3205,VIC,PORT PHILLIP CITY
Cowes Children's Centre,245-249 Church Street,COWES,3922,VIC,BASS COAST SHIRE
CPS Children's Centre,165-167 Southern Road,HEIDELBERG WEST,3081,VIC,BANYULE CITY
Cradles to Crayons Early Learning Centre,246 Sunshine Ave,KEALBA,3021,VIC,BRIMBANK CITY
Craigieburn Child and Family Centre,24-36 Cleveland Drive,CRAIGIEBURN,3064,VIC,HUME CITY
Craigieburn Early Childhood Services (Craigieburn Road Campus),153 Craigieburn Road,CRAIGIEBURN,3064,VIC,HUME CITY
Craigieburn Early Childhood Services (Hilton Street Campus),20 Hilton Street,CRAIGIEBURN,3064,VIC,HUME CITY
Craigieburn Global Learning Centre Children's Service,Cnr Aitken Blvd and Central Park Ave,CRAIGIEBURN,3064,VIC,HUME CITY
Cranbourne Day Care & Kindergarten Centre,30 Cranbourne Drive,CRANBOURNE,3977,VIC,CASEY CITY
Cranbourne Day Care & Kindergarten Centre,Lot 1 Cooper Court,CRANBOURNE,3977,VIC,CASEY CITY
Cranbourne Day Care & Kindergarten Centre,3 Duff Street,CRANBOURNE,3977,VIC,CASEY CITY
Cranbourne Day Care & Kindergarten Centre Pty Ltd,18 Mundaring Drive,CRANBOURNE,3977,VIC,CASEY CITY
Creative Beginnings,37 - 41 Blackwood Avenue,MENTONE,3194,VIC,KINGSTON CITY
Creative Play Early Learning Centre,1 Templestowe Road,BULLEEN,3105,VIC,MANNINGHAM CITY
Creekside Kindergarten, The Crossing,CAROLINE SPRINGS,3023,VIC,MELTON SHIRE
Creswick & District Preschool,24 Victoria Street,CRESWICK,3363,VIC,HEPBURN SHIRE
Creswick Children's Services,7 Andrew Street,CRESWICK,3363,VIC,HEPBURN SHIRE
Crib Point Preschool, 7 Cayley Avenue - Cerberus Naval Base,CRIB POINT,3919,VIC,MORNINGTON PENINSULA SHIRE
Cricklewood Child Care Centre,23-25 Cranbourne Road,LANGWARRIN,3910,VIC,FRANKSTON CITY
Croydon Central Kindergarten,216-218 Mt Dandenong Road,CROYDON,3136,VIC,MAROONDAH CITY
Croydon Early Learning and Childcare Centre,274-276 Mt Dandenong Road,CROYDON,3136,VIC,MAROONDAH CITY
Croydon Gums Kindergarten,22 Frederick Street,CROYDON,3136,VIC,MAROONDAH CITY
Croydon North Kindergarten,90 Bonnie View Road,CROYDON NORTH,3136,VIC,MAROONDAH CITY
Crystal Views Childcare Centre,2 Egret Place,WHITTLESEA,3757,VIC,WHITTLESEA CITY
Csiro Care Clayton, Bayview Avenue,CLAYTON,3168,VIC,MONASH CITY
Cuddly Bear Child Care,8  Swilk Street,TEMPLESTOWE,3106,VIC,MANNINGHAM CITY
Cuddly Bear Child Care Heathmont,274 Canterbury Road,HEATHMONT EAST,3135,VIC,MAROONDAH CITY
Cumberland Park Kindergarten,89-93 Kosciuszko Street,TRARALGON,3844,VIC,LATROBE CITY
Curzon Street Childrens Centre,51 Curzon Street,NORTH MELBOURNE,3051,VIC,MELBOURNE CITY
Dala Lidj - Woolum Bellum Kindergarten,3 Harold Street,MORWELL,3840,VIC,LATROBE CITY
Dala Yooro,37-53 Dalmahoy Street,BAIRNSDALE,3875,VIC,EAST GIPPSLAND SHIRE
Dallas Kindergarten @ Dallas Brooks Community Primary School, KING STREET,DALLAS,3047,VIC,HUME CITY
Dalmor Avenue Early Learning Centre,40 Dalmor Avenue,ORMOND,3163,VIC,GLEN EIRA CITY
Dalton Road Kindergarten,149-151 Dalton Road,LALOR,3075,VIC,WHITTLESEA CITY
Dame Nellie Melba Kindergarten,18 Goodwood Street,RICHMOND,3121,VIC,YARRA CITY
Dandenong Kindergarten, 170 Lonsdale Street,DANDENONG,3175,VIC,GREATER DANDENONG CITY
Dandenong North East Kindergarten,10 Ingrid Street,DANDENONG,3175,VIC,GREATER DANDENONG CITY
Dandenong North Preschool,70A McFees Road,DANDENONG,3175,VIC,GREATER DANDENONG CITY
Dandenong Ranges Steiner School Kindergarten,1 Menzies Road,MENZIES CREEK,3159,VIC,YARRA RANGES SHIRE
Dandenong South Preschool,21 Canberra Avenue,DANDENONG,3175,VIC,GREATER DANDENONG CITY
Dandenong South Primary Kindergarten,52 Kirkham,DANDENONG,3175,VIC,GREATER DANDENONG CITY
Dandenong West Kindergarten,6-8 Fifth Avenue,DANDENONG,3175,VIC,GREATER DANDENONG CITY
Darebin Childcare and Kindergarten Inc - Preston,260 Gower Street,PRESTON,3072,VIC,DAREBIN CITY
Darebin Childcare and Kindergarten Inc - Reservoir,6-8 Kenilworth Street,RESERVOIR,3073,VIC,DAREBIN CITY
Darren Reserve Kindergarten,3 Gillian Street,SPRINGVALE SOUTH,3172,VIC,GREATER DANDENONG CITY
Dartmoor Children's Centre, Lang Street,DARTMOOR,3304,VIC,GLENELG SHIRE
David Collins Kindergarten,23 - 25 David Collins Drive,ENDEAVOUR HILLS,3802,VIC,CASEY CITY
Davis Street Kindergarten,40 Davis Street,KEW,3101,VIC,BOROONDARA CITY
Dawson Street Child Care Centre,31 Dawson Street,BRUNSWICK,3056,VIC,MORELAND CITY
Dawson Street Preschool,27A Dawson Street,TULLAMARINE,3043,VIC,HUME CITY
Daylesford Community Child Care,81 West Street,DAYLESFORD,3460,VIC,HEPBURN SHIRE
Daylesford Preschool,64 Central Springs Road,DAYLESFORD,3460,VIC,HEPBURN SHIRE
De Garis Preschool,2 Christie Parade,MILDURA,3500,VIC,MILDURA RURAL CITY
Deakin & Community Childcare Co-operative,221 Burwood Highway,BURWOOD,3125,VIC,WHITEHORSE CITY
Dederang Primary School Care,4364 Kiewa Valley Highway,DEDERANG,3691,VIC,ALPINE SHIRE
Deep Creek Child Care Centre,510 Blackburn Road,DONCASTER EAST,3109,VIC,MANNINGHAM CITY
Deepdene Preschool,7 Terry Street,DEEPDENE,3103,VIC,BOROONDARA CITY
Deer Park Childrens Community Centre,3 Hume Street,DEER PARK,3023,VIC,BRIMBANK CITY
Deer Park Preschool, 62 Furlong Rd,CAIRNLEA,3023,VIC,BRIMBANK CITY
Deer Park West Kindergarten, Adeline Court,DEER PARK,3023,VIC,BRIMBANK CITY
Defence & ABC Child Care Centre,256-310 St Kilda Road,SOUTHBANK,3006,VIC,MELBOURNE CITY
Delacombe Community Kindergarten,105 Whitelaw Avenue,DELACOMBE,3356,VIC,BALLARAT CITY
Delacombe Park Preschool,29 Overport Road,FRANKSTON,3199,VIC,FRANKSTON CITY
Delta Road Preschool,15 Delta Road,WATSONIA,3087,VIC,BANYULE CITY
Dennington & District Preschool Centre,12-16 The Esplanade,WARRNAMBOOL,3280,VIC,WARRNAMBOOL CITY
Denzil Don Free Kindergarten,256 Union Street,BRUNSWICK WEST,3055,VIC,MORELAND CITY
Derby Meadows Preschool Inc,17 Winchester Avenue,EPPING,3076,VIC,WHITTLESEA CITY
Derby Street Children's Centre,122 Derby Street,PASCOE VALE,3044,VIC,MORELAND CITY
Derek Robson Children's Services Centre,1 Chiltern Street,BROADMEADOWS,3047,VIC,HUME CITY
Derrimut Early Learning Centre & YMCA Derrimut Outside School Hours Care,30 Lennon Parkway,DERRIMUT,3030,VIC,BRIMBANK CITY
Derrinallum Preschool,7 Robertson Street,DERRINALLUM,3325,VIC,CORANGAMITE SHIRE
Dewdrops Early Learning,89 Delaware Street,RESERVOIR,3073,VIC,DAREBIN CITY
Dewdrops Early Learning - Brunswick West,318 Hope Street,BRUNSWICK WEST,3055,VIC,MORELAND CITY
Dewdrops Early Learning - Moreland,96 Moreland Road,BRUNSWICK,3056,VIC,MORELAND CITY
Diamond Creek East Preschool, 28 Coniston Street,DIAMOND CREEK,3089,VIC,NILLUMBIK SHIRE
Diamond Creek Memorial Preschool,11 Collins Street,DIAMOND CREEK,3089,VIC,NILLUMBIK SHIRE
Diamond Hills Preschool, Diamond Hills Drive,GREENSBOROUGH,3088,VIC,NILLUMBIK SHIRE
Dickory Dock Kids Childcare,10 Creek Street,MELTON SOUTH,3338,VIC,MELTON SHIRE
Dickory Dock Kids Childcare - Kingsville,31 Bishop Street,KINGSVILLE,3012,VIC,MARIBYRNONG CITY
Diggers Rest Preschool, Plumpton Road,DIGGERS REST,3427,VIC,MELTON SHIRE
Dimboola Child Care,27 Hindmarsh Street,DIMBOOLA,3414,VIC,HINDMARSH SHIRE
Dimboola Early Learning and Care Centre,30-56 Johnstone Street,BROADMEADOWS,3047,VIC,HUME CITY
Dingee Preschool, 785 Dingee Road,DINGEE,3571,VIC,LODDON SHIRE
Dinky's Early Learning Centre,97 High Street,DONCASTER,3108,VIC,MANNINGHAM CITY
Dobell Avenue Preschool,35 Dobell Avenue,SUNBURY,3429,VIC,HUME CITY
Dobson Kindergarten, Burns Street,MAIDSTONE,3012,VIC,MARIBYRNONG CITY
Dolena Young Kindergarten,135 Balaclava Road,SHEPPARTON,3630,VIC,GREATER SHEPPARTON CITY
Donald Kindergarten,8 Houston Street,DONALD,3480,VIC,BULOKE SHIRE
Doncaster Early Learning Child Care,20 Turana Street,DONCASTER,3108,VIC,MANNINGHAM CITY
Doncaster East Daycare & Kindergarten,84 Blackburn Road,DONCASTER EAST,3109,VIC,MANNINGHAM CITY
Doncaster East Preschool Centre, Cnr Blackburn Rd & Doncaster Rd,DONCASTER EAST,3109,VIC,MANNINGHAM CITY
Doncaster Gardens Preschool,53 Victoria Street,DONCASTER EAST,3109,VIC,MANNINGHAM CITY
Doncaster Kindergarten," Suite 11, MC2, 687 Doncaster Road",DONCASTER,3108,VIC,MANNINGHAM CITY
Doncaster Park Kindergarten,18 Studley Street,DONCASTER,3108,VIC,MANNINGHAM CITY
Donvale Childcare and Kindergarten,11 Mitcham Road,DONVALE,3111,VIC,MANNINGHAM CITY
Donvale Preschool,7 Florence Avenue,DONVALE,3111,VIC,MANNINGHAM CITY
Dookie Children's Centre, Mary Street,DOOKIE,3646,VIC,GREATER SHEPPARTON CITY
Doris Blackburn Preschool Centre,20 Woodlands  Avenue,PASCOE VALE SOUTH,3044,VIC,MORELAND CITY
Dorothy Avenue Child Care Centre,6 Dorothy Avenue,THOMASTOWN,3074,VIC,WHITTLESEA CITY
Dorothy Carlton Preschool Inc,47 Furlong Road,SUNSHINE,3020,VIC,BRIMBANK CITY
Dorset Early Learning & Kindergarten,214-216 Dorset Road,CROYDON,3136,VIC,MAROONDAH CITY
Dot 2 Dot Early Learning Centre,77 Park Street,SOUTH MELBOURNE,3205,VIC,PORT PHILLIP CITY
Dover Street Preschool,19 Dover Street,OAKLEIGH EAST,3166,VIC,MONASH CITY
Doveton College Early Learning Centre,62 Tristania Street,DOVETON,3177,VIC,GREATER DANDENONG CITY
Dr Charles Prouse Memorial Kindergarten,5 Osterley Street,WERRIBEE,3030,VIC,WYNDHAM CITY
Dr Harry Little Preschool,243A View Street,BENDIGO,3550,VIC,GREATER BENDIGO CITY
Dr Stanley Cochrane Memorial Preschool,257 Mitcham Road,MITCHAM,3132,VIC,WHITEHORSE CITY
Dromana Early Learning Centre and Kindergarten,10 Nepean Highway,DROMANA,3936,VIC,MORNINGTON PENINSULA SHIRE
Dromana Preschool,65 Pier Street,DROMANA,3936,VIC,MORNINGTON PENINSULA SHIRE
Drouin Kindergarten,1 Adam Court,DROUIN,3818,VIC,BAW BAW SHIRE
Drysdale Street Kindergarten Wonthaggi,27 Drysdale Street,WONTHAGGI,3995,VIC,BASS COAST SHIRE
Dudley Street Childcare and Kindergarten,61 - 63 Dudley St,WALLAN,3756,VIC,MITCHELL SHIRE
Duke Street Children's Centre,1c Duke Street,MAFFRA,3860,VIC,WELLINGTON SHIRE
Dunkeld Kindergarten, Wills Street,DUNKELD,3294,VIC,SOUTHERN GRAMPIANS SHIRE
Dunolly Kindergarten, 94 Maude Street,DUNOLLY,3472,VIC,CENTRAL GOLDFIELDS SHIRE
Dunstan Reserve Child Care Centre,49 Everett Street,BRUNSWICK WEST,3055,VIC,MORELAND CITY
Each Child Community Child & Family Centre,75 Patterson Street,RINGWOOD EAST,3135,VIC,MAROONDAH CITY
Eaglehawk Preschool,15 Bright Street,EAGLEHAWK,3556,VIC,GREATER BENDIGO CITY
Early Beginners,901-903 Heatherton Road,SPRINGVALE,3171,VIC,GREATER DANDENONG CITY
Early Discoveries Pre-school,5 Stevenson Crescent,CAROLINE SPRINGS,3023,VIC,MELTON SHIRE
Early Learners Grammar School ELC,272 - 288 Millers Road,ALTONA NORTH,3025,VIC,HOBSONS BAY CITY
Early Learners on Aberdeen,19 Aberdeen Street,NEWTOWN,3220,VIC,GREATER GEELONG CITY
Early Learning @ Rosewall,Lot 62 Morgan St,GEELONG NORTH,3215,VIC,GREATER GEELONG CITY
Early Learning and Family Centre @ Apollo,27 Apollo Drive,WHITTINGTON,3219,VIC,GREATER GEELONG CITY
Early Learning Centre Ashburton,21 Vears Road,ASHBURTON,3147,VIC,BOROONDARA CITY
Early Learning Centre Diamond Creek, 104-106 Main Hurstbridge Road,DIAMOND CREEK,3089,VIC,NILLUMBIK SHIRE
Early Learning Centre Hunt Club Cranbourne East, 55-57 Broad Oak Drive,CRANBOURNE,3977,VIC,CASEY CITY
Early Learning Centre Mernda,5 Bent Street,MERNDA,3754,VIC,WHITTLESEA CITY
Early Learning Centre Pakenham North,95  Army Road,PAKENHAM,3810,VIC,CARDINIA SHIRE
Early Learning Centre Rose Grange,76 - 84 Baden Powell Drive,TARNEIT,3029,VIC,WYNDHAM CITY
Early Learning Centre Stawell,1 - 11 O'Callaghan Street,STAWELL,3380,VIC,NORTHERN GRAMPIANS SHIRE
Early Learning Child Care Centre,221 Coburns Road,MELTON,3337,VIC,MELTON SHIRE
Early Learning Kinder (Sunshine),457 - 459 Ballarat Rd,SUNSHINE,3020,VIC,BRIMBANK CITY
Early Years at Phoenix Park,25 Quentin Road,MALVERN EAST,3145,VIC,STONNINGTON CITY
East Beaumaris Kindergarten,60 Wells Road,BEAUMARIS EAST,3193,VIC,BAYSIDE CITY
East Bentleigh Child Care Centre,70 East Boundary Road,BENTLEIGH EAST,3165,VIC,GLEN EIRA CITY
East Brunswick Kindergarten,2 Noel Street,BRUNSWICK EAST,3057,VIC,MORELAND CITY
East Burwood Preschool, Statesman Avenue,BURWOOD EAST,3151,VIC,WHITEHORSE CITY
East Ivanhoe Early Learning Centre,71 Lower Heidelberg Road,IVANHOE,3079,VIC,BANYULE CITY
East Ivanhoe Preschool,1 King Street,IVANHOE EAST,3079,VIC,BANYULE CITY
East Malvern Early Learning Centre,11 Illowa Street,MALVERN EAST,3145,VIC,STONNINGTON CITY
East Newborough Kindergarten,14 Woreen Street,NEWBOROUGH,3825,VIC,LATROBE CITY
East Preston Uniting Church Preschool Centre,11 Highview Road,PRESTON EAST,3072,VIC,DAREBIN CITY
East Sale Kindergarten, Heart Road RAAF Base,SALE EAST,3852,VIC,WELLINGTON SHIRE
East Sunshine Kindergarten, Lowe Crescent,SUNSHINE,3020,VIC,BRIMBANK CITY
Eastmont Preschool,32 Frank Street,VERMONT,3133,VIC,WHITEHORSE CITY
Echuca Central Kindergarten,287 Anstruther Street,ECHUCA,3564,VIC,CAMPASPE SHIRE
Echuca East Preschool,115 Stawell Street,ECHUCA,3564,VIC,CAMPASPE SHIRE
Echuca Road Kindergarten,160 Echuca Road,MOOROOPNA,3629,VIC,GREATER SHEPPARTON CITY
Echuca South Community Preschool,232 High Street,ECHUCA SOUTH,3564,VIC,CAMPASPE SHIRE
Eclipse Early Education Berwick,22-24  Howell Drive,BERWICK,3806,VIC,CASEY CITY
Eclipse Early Education Cheltenham,266-268 Bay Road,CHELTENHAM,3192,VIC,KINGSTON CITY
Eclipse Early Education Pakenham,7 Village Way,PAKENHAM,3810,VIC,CARDINIA SHIRE
Eclipse Early Education Point Cook,25 Brookvale Drive,POINT COOK,3030,VIC,WYNDHAM CITY
Eclipse Early Education Tullamarine,16-20 Gowrie Park Drive,MELBOURNE AIRPORT,3046,VIC,HUME CITY
Eclipse Early Education Wallan,94  Taylor's Rd,WALLAN,3756,VIC,MITCHELL SHIRE
Eco Kids Child Care Centre,288 Pound Road,HAMPTON PARK NORTH,3977,VIC,CASEY CITY
Edenhope Kindergarten,52 Langford Street,EDENHOPE,3318,VIC,WEST WIMMERA SHIRE
Edinburgh Early Learning Centre,47 Edinburgh Road,LILYDALE,3140,VIC,YARRA RANGES SHIRE
Edithvale Preschool Centre,29 Fraser Avenue,EDITHVALE,3196,VIC,KINGSTON CITY
Edrington Park Child Care & Kindergarten,56-60 Edrington Park Drive,BERWICK,3806,VIC,CASEY CITY
Edukids Learning Child Care and Kindergarten,194 - 198 Centenary Ave,MELTON,3337,VIC,MELTON SHIRE
Edward Street Preschool,1A Edward Street,BUNDOORA,3083,VIC,WHITTLESEA CITY
Edwardes Street Child Minding,41 Edwardes Street,RESERVOIR,3073,VIC,DAREBIN CITY
Eildon and District Kindergarten,45 High Street,EILDON,3713,VIC,MURRINDINDI SHIRE
Eildon Parade Preschool,75 Eildon Parade,ROWVILLE,3178,VIC,KNOX CITY
Eildon Rd Child Care Centre,17 Eildon Road,ST KILDA,3182,VIC,PORT PHILLIP CITY
Eilleen Taylor Kindergarten,5 Hay Avenue,COBRAM,3644,VIC,MOIRA SHIRE
Elizabeth Wilmot Kindergarten,23-29 Well Street,MORWELL,3840,VIC,LATROBE CITY
Ellie V Pullin Kindergarten,30 Tortice Drive,RINGWOOD NORTH,3134,VIC,MAROONDAH CITY
Elmore and District Preschool,65  Hervey Street,ELMORE,3558,VIC,GREATER BENDIGO CITY
Elonera Preschool, 85 Davey St,PARKDALE,3195,VIC,KINGSTON CITY
Elsa Macleod Kindergarten, 60 Henty Street,PORTLAND,3305,VIC,GLENELG SHIRE
Eltham Child Care Co-op Ltd,1 Panther Place,ELTHAM,3095,VIC,NILLUMBIK SHIRE
Eltham College Preparatory Centre,1660 Main Road,RESEARCH,3095,VIC,NILLUMBIK SHIRE
Eltham North Child Care,296 Ryans Road,ELTHAM NORTH,3095,VIC,NILLUMBIK SHIRE
Eltham North Preschool,30 Glen Park Road,ELTHAM,3095,VIC,NILLUMBIK SHIRE
Eltham Preschool,907 Main Road,ELTHAM,3095,VIC,NILLUMBIK SHIRE
Eltham South Preschool, 35 Fordhams Road,ELTHAM,3095,VIC,NILLUMBIK SHIRE
Eltham Woods Child Care Centre Co-op,50 Frank Street,ELTHAM,3095,VIC,NILLUMBIK SHIRE
Elwood Children's Centre,46 Tennyson Street,ELWOOD,3184,VIC,PORT PHILLIP CITY
Emerald Hill Child Care Centre,219 Dorcas Street,SOUTH MELBOURNE,3205,VIC,PORT PHILLIP CITY
Emerald Preschool,7-9 Kings Road,EMERALD,3782,VIC,CARDINIA SHIRE
Emma McLean Kindergarten & Daycare Inc,71 Hope Street,SPOTSWOOD,3015,VIC,HOBSONS BAY CITY
Emmanuel Anglican Kindergarten,26 Abbeygate Street,OAKLEIGH,3166,VIC,MONASH CITY
Emmanuel Early Learning,18 Cristata Avenue,ENDEAVOUR HILLS,3802,VIC,CASEY CITY
Emmikins ELC,694-696 Whitehorse Road,MITCHAM,3132,VIC,WHITEHORSE CITY
Emohruo Children's Centre,4 Moorefield Park Drive,WODONGA,3690,VIC,WODONGA RURAL CITY
Endeavour Hills Childcare Centre,82 Heatherton Road,ENDEAVOUR HILLS,3802,VIC,CASEY CITY
Enid Rogers Jubilee Kindergarten,2 Forest Street,BALLARAT,3350,VIC,BALLARAT CITY
Epalock Crescent Kindergarten,15 Epalock Crescent,ST ALBANS,3021,VIC,BRIMBANK CITY
Epping North Preschool,378 Findon Road,EPPING,3076,VIC,WHITTLESEA CITY
Epping Preschool,849 High Street,EPPING,3076,VIC,WHITTLESEA CITY
Epping Views Kindergarten,15 Lyndarum Drive,EPPING,3076,VIC,WHITTLESEA CITY
Epsom Preschool,46 Myrtle Road,EPSOM,3551,VIC,GREATER BENDIGO CITY
Erica Kindergarten,9-11 School Road,ERICA,3825,VIC,BAW BAW SHIRE
Erinwood Preschool,111-113 Raphael Crescent,FRANKSTON,3199,VIC,FRANKSTON CITY
Essendon Fields Kinder Haven,35 Bristol Street,ESSENDON,3040,VIC,MOONEE VALLEY CITY
Essendon Kids,7 - 13 Bulla Road,ESSENDON,3040,VIC,MOONEE VALLEY CITY
Essex Heights Juniors,102 Huntingdale Road,MOUNT WAVERLEY,3149,VIC,MONASH CITY
Estrella Preschool,32 Chamberlain Street,ASHBURTON,3147,VIC,BOROONDARA CITY
Euroa Kindergarten, 46 A Kirkland Avenue,EUROA,3666,VIC,STRATHBOGIE SHIRE
Evesham Road Preschool,75 Evesham Road,CHELTENHAM,3192,VIC,KINGSTON CITY
Ewing Kindergarten,32A Manning Road,MALVERN EAST,3145,VIC,STONNINGTON CITY
Explorers Early Learning - Maidstone,44 - 56 Hampstead Road,MAIDSTONE,3012,VIC,MARIBYRNONG CITY
F W Kerr Kindergarten,15 Roberts Street,FERNTREE GULLY,3156,VIC,KNOX CITY
Fairbairn Road Kindergarten,26-30 Fairbairn Road,SUNSHINE,3020,VIC,BRIMBANK CITY
Fairhaven Kindergarten,42-52 Fairhaven Boulevard,CRANBOURNE WEST,3977,VIC,CASEY CITY
Fairy Hills Kindergarten,7 Thyer Road,IVANHOE,3079,VIC,BANYULE CITY
Farm Ridge Preschool,9-11 Claredale Avenue,GLADSTONE PARK,3043,VIC,HUME CITY
Farm Road Preschool,47-49 Farm Road,CHELTENHAM,3192,VIC,KINGSTON CITY
Fawkner Kindergarten,97 Major Road,FAWKNER,3060,VIC,MORELAND CITY
Fawkner Kindergarten,5 Lee Street,FAWKNER,3060,VIC,DAREBIN CITY
Fawkner Park Children's Centre,65 Toorak Road (West),SOUTH YARRA,3141,VIC,MELBOURNE CITY
Featherbrook Kindergarten,33 - 35 Windorah Drive,POINT COOK,3030,VIC,WYNDHAM CITY
FedUni Children's Centre at Mt Helen, University Drive,MOUNT HELEN,3350,VIC,BALLARAT CITY
Felltimber Children's Centre,101 Melrose Drive,WODONGA,3690,VIC,WODONGA RURAL CITY
Ferguson Park Kindergarten,4 Graysharps Road,HURSTBRIDGE,3099,VIC,NILLUMBIK SHIRE
Fernhill Preschool,9 Fernhill Road,MOUNT EVELYN,3796,VIC,YARRA RANGES SHIRE
Ferntree Gully Children's Centre,897 Burwood Highway,FERNTREE GULLY,3156,VIC,KNOX CITY
Fifth Avenue Day Care Centre,5 Fifth Avenue,DANDENONG,3175,VIC,GREATER DANDENONG CITY
Fink Karp Ivany Early Learning Centre,1 Feodore Street,CAULFIELD SOUTH,3162,VIC,GLEN EIRA CITY
Fintona Early Learning Centre,82 Balwyn Road,BALWYN,3103,VIC,BOROONDARA CITY
Firbank Grammar School,24 Middle Crescent,BRIGHTON,3186,VIC,BAYSIDE CITY
Firbank Grammar School,45 Royal Avenue,SANDRINGHAM,3191,VIC,BAYSIDE CITY
First Early Learning Heywood Grove,2 Heywood Grove,ENDEAVOUR HILLS,3802,VIC,CASEY CITY
First Early Learning Oban Close,23-24 Oban Close,ENDEAVOUR HILLS,3802,VIC,CASEY CITY
First Learnings St Kilda East,89 Westbury Street,ST KILDA EAST,3183,VIC,PORT PHILLIP CITY
First Steps Child Care Centre,1 Regent Street,WHITTINGTON,3219,VIC,GREATER GEELONG CITY
Fish Creek Kindergarten, 2 Ryan Street,FISH CREEK,3959,VIC,SOUTH GIPPSLAND SHIRE
Flamingo Preschool,21 Merryn Grove,WANTIRNA SOUTH,3152,VIC,KNOX CITY
Fleetwood Kindergarten,88-92 Fleetwood Drive,NARRE WARREN,3805,VIC,CASEY CITY
Flemington Street Children's Centre,80 Flemington Street,FLEMINGTON,3031,VIC,MOONEE VALLEY CITY
Flinders Kindergarten,3 Kees Road,LARA,3212,VIC,GREATER GEELONG CITY
Flinders Preschool,62 Bass Street,FLINDERS,3929,VIC,MORNINGTON PENINSULA SHIRE
Florence Collins Childrens Services Complex,27-47 Kepler Street,WARRNAMBOOL,3280,VIC,WARRNAMBOOL CITY
Florence Road Preschool,2 Florence Road,SURREY HILLS,3127,VIC,WHITEHORSE CITY
Florina Preschool & Day Care, Cnr Hawdon St & Knight St,SHEPPARTON,3630,VIC,GREATER SHEPPARTON CITY
Flowerdale Kindergarten,6525 Yea Rd,FLOWERDALE,3717,VIC,MURRINDINDI SHIRE
Fordham Avenue Kindergarten,24 Fordham Avenue,CAMBERWELL,3124,VIC,BOROONDARA CITY
Forever Friends Early Learning Centre,352 Sydenham Road,SYDENHAM,3037,VIC,BRIMBANK CITY
Forever Friends Sunbury,87 Pasley Street,SUNBURY,3429,VIC,HUME CITY
Forrest Learning Centre,12 Grant Street,FORREST,3236,VIC,COLAC-OTWAY SHIRE
Fountain Gate Kindergarten,12 Sylvanwood Crescent,NARRE WARREN,3805,VIC,CASEY CITY
Fox Kids Early Learning Centre,78 - 80 Centre Road,BRIGHTON EAST,3187,VIC,BAYSIDE CITY
Frances Sullivan Preschool Centre,35 Nolan Avenue,BROOKLYN,3025,VIC,HOBSONS BAY CITY
Frankston Preschool,15 Joy Street,FRANKSTON,3199,VIC,FRANKSTON CITY
Freshwater Creek Steiner Kindergarten, McIntyre Road,FRESHWATER CREEK,3216,VIC,SURF COAST SHIRE
Friend Street Kindergarten,5 Friend Street,MONT ALBERT NORTH,3129,VIC,WHITEHORSE CITY
Friendship Square Child Care Centre,35 Friendship Square,CHELTENHAM,3192,VIC,KINGSTON CITY
Fun 4 Kids Early Learning Centre,239 High Street,HASTINGS,3915,VIC,MORNINGTON PENINSULA SHIRE
Future Kids Child Care - Manor Lakes,6 Manor Lakes Boulevard,WYNDHAM VALE,3024,VIC,WYNDHAM CITY
Future Kids Child Care - Point Cook,12 - 14 Paradise Parade,POINT COOK,3030,VIC,WYNDHAM CITY
Future Kids Child Care - Tarneit,28 Marengo Street,TARNEIT,3029,VIC,WYNDHAM CITY
Future Kids Child Care Centre - Wyndham Waters,1 Bronzewing Street,WILLIAMS LANDING,3027,VIC,WYNDHAM CITY
Fyans Park Kindergarten,204 West Fyans Street,NEWTOWN,3220,VIC,GREATER GEELONG CITY
Gannawarra Shire Children's Centre,2 Murray Street,KERANG,3579,VIC,GANNAWARRA SHIRE
Gardiner Preschool Inc,10 St Andrews Lane,GLEN IRIS,3146,VIC,STONNINGTON CITY
Garfield Kindergarten,29-31 Garfield Road,GARFIELD,3814,VIC,CARDINIA SHIRE
Gateways Early Intervention Group,58 Greenville Drive,GROVEDALE,3216,VIC,GREATER GEELONG CITY
Geelong Children's Centre,21A Lomond Terrace,EAST GEELONG,3219,VIC,GREATER GEELONG CITY
Geelong Children's Services Child Care & Education Centre,189-195 Torquay Road,GROVEDALE,3216,VIC,GREATER GEELONG CITY
Geelong Grammar School Bostock House Early Learning Centre,139 Noble Street,NEWTOWN,3220,VIC,GREATER GEELONG CITY
Geelong Grammar School Toorak Campus,14 Douglas Street,TOORAK,3142,VIC,STONNINGTON CITY
Geelong Kids Child Care and Kindergarten,332 Autumn Street,HERNE HILL,3218,VIC,GREATER GEELONG CITY
Geelong West Kindergarten,46 O'Connell Street,GEELONG WEST,3218,VIC,GREATER GEELONG CITY
Gellibrand Crescent Kindergarten,26 Gellibrand Crescent,RESERVOIR,3073,VIC,DAREBIN CITY
Gembrook Preschool,19 Main Street,GEMBROOK,3783,VIC,CARDINIA SHIRE
Genazzano FCJ College,301 Cotham Road,KEW,3101,VIC,BOROONDARA CITY
Germain Street Kindergarten, Germain Street,OAKLEIGH SOUTH,3167,VIC,MONASH CITY
Giant Leaps Early Learning Centres, Lvl 1 Suite 803 Main Street,POINT COOK,3030,VIC,WYNDHAM CITY
Gippsland Grammar Early Learning Centre,52 Raymond Street,SALE,3850,VIC,WELLINGTON SHIRE
Gippsland Grammar Early Learning Centre - Wy Yung,86 Bullumwaal Road,WY YUNG,3875,VIC,EAST GIPPSLAND SHIRE
Girgarre Community Kindergarten, School Road,GIRGARRE,3624,VIC,CAMPASPE SHIRE
Girrabanya Children's Centre,11B Steinfeld Street,BALLARAT,3350,VIC,BALLARAT CITY
Gisborne Kindergarten,13 Grant Avenue,GISBORNE,3437,VIC,MACEDON RANGES SHIRE
Gisborne Montessori School,57 Barringo Road,NEW GISBORNE,3437,VIC,MACEDON RANGES SHIRE
Glass Street Kindergarten Assoc Inc,16A Glass Street,KEW EAST,3102,VIC,BOROONDARA CITY
Glassford Kindergarten,1 Glassford Street,MAFFRA,3860,VIC,WELLINGTON SHIRE
Glen Gala Children's Centre, 2 David  Drive,SUNSHINE WEST,3020,VIC,BRIMBANK CITY
Glen Iris Road Kindergarten,200 Glen Iris Road,GLEN IRIS,3146,VIC,BOROONDARA CITY
Glen Oak Kindergarten,11 Watt Avenue,OAK PARK,3046,VIC,MORELAND CITY
Glen Waverley South Preschool,43 Fraser Street,GLEN WAVERLEY,3150,VIC,MONASH CITY
Glendal Kindergarten,3 Lucerne Street,MOUNT WAVERLEY,3149,VIC,MONASH CITY
Glendonald Kindergarten,19 Churinga Drive,CHURCHILL,3842,VIC,LATROBE CITY
Glengarry Kindergarten,16 Main Street,GLENGARRY,3854,VIC,LATROBE CITY
Glenrowan Kindergarten, Old Hume Highway,GLENROWAN,3675,VIC,WANGARATTA RURAL CITY
Glenroy Central Kindergarten,10 LOGAN ST,GLENROY,3046,VIC,MORELAND CITY
Glenroy Memorial Kindergarten,10 Murrell Street,GLENROY,3046,VIC,MORELAND CITY
Glenroy West Kindergarten,60 William Street,GLENROY,3046,VIC,MORELAND CITY
Glenroy West Kindergarten,701 Pascoe Vale Road,GLENROY,3046,VIC,MORELAND CITY
Glorykids Child Care Centre,4 Rebound Court,NARRE WARREN,3805,VIC,CASEY CITY
Gloryland Childcare & Kindergarten,952-954 Doncaster Rd,DONCASTER EAST,3109,VIC,MANNINGHAM CITY
Glover Street Kindergarten,11 Glover Street,BENTLEIGH EAST,3165,VIC,GLEN EIRA CITY
Gold Street Child Care Centre,64 Gold Street,COLLINGWOOD,3066,VIC,YARRA CITY
Golden Square Kindergarten,45 Panton Street,GOLDEN SQUARE,3555,VIC,GREATER BENDIGO CITY
Goldfields Children's Centre, 100  Napier Street,MARYBOROUGH,3465,VIC,CENTRAL GOLDFIELDS SHIRE
Good Shepherd Early Childhood Services,31-35 McArthur Street,HAMILTON,3300,VIC,SOUTHERN GRAMPIANS SHIRE
Good Shepherd Lutheran Church Kindergarten,31 McArthur Street,HAMILTON,3300,VIC,SOUTHERN GRAMPIANS SHIRE
Goodstart Early Learning Alfredton,91-93 Cuthberts Road,ALFREDTON,3350,VIC,BALLARAT CITY
Goodstart Early Learning Altona,24 Upton Street,ALTONA,3018,VIC,HOBSONS BAY CITY
Goodstart Early Learning Aspendale Gardens,6 Springvale Road,ASPENDALE GARDENS,3195,VIC,KINGSTON CITY
Goodstart Early Learning Bairnsdale,382 Main Street,BAIRNSDALE,3875,VIC,EAST GIPPSLAND SHIRE
Goodstart Early Learning Ballarat - Creswick Road,609-611 Creswick Road,BALLARAT,3350,VIC,BALLARAT CITY
Goodstart Early Learning Beaumaris,4 Emily Street,BEAUMARIS,3193,VIC,BAYSIDE CITY
Goodstart Early Learning Belgrave Heights,75 Colby Drive,BELGRAVE HEIGHTS,3160,VIC,YARRA RANGES SHIRE
Goodstart Early Learning Bendigo,10 McIvor Road,BENDIGO,3550,VIC,GREATER BENDIGO CITY
Goodstart Early Learning Bentleigh East,781 South Road,BENTLEIGH EAST,3165,VIC,GLEN EIRA CITY
Goodstart Early Learning Berwick,1-5 Cheviot Avenue,BERWICK,3806,VIC,CASEY CITY
Goodstart Early Learning Blackburn South,286 Middleborough Road,BLACKBURN,3130,VIC,WHITEHORSE CITY
Goodstart Early Learning Boronia,15 - 17 Boronia Road,BORONIA,3155,VIC,KNOX CITY
Goodstart Early Learning Box Hill - Canterbury Road,974 Canterbury Road,BOX HILL,3128,VIC,WHITEHORSE CITY
Goodstart Early Learning Box Hill - Whitehorse Road,1056 Whitehorse Road,BOX HILL,3128,VIC,WHITEHORSE CITY
Goodstart Early Learning Braybrook, 1 Vine Street,BRAYBROOK,3019,VIC,MARIBYRNONG CITY
Goodstart Early Learning Brighton - Cochrane Street,43-45 Cochrane Street,BRIGHTON,3186,VIC,BAYSIDE CITY
Goodstart Early Learning Brighton East,309-311 Nepean Highway,BRIGHTON EAST,3187,VIC,BAYSIDE CITY
Goodstart Early Learning Brunswick West,606 Moreland Road,BRUNSWICK WEST,3055,VIC,MORELAND CITY
Goodstart Early Learning Bundoora - Bendoran Crescent,17-19 Bendoran Crescent,BUNDOORA,3083,VIC,BANYULE CITY
Goodstart Early Learning Bundoora - Karl Court, 18-20 Karl Court,BUNDOORA,3083,VIC,DAREBIN CITY
Goodstart Early Learning Bundoora - Plenty Road,3-5 Plenty Road,BUNDOORA,3083,VIC,WHITTLESEA CITY
Goodstart Early Learning Burnside,277 - 281 Westwood Drive,BURNSIDE,3023,VIC,MELTON SHIRE
Goodstart Early Learning Carnegie,83 Oakleigh Road,CARNEGIE,3163,VIC,GLEN EIRA CITY
Goodstart Early Learning Carrum Downs - Arcadia Street,4-6 Arcadia Street,CARRUM DOWNS,3201,VIC,FRANKSTON CITY
Goodstart Early Learning Carrum Downs - Frankston-Dandenong Road,1141-1143 Frankston Dandenong Road,CARRUM DOWNS,3201,VIC,FRANKSTON CITY
Goodstart Early Learning Carrum Downs - Hall Road, 171 Hall Road,CARRUM DOWNS,3201,VIC,FRANKSTON CITY
Goodstart Early Learning Chadstone, Cnr Waverley Road & Batesford Road,CHADSTONE,3148,VIC,STONNINGTON CITY
Goodstart Early Learning Chelsea Heights,5-9 Piper Drive,CHELSEA HEIGHTS,3196,VIC,KINGSTON CITY
Goodstart Early Learning Cheltenham,2 Jellicoe Street,CHELTENHAM,3192,VIC,KINGSTON CITY
Goodstart Early Learning Clayton,42 Prince Charles Street,CLAYTON,3168,VIC,MONASH CITY
Goodstart Early Learning Clifton Hill,101 Heidelberg Road,CLIFTON HILL,3068,VIC,YARRA CITY
Goodstart Early Learning Coburg,222A Bell Street,COBURG,3058,VIC,MORELAND CITY
Goodstart Early Learning Craigieburn Central,130 Dorchester Street,CRAIGIEBURN,3064,VIC,HUME CITY
Goodstart Early Learning Croydon South,173 - 177 Bayswater Road,CROYDON,3136,VIC,MAROONDAH CITY
Goodstart Early Learning Dandenong - Heatherton Road,1390-1392 Heatherton Road,DANDENONG,3175,VIC,GREATER DANDENONG CITY
Goodstart Early Learning Dandenong - Princes Highway,141 Princes Highway,DANDENONG,3175,VIC,GREATER DANDENONG CITY
Goodstart Early Learning Deer Park,799 Ballarat Road,DEER PARK,3023,VIC,BRIMBANK CITY
Goodstart Early Learning Delacombe, Cnr Glenelg Hwy & Sutton St,DELACOMBE,3356,VIC,BALLARAT CITY
Goodstart Early Learning Dennington, 135 Harrington Road,DENNINGTON,3280,VIC,WARRNAMBOOL CITY
Goodstart Early Learning Derrimut,6A Chartwell Crescent,DERRIMUT,3030,VIC,BRIMBANK CITY
Goodstart Early Learning Doncaster East,76 Andersons Creek Road,DONCASTER EAST,3109,VIC,MANNINGHAM CITY
Goodstart Early Learning Drouin,2  Lindman Street,DROUIN,3818,VIC,BAW BAW SHIRE
Goodstart Early Learning Drysdale,86-90 Barrands Lane,DRYSDALE,3222,VIC,GREATER GEELONG CITY
Goodstart Early Learning East Bentleigh,364 McKinnon Road,BENTLEIGH EAST,3165,VIC,GLEN EIRA CITY
Goodstart Early Learning Echuca,112 Northern Highway,ECHUCA,3564,VIC,CAMPASPE SHIRE
Goodstart Early Learning Eltham,816 Main Road,ELTHAM,3095,VIC,NILLUMBIK SHIRE
Goodstart Early Learning Elwood,35 Tennyson Street,ELWOOD,3184,VIC,PORT PHILLIP CITY
Goodstart Early Learning Endeavour Hills - Barnsley Drive,46-48 Barnsley Drive,ENDEAVOUR HILLS,3802,VIC,CASEY CITY
Goodstart Early Learning Endeavour Hills - Hanna Drive,1 - 3 Hanna Drive,ENDEAVOUR HILLS,3802,VIC,CASEY CITY
Goodstart Early Learning Epping - Cooper Street,185 Cooper Street,EPPING,3076,VIC,WHITTLESEA CITY
Goodstart Early Learning Epping - High Street,792-796 High Street,EPPING,3076,VIC,WHITTLESEA CITY
Goodstart Early Learning Euroa,8-14 Campbell St,EUROA,3666,VIC,STRATHBOGIE SHIRE
Goodstart Early Learning Ferntree Gully,724 Burwood Highway,FERNTREE GULLY,3156,VIC,KNOX CITY
Goodstart Early Learning Flemington,442 Racecourse Road,FLEMINGTON,3031,VIC,MOONEE VALLEY CITY
Goodstart Early Learning Flora Hill, 32 Somerville Street,BENDIGO,3550,VIC,GREATER BENDIGO CITY
Goodstart Early Learning Forest Hill - Fraser Place,2 Fraser Place,FOREST HILL,3131,VIC,WHITEHORSE CITY
Goodstart Early Learning Frankston South - Frankston-Flinders Road,134 Frankston-Flinders Road,FRANKSTON,3199,VIC,FRANKSTON CITY
Goodstart Early Learning Frankston South - Stotts Lane,77 Stotts Lane,FRANKSTON SOUTH,3199,VIC,FRANKSTON CITY
Goodstart Early Learning Geelong East,144 McKillop Street,EAST GEELONG,3219,VIC,GREATER GEELONG CITY
Goodstart Early Learning Glen Huntly,112A Booran Road,GLEN HUNTLY,3163,VIC,GLEN EIRA CITY
Goodstart Early Learning Glenroy - Pascoe Vale Road,851-853 Pascoe Vale Road,GLENROY,3046,VIC,MORELAND CITY
Goodstart Early Learning Golden Square,11 Symonds Street,GOLDEN SQUARE,3555,VIC,GREATER BENDIGO CITY
Goodstart Early Learning Greenvale,2 McNab Way,GREENVALE,3059,VIC,HUME CITY
Goodstart Early Learning Grovedale - Pioneer Road, 18-20 Pioneer Road,GROVEDALE,3216,VIC,GREATER GEELONG CITY
Goodstart Early Learning Grovedale - Torquay Road,282 Torquay Rd,GROVEDALE,3216,VIC,GREATER GEELONG CITY
Goodstart Early Learning Hampton Park - Coral Drive, Cnr Coral Dr & Hallam Rd,HAMPTON PARK,3976,VIC,CASEY CITY
Goodstart Early Learning Hampton Park - Somerville Road,160 Somerville Road,HAMPTON PARK,3976,VIC,CASEY CITY
Goodstart Early Learning Heidelberg,28 Rosanna Road,HEIDELBERG,3084,VIC,BANYULE CITY
Goodstart Early Learning Hillside,34 Gourlay Road,HILLSIDE,3037,VIC,MELTON SHIRE
Goodstart Early Learning Hoppers Crossing - Heaths Road,350 Heaths Road,HOPPERS CROSSING,3029,VIC,WYNDHAM CITY
Goodstart Early Learning Hoppers Crossing - Morris Road,285 Morris Road,HOPPERS CROSSING,3029,VIC,WYNDHAM CITY
Goodstart Early Learning Horsham,10 Maddern Street,HORSHAM,3400,VIC,HORSHAM RURAL CITY
Goodstart Early Learning Ivanhoe,49 Marshall Street,IVANHOE,3079,VIC,BANYULE CITY
Goodstart Early Learning Kangaroo Flat,28 View Street,KANGAROO FLAT,3555,VIC,GREATER BENDIGO CITY
Goodstart Early Learning Kealba,31A Driscolls Road,KEALBA,3021,VIC,BRIMBANK CITY
Goodstart Early Learning Kyneton,30 Mair Street,KYNETON,3444,VIC,MACEDON RANGES SHIRE
Goodstart Early Learning Lara,20 Clover Street,LARA,3212,VIC,GREATER GEELONG CITY
Goodstart Early Learning Lynbrook,10 Harris Street,LYNBROOK,3975,VIC,CASEY CITY
Goodstart Early Learning McKinnon,97 Wheatley Road,MCKINNON,3204,VIC,GLEN EIRA CITY
Goodstart Early Learning Meadow Heights,28 Paringa Boulevard,MEADOW HEIGHTS,3048,VIC,HUME CITY
Goodstart Early Learning Melbourne, La Trobe Street,MELBOURNE,3000,VIC,MELBOURNE CITY
Goodstart Early Learning Melbourne - Flinders Street,276 Flinders Street,MELBOURNE,3005,VIC,MELBOURNE CITY
Goodstart Early Learning Melton - Centenary Avenue,158 Centenary Avenue,MELTON,3337,VIC,MELTON SHIRE
Goodstart Early Learning Melton - High Street,443 - 445 High Street,MELTON,3337,VIC,MELTON SHIRE
Goodstart Early Learning Mentone,104-106 Warrigal Road,MENTONE,3194,VIC,KINGSTON CITY
Goodstart Early Learning Mildura - Matthew Flinders Drive,10 Matthew Flinders Drive,MILDURA,3500,VIC,MILDURA RURAL CITY
Goodstart Early Learning Mill Park - Centenary Drive,156-160 Centenary Drive,MILL PARK,3082,VIC,WHITTLESEA CITY
Goodstart Early Learning Mill Park - University Drive,3 University Drive,MILL PARK,3082,VIC,WHITTLESEA CITY
Goodstart Early Learning Mont Albert,15 Wellesley Street,MONT ALBERT,3127,VIC,WHITEHORSE CITY
Goodstart Early Learning Montrose,158 Swansea Road,MONTROSE,3765,VIC,YARRA RANGES SHIRE
Goodstart Early Learning Moonee Ponds, Corner Holmes Road and Chester Street,MOONEE PONDS,3039,VIC,MOONEE VALLEY CITY
Goodstart Early Learning Mooroolbark,11  Cambridge Road,MOOROOLBARK,3138,VIC,YARRA RANGES SHIRE
Goodstart Early Learning Morwell, Commercial Road,MORWELL,3840,VIC,LATROBE CITY
Goodstart Early Learning Mount Clear,1108 Geelong Road,MOUNT CLEAR,3350,VIC,BALLARAT CITY
Goodstart Early Learning Mount Helen,1848 Geelong Road,MOUNT HELEN,3350,VIC,BALLARAT CITY
Goodstart Early Learning Mount Martha - Bentons Road,140 Bentons Road,MOUNT MARTHA,3934,VIC,MORNINGTON PENINSULA SHIRE
Goodstart Early Learning Mount Martha - Craigie Road,90 Craigie Road,MOUNT MARTHA,3934,VIC,MORNINGTON PENINSULA SHIRE
Goodstart Early Learning Mount Waverley, Unit 152/45 Gilby Road,MOUNT WAVERLEY,3149,VIC,MONASH CITY
Goodstart Early Learning Narre Warren - Fleetwood Drive,159-167 Fleetwood Drive,NARRE WARREN,3805,VIC,CASEY CITY
Goodstart Early Learning Narre Warren - Galloway Drive,3 Galloway Drive,NARRE WARREN,3805,VIC,CASEY CITY
Goodstart Early Learning Narre Warren - Pound Road North,336  Pound Road,NARRE WARREN,3805,VIC,CASEY CITY
Goodstart Early Learning Narre Warren - Pound Road South,292 Pound Road,NARRE WARREN SOUTH,3805,VIC,CASEY CITY
Goodstart Early Learning Narre Warren North,147 Kurrajong Road,NARRE WARREN NORTH,3804,VIC,CASEY CITY
Goodstart Early Learning Narre Warren South - Sherwood Road,21-23 Sherwood Road,NARRE WARREN,3805,VIC,CASEY CITY
Goodstart Early Learning New Gisborne, 12 Saunders Rd,NEW GISBORNE,3437,VIC,MACEDON RANGES SHIRE
Goodstart Early Learning Newtown,15 Aberdeen Street,NEWTOWN,3220,VIC,GREATER GEELONG CITY
Goodstart Early Learning Noble Park, Cnr Douglas & Thomas Streets,NOBLE PARK,3174,VIC,GREATER DANDENONG CITY
Goodstart Early Learning Numurkah,131 - 133 Saxton Street,NUMURKAH,3636,VIC,MOIRA SHIRE
Goodstart Early Learning Oakleigh,1655 Dandenong Road,OAKLEIGH,3166,VIC,MONASH CITY
Goodstart Early Learning Oakleigh South - Moresby Street,8 Moresby Street,OAKLEIGH SOUTH,3167,VIC,KINGSTON CITY
Goodstart Early Learning Oakleigh South - North Road,1077 North Road,OAKLEIGH SOUTH,3167,VIC,MONASH CITY
Goodstart Early Learning Pascoe Vale - Cumberland Road West,105 Cumberland Road,PASCOE VALE,3044,VIC,MORELAND CITY
Goodstart Early Learning Point Cook - Shaftsbury Boulevard,1 - 5 Shaftsbury Boulevard,POINT COOK,3030,VIC,WYNDHAM CITY
Goodstart Early Learning Point Cook - The Strand,71 The Strand,POINT COOK,3030,VIC,WYNDHAM CITY
Goodstart Early Learning Portland,49 -53 Wellington Road,PORTLAND,3305,VIC,GLENELG SHIRE
Goodstart Early Learning Preston,22A Regent Street,PRESTON,3072,VIC,DAREBIN CITY
Goodstart Early Learning Reservoir,20-22 Gertz Avenue,RESERVOIR,3073,VIC,DAREBIN CITY
Goodstart Early Learning Richmond,319 Church Street,RICHMOND,3121,VIC,YARRA CITY
Goodstart Early Learning Riddells Creek,701 Kilmore Rd,RIDDELLS CREEK,3431,VIC,MACEDON RANGES SHIRE
Goodstart Early Learning Ringwood,203 Warrandyte Road,RINGWOOD NORTH,3134,VIC,MAROONDAH CITY
Goodstart Early Learning Rosanna,93-97 Banyule Road,ROSANNA,3084,VIC,BANYULE CITY
Goodstart Early Learning Rosebud - Boneo Road, Corner Boneo Road & Henry Wilson Drive,ROSEBUD,3939,VIC,MORNINGTON PENINSULA SHIRE
Goodstart Early Learning Rosebud - Eastbourne Road,166-170 Eastbourne Road,ROSEBUD,3939,VIC,MORNINGTON PENINSULA SHIRE
Goodstart Early Learning Rowville - Liberty Avenue,89-91 Liberty Avenue,ROWVILLE,3178,VIC,KNOX CITY
Goodstart Early Learning Rowville - Murrindal Drive,93-95 Murrindal Drive,ROWVILLE,3178,VIC,KNOX CITY
Goodstart Early Learning Rowville - Stud Road,966 Stud Road,ROWVILLE,3178,VIC,KNOX CITY
Goodstart Early Learning Roxburgh Park - David Munroe Drive,"30 David Munroe Drive, Roxburgh Park Shopping Centre",ROXBURGH PARK,3064,VIC,HUME CITY
Goodstart Early Learning Roxburgh Park - Sommeville Drive, 61-65 Sommeville Drive,ROXBURGH PARK,3064,VIC,HUME CITY
Goodstart Early Learning Seymour, Bishop Street,SEYMOUR,3660,VIC,MITCHELL SHIRE
Goodstart Early Learning Shepparton - Archer Street,132-134 Archer Street,SHEPPARTON,3630,VIC,GREATER SHEPPARTON CITY
Goodstart Early Learning Shepparton - Bourchier Street,49-51 Bourchier Street,SHEPPARTON,3630,VIC,GREATER SHEPPARTON CITY
Goodstart Early Learning Springvale,9 St James Avenue,SPRINGVALE,3171,VIC,GREATER DANDENONG CITY
Goodstart Early Learning Strathfieldsaye,913 Wellington Street,STRATHFIELDSAYE,3551,VIC,GREATER BENDIGO CITY
Goodstart Early Learning Sunbury - Barkly Street,43 Barkly Street,SUNBURY,3429,VIC,HUME CITY
Goodstart Early Learning Sunbury - Bennett Court,24 Bennett Court,SUNBURY,3429,VIC,HUME CITY
Goodstart Early Learning Sunbury - Ligar Street,19-21 Ligar Street,SUNBURY,3429,VIC,HUME CITY
Goodstart Early Learning Swan Hill - Pritchard Street,28A Pritchard Street,SWAN HILL,3585,VIC,SWAN HILL RURAL CITY
Goodstart Early Learning Sydenham,60 Community Hub,SYDENHAM,3037,VIC,BRIMBANK CITY
Goodstart Early Learning Tarneit,17 David John Drive,TARNEIT,3029,VIC,WYNDHAM CITY
Goodstart Early Learning Taylors Hill,21 Woollahra Parade,TAYLORS HILL,3037,VIC,MELTON SHIRE
Goodstart Early Learning Thornbury,99-101 Harold Street,THORNBURY,3071,VIC,DAREBIN CITY
Goodstart Early Learning Torquay,86 Beach Road,TORQUAY,3228,VIC,SURF COAST SHIRE
Goodstart Early Learning Vermont - Canterbury Road South,522-524 Canterbury Road,VERMONT,3133,VIC,WHITEHORSE CITY
Goodstart Early Learning Wangaratta - Moore Street,20 Moore Street,WANGARATTA,3677,VIC,WANGARATTA RURAL CITY
Goodstart Early Learning Wangaratta - Murdoch Road,38-40 Murdoch Road,WANGARATTA,3677,VIC,WANGARATTA RURAL CITY
Goodstart Early Learning Wangaratta - Williams Road,54-58 Williams Road,WANGARATTA,3677,VIC,WANGARATTA RURAL CITY
Goodstart Early Learning Wantirna,309 Mountain Highway,WANTIRNA,3152,VIC,KNOX CITY
Goodstart Early Learning Wantirna South - Cathies Lane,51 Cathies Lane,WANTIRNA,3152,VIC,KNOX CITY
Goodstart Early Learning Wantirna South - Wallace Road,1A Wallace Road,WANTIRNA SOUTH,3152,VIC,KNOX CITY
Goodstart Early Learning Warragul - Burke Street,75-77 Burke Street,WARRAGUL,3820,VIC,BAW BAW SHIRE
Goodstart Early Learning Warragul - Sutton Street,201 Sutton Street,WARRAGUL,3820,VIC,BAW BAW SHIRE
Goodstart Early Learning Warrnambool,121 Whites Road,WARRNAMBOOL,3280,VIC,WARRNAMBOOL CITY
Goodstart Early Learning Wendouree,1122 Howitt Street,WENDOUREE,3355,VIC,BALLARAT CITY
Goodstart Early Learning Werribee,39-41 Duncans Road,WERRIBEE,3030,VIC,WYNDHAM CITY
Goodstart Early Learning West Melton,12 James Cook Drive,WEST MELTON,3337,VIC,MELTON SHIRE
Goodstart Early Learning Wodonga,137 Brockley Street,WODONGA,3690,VIC,WODONGA RURAL CITY
Goodstart Early Learning Woodend,12 Wood Street,WOODEND,3442,VIC,MACEDON RANGES SHIRE
Goodstart Early Learning Yarrawonga,69 Telford Street,YARRAWONGA,3730,VIC,MOIRA SHIRE
Goodwin Estate Kindergarten, 28 Rome Beauty Avenue,THE BASIN,3154,VIC,KNOX CITY
Goongerah Early Childhood Development Centre,6933 Bonang Highway Goongerah (via),ORBOST,3888,VIC,EAST GIPPSLAND SHIRE
Gordon Street Preschool,17-19 Gordon Street,BEAUMARIS,3193,VIC,BAYSIDE CITY
Gormandale Kindergarten,38 Main Street,GORMANDALE,3873,VIC,WELLINGTON SHIRE
Goroke Preschool,9 Compston Street,GOROKE,3412,VIC,WEST WIMMERA SHIRE
Gowanbrae Children's Centre,2A Marigold Crescent,GOWANBRAE,3043,VIC,MORELAND CITY
Gower Street Kindergarten,146 Gower Street,PRESTON,3072,VIC,DAREBIN CITY
Gowrie Park Kindergarten,35 Hughes Street,TATURA,3616,VIC,GREATER SHEPPARTON CITY
Gowrie Street Preschool and Occassional Care, Balaclava Road,SHEPPARTON,3630,VIC,GREATER SHEPPARTON CITY
Grace Berglund Kindergarten,12 George Street,WARRAGUL,3820,VIC,BAW BAW SHIRE
Grace Park Preschool,179 Nepean Street,GREENSBOROUGH,3088,VIC,BANYULE CITY
Grace Street Child Care Centre,24-26 Grace Street,ST ALBANS,3021,VIC,BRIMBANK CITY
Grange Road Kindergarten,66 Grange Road,SANDRINGHAM,3191,VIC,BAYSIDE CITY
Gray Court Preschool, Gray Court,MOOROOLBARK,3138,VIC,YARRA RANGES SHIRE
Green Cottage Child Care,302 Frankston-Dandenong Road,SEAFORD,3198,VIC,FRANKSTON CITY
Green Kids Early Learning,Lot 12 Enterprise Ave,HAMPTON PARK,3976,VIC,CASEY CITY
Green Land Children's Services Centre,420 High Street Road,MOUNT WAVERLEY,3149,VIC,MONASH CITY
Green Park Casuarina Kindergarten,18 - 20 Williams Road,HORSHAM,3400,VIC,HORSHAM RURAL CITY
Greenbrook Kindergarten,31 Lowalde Drive,EPPING,3076,VIC,WHITTLESEA CITY
Greenhills Preschool,37 St Helena Road,GREENSBOROUGH,3088,VIC,BANYULE CITY
Greenland Early Learning Centre,75-77 Watsons Road,GLEN WAVERLEY,3150,VIC,MONASH CITY
Greensborough Early Learning Centre and Kindergarten,9 Campbell Road,BRIAR HILL,3088,VIC,BANYULE CITY
Greensborough Preschool,17-19 Ester Street,GREENSBOROUGH,3088,VIC,BANYULE CITY
Greensborough Road Early Learning Centre,51-55 Greensborough Road,MACLEOD,3085,VIC,BANYULE CITY
Greenwood Park Kindergarten, Greenwood Avenue,RINGWOOD,3134,VIC,MAROONDAH CITY
Greythorn Early Childhood Centre,4 Trentwood Avenue,BALWYN NORTH,3104,VIC,BOROONDARA CITY
Grovedale East Kindergarten,274 Torquay Road,GROVEDALE,3216,VIC,GREATER GEELONG CITY
Grovedale Preschool,83 Heyers Road,GROVEDALE,3216,VIC,GREATER GEELONG CITY
Grow 'n' Learn Child Care Centre,414 Derrimut Road,TARNEIT,3029,VIC,WYNDHAM CITY
Grow to Learn Early Childhood Education,1-3 Ferndown Drive,CRANBOURNE,3977,VIC,CASEY CITY
Gum Nut Preschool & Child Care,1 Como Street,ALPHINGTON,3078,VIC,YARRA CITY
Gum Nuts Resort,31 Carrier Street,BENALLA,3672,VIC,BENALLA RURAL CITY
Gumnut Drive Early Learning Centre,41 Gumnut Drive,LANGWARRIN,3910,VIC,FRANKSTON CITY
Gumnut Gully Preschool, Larnoo Drive,DONCASTER EAST,3109,VIC,MANNINGHAM CITY
Gunbower Preschool Play Centre,1 Wilson Street,GUNBOWER,3566,VIC,CAMPASPE SHIRE
Guthrie Street Child Care Centre,52-56 Guthrie Street,SHEPPARTON,3630,VIC,GREATER SHEPPARTON CITY
Gwendoline Kindergarten,25 Gwendoline Drive,BERWICK,3806,VIC,CASEY CITY
Gwenfa Hampton Kindergarten,127 Fitzroy Street,SALE,3850,VIC,WELLINGTON SHIRE
H E Kane Memorial Kindergarten, 20A Volga Street,HADFIELD,3046,VIC,MORELAND CITY
Haddon Preschool Centre,28  Haddon-Windermere Road,HADDON,3351,VIC,GOLDEN PLAINS SHIRE
Haering Road Preschool,17 Haering Road,BORONIA,3155,VIC,KNOX CITY
Haig Avenue Preschool, Haig Avenue,HEALESVILLE,3777,VIC,YARRA RANGES SHIRE
Haileybury Berwick College,138 High Street,BERWICK,3806,VIC,CASEY CITY
Haileybury Kindergarten,120 South Road,BRIGHTON EAST,3187,VIC,BAYSIDE CITY
Haileybury Newlands,855-891 Springvale Road,KEYSBOROUGH,3173,VIC,GREATER DANDENONG CITY
Hallam Gardens Kindergarten,26-28 Nettle Drive,HALLAM,3803,VIC,CASEY CITY
Hallam Kindergarten,30 Harmer Road,HALLAM,3803,VIC,CASEY CITY
Hamilton North Kindergarten,134 Coleraine Road,HAMILTON,3300,VIC,SOUTHERN GRAMPIANS SHIRE
Hampton Child Care Centre,461 Bluff Road,HAMPTON,3188,VIC,BAYSIDE CITY
Hampton Community Kindergarten,1A Myrtle Road,HAMPTON,3188,VIC,BAYSIDE CITY
Hampton Park Early Learning Centre,47-51 Branton Drive,HAMPTON PARK,3976,VIC,CASEY CITY
Hampton Park East Kindergarten,2 Stuart Avenue,HAMPTON PARK,3976,VIC,CASEY CITY
Hansen Park Preschool, Tower Street,KILSYTH,3137,VIC,YARRA RANGES SHIRE
Hansen Street Children's Centre,18 Hansen Street,MOUNT WAVERLEY,3149,VIC,MONASH CITY
Happy Days Childcare,4-12 The Avenue,NARRE WARREN SOUTH,3805,VIC,CASEY CITY
Happy Feet Early Learning Centre,6-12 Plantation Road,CORIO,3214,VIC,GREATER GEELONG CITY
Happy Kids Child Care Centre,187 Gladstone Road,DANDENONG,3175,VIC,GREATER DANDENONG CITY
Harbard Street Kindergarten,3 Harbard Street,THOMASTOWN,3074,VIC,WHITTLESEA CITY
Harcourt Pre-School Play Centre,28 Buckley Street,HARCOURT,3453,VIC,MOUNT ALEXANDER SHIRE
Harrisfield Kindergarten,62 Bowmore Road,NOBLE PARK,3174,VIC,GREATER DANDENONG CITY
Hartley Ridge Kindergarten, 36 Singleton Drive,ENDEAVOUR HILLS,3802,VIC,CASEY CITY
Hartnett House Children's Centre,123 Albion Street,BRUNSWICK,3056,VIC,MORELAND CITY
Hassett Street Kindergarten,9 Hassett Street,LEONGATHA,3953,VIC,SOUTH GIPPSLAND SHIRE
Hastings Child Care Centre,27 King Street,HASTINGS,3915,VIC,MORNINGTON PENINSULA SHIRE
Hastings Kindergarten,17 Marine Parade,HASTINGS,3915,VIC,MORNINGTON PENINSULA SHIRE
Havilah Road Preschool,22-24 Havilah Road,LONG GULLY,3550,VIC,GREATER BENDIGO CITY
Hawkesdale and District Family Services Centre, Mitchell Street,HAWKESDALE,3287,VIC,MOYNE SHIRE
Hawthorn Early Years,586 Glenferrie Road,HAWTHORN,3122,VIC,BOROONDARA CITY
Headstart Early Learning Centre Geelong,53-57 Church Street,GEELONG WEST,3218,VIC,GREATER GEELONG CITY
Heathcote Preschool, Cnr Herriot St & Camp St,HEATHCOTE,3523,VIC,GREATER BENDIGO CITY
Heathdale Christian College Early Learning Centre,175 Derrimut Road,WERRIBEE,3030,VIC,WYNDHAM CITY
Heathdale Kindergarten Inc,55 Kookaburra Avenue,WERRIBEE,3030,VIC,WYNDHAM CITY
Heatherdale Preschool,12 Purches Street,MITCHAM,3132,VIC,WHITEHORSE CITY
Heatherhill Kindergarten,101 Noble Street,NOBLE PARK,3174,VIC,GREATER DANDENONG CITY
Heathmont East Kindergarten,Lot 4a Pleasant Drive,HEATHMONT,3135,VIC,MAROONDAH CITY
Heathmont Kindergarten,41 Viviani Crescent,HEATHMONT EAST,3135,VIC,MAROONDAH CITY
Heidelberg Preschool, Orient Place,HEIDELBERG,3084,VIC,BANYULE CITY
Helen Jessen Early Learning Centre,145 Crook Street,BENDIGO,3550,VIC,GREATER BENDIGO CITY
Helen M Kininmonth Kindergarten,28 Hesse Street,WINCHELSEA,3241,VIC,SURF COAST SHIRE
Helen Paul Kindergarten,33 Kingston Street,HAMPTON,3188,VIC,BAYSIDE CITY
Helm Street Preschool,13 Helm Street,KANGAROO FLAT,3555,VIC,GREATER BENDIGO CITY
Henry Family Children's Centre,145 Henry St,PAKENHAM,3810,VIC,CARDINIA SHIRE
Hepburn Kindergarten,2 Golf Links Road,HEPBURN SPRINGS,3461,VIC,HEPBURN SHIRE
Heritage Preschool,2 Bakers Road,DANDENONG NORTH,3175,VIC,GREATER DANDENONG CITY
Herne Hill K-6 Early Learning Centre,194-200 Church Street,GEELONG NORTH,3215,VIC,GREATER GEELONG CITY
Hewish Road Child Care Centre,78 Hewish Road,CROYDON,3136,VIC,MAROONDAH CITY
Heyfield Kindergarten,3 Gordon Street,HEYFIELD,3858,VIC,WELLINGTON SHIRE
Heywood Kindergarten,24 Hunter Street,HEYWOOD,3304,VIC,GLENELG SHIRE
High Flyers Child Care Centre,4-6 Clarke Road,SPRINGVALE,3171,VIC,GREATER DANDENONG CITY
High Street Early Learning Centre,349 High Street,PRAHRAN,3181,VIC,STONNINGTON CITY
Highett Kindergarten,3 Station Street,HIGHETT,3190,VIC,KINGSTON CITY
Highgate Early Childhood Centre,3 Highgate Grove,ASHBURTON,3147,VIC,BOROONDARA CITY
Highmount Kindergarten,36 Lechte Road,MOUNT WAVERLEY,3149,VIC,MONASH CITY
Highpoint Kinder Haven, 2A Mephan Street,MARIBYRNONG,3032,VIC,MARIBYRNONG CITY
Highton Preschool Centre,257 Roslyn Road,HIGHTON,3216,VIC,GREATER GEELONG CITY
Highvale Kindergarten,56 Campbell Street,GLEN WAVERLEY,3150,VIC,MONASH CITY
Hillcrest Early Learning Centre,500 Soldiers Road,CLYDE,3978,VIC,CASEY CITY
Hillside Educational Childcare Services,73 John Paul Drive,HILLSIDE,3037,VIC,MELTON SHIRE
Hillsmeade Primary School ELC - Narre Warren South, The Promenade,NARRE WARREN SOUTH,3805,VIC,CASEY CITY
Hobsons Bay Children's Centre,140-144 Central Avenue,ALTONA MEADOWS,3028,VIC,HOBSONS BAY CITY
Hobsons Bay Kindergarten (formerly West Newport), Cnr Laurie St & Woods St,NEWPORT,3015,VIC,HOBSONS BAY CITY
Holbury Children's Centre,29 Raleigh Street,BLACKBURN SOUTH,3130,VIC,WHITEHORSE CITY
Hollins Children's Centre,10 Atlantic Drive,PAKENHAM,3810,VIC,CARDINIA SHIRE
Holy Trinity Anglican Kindergarten,8 Thomas Street,HAMPTON,3188,VIC,BAYSIDE CITY
Home Road Kindergarten,44 Home Road,NEWPORT,3015,VIC,HOBSONS BAY CITY
Homegarth Community Kindergarten, 9a Dunbarton Drive,PAKENHAM,3810,VIC,CARDINIA SHIRE
Homestead Child & Family Centre, Homestead Run,ROXBURGH PARK,3064,VIC,HUME CITY
Honey Beez Early Learning Centre,27 Myrtle Street,BAYSWATER,3153,VIC,KNOX CITY
Honeybee Child Care Centre - Essendon,138 Hoffmans Road,ESSENDON,3040,VIC,MOONEE VALLEY CITY
Honeybee Childcare Centre - Hillside,4 The Parks,HILLSIDE,3037,VIC,MELTON SHIRE
Hope Early Learning Centre,83-83A Dandenong Rd East,FRANKSTON,3199,VIC,FRANKSTON CITY
Hope Early Learning Centre,560 Station Street,CARRUM,3197,VIC,KINGSTON CITY
Hopetoun Children's Centre,220 Racecourse Road,FLEMINGTON,3031,VIC,MOONEE VALLEY CITY
Hopetoun Preschool,87 Mandeville Street,HOPETOUN,3396,VIC,YARRIAMBIACK SHIRE
Hornbrook Childrens Centre,47 Earl Street,WINDSOR,3181,VIC,STONNINGTON CITY
Horsham Community Child Care Centre,9 Roberts Avenue,HORSHAM,3400,VIC,HORSHAM RURAL CITY
Horsham North Kindergarten,13 Robin Street,HORSHAM,3400,VIC,HORSHAM RURAL CITY
Hotham Hub Children's Centre,113 Melrose Street,NORTH MELBOURNE,3051,VIC,MELBOURNE CITY
Hothlyn Drive Children's Centre,144 Hothlyn Drive,CRAIGIEBURN,3064,VIC,HUME CITY
Hughesdale Kindergarten, 10 Freda Street,HUGHESDALE,3166,VIC,MONASH CITY
Hunt Club Children's Centre,40 Broad Oak Drive,CRANBOURNE,3977,VIC,CASEY CITY
Huntingtower Pre-Prep,77 Waimarie Drive,MOUNT WAVERLEY,3149,VIC,MONASH CITY
Huntly Preschool, Cnr Greene St & Stephenson St,HUNTLY,3551,VIC,GREATER BENDIGO CITY
Hurlingham Park Preschool,1 Palmer Avenue,BRIGHTON EAST,3187,VIC,BAYSIDE CITY
Hurstbridge Preschool,8 Graysharps Road,HURSTBRIDGE,3099,VIC,NILLUMBIK SHIRE
Hyde Street Kindergarten,10A Hyde Street,SEDDON,3011,VIC,MARIBYRNONG CITY
Hyland Community Kindergarten,114 Market Street,SALE,3850,VIC,WELLINGTON SHIRE
Indra Preschool,38 Edinburgh Road,BLACKBURN SOUTH,3130,VIC,WHITEHORSE CITY
Inglewood Kindergarten,75A Grant Street,INGLEWOOD,3517,VIC,LODDON SHIRE
Inkerman Street Children's Centre,123-125 Inkerman Street,MARYBOROUGH,3465,VIC,CENTRAL GOLDFIELDS SHIRE
Interlaken Kindergarten,19 Interlaken Parade,ROSANNA,3084,VIC,BANYULE CITY
Inverleigh Kindergarten,23 Dundas Street,INVERLEIGH,3321,VIC,GOLDEN PLAINS SHIRE
Inverloch Kindergarten,2 Edgar Street,INVERLOCH,3996,VIC,BASS COAST SHIRE
Iramoo Kindergarten, Honour Avenue,WERRIBEE,3030,VIC,WYNDHAM CITY
Iris Ramsay Kindergarten,105-107 Lonsdale Street,BALLARAT,3350,VIC,BALLARAT CITY
Irymple Kindergarten, Casuarina Crescent,IRYMPLE,3498,VIC,MILDURA RURAL CITY
Isabel Henderson Kindergarten,259 Rae Street,FITZROY NORTH,3068,VIC,YARRA CITY
Isabel Pearce Kindergarten, Central Avenue,SHEPPARTON EAST,3631,VIC,GREATER SHEPPARTON CITY
Ivanhoe Children's Community Co-op,58 Livingstone Street,IVANHOE,3079,VIC,BANYULE CITY
Ivanhoe Girls' Grammar Early Learning Centre,18 Noel Street,IVANHOE,3079,VIC,BANYULE CITY
Ivanhoe Grammar Early Learning Centre,22 The Ridgeway,IVANHOE,3079,VIC,BANYULE CITY
Ivanhoe Uniting Church Kindergarten - BUC, 15 Seddon Street,IVANHOE,3079,VIC,BANYULE CITY
Ivy Ferguson Kindergarten,4 Montgomery Street,DONCASTER EAST,3109,VIC,MANNINGHAM CITY
J J Mcmahon Memorial Kindergarten,16A Argyle Road,KEW,3101,VIC,BOROONDARA CITY
J S Grey Reserve Kindergarten,121 Regent Street,PRESTON WEST,3072,VIC,DAREBIN CITY
Jacaranda Preschool - Kingsway Drive,118 Kingsway Drive,LALOR,3075,VIC,WHITTLESEA CITY
Jacaranda Preschool - Nebel Street,34 Nebel Street,LALOR,3075,VIC,WHITTLESEA CITY
Jack & Jill Kindergarten,19 Robson Lane,ARARAT,3377,VIC,ARARAT RURAL CITY
Jack & Jill Kindergarten,26 Grandview Avenue,BEAUMARIS,3193,VIC,BAYSIDE CITY
Jacks Avenue Kindergarten,67 Jacks Avenue,DINGLEY VILLAGE,3172,VIC,KINGSTON CITY
James Cook Kindergarten,55 - 63 James Cook Drive,ENDEAVOUR HILLS,3802,VIC,CASEY CITY
James Tilson Kindergarten,58-60 Burke Street,WANGARATTA,3677,VIC,WANGARATTA RURAL CITY
Jamieson Court Preschool,16 Jamieson Court,WODONGA,3690,VIC,WODONGA RURAL CITY
Jamieson Way Community Centre - Kindergarten, 59 Jamieson Way,POINT COOK,3030,VIC,WYNDHAM CITY
Janet Mundy Kindergarten,6 Fern Street,BLACK ROCK,3193,VIC,BAYSIDE CITY
Jaycee Kindergarten,68 Wellington Road,PORTLAND,3305,VIC,GLENELG SHIRE
Jeanette Loughridge Memorial Kindergarten, 60 Corinella Road,CORINELLA,3984,VIC,BASS COAST SHIRE
Jells Park Kindergarten,37 Petronella Avenue,WHEELERS HILL,3150,VIC,MONASH CITY
Jenny's Early Learning Centre - Strathfieldsaye,38 Regent Street,STRATHFIELDSAYE,3551,VIC,GREATER BENDIGO CITY
Jenny's Kindergarten - Epsom,134 Ironstone Road,EPSOM,3551,VIC,GREATER BENDIGO CITY
Jenny's Kindergarten Maiden Gully,26 Glenelg Drive,MAIDEN GULLY,3551,VIC,GREATER BENDIGO CITY
Jeparit Kindergarten,9-11 Hindmarsh Street,JEPARIT,3423,VIC,HINDMARSH SHIRE
Jigsaw Child Care,185 Phoenix Street,SUNSHINE,3020,VIC,BRIMBANK CITY
Jindalee Kindergarten,20-40 Amberly Park Drive,NARRE WARREN,3805,VIC,CASEY CITY
Jindi Woraback Children's Centre, Willis Street,ST ALBANS,3021,VIC,BRIMBANK CITY
John Mackenzie Kindergarten,603 Toorak Road,TOORAK,3142,VIC,STONNINGTON CITY
John Street Community Early Childhood Co-operative,23 John Street,FITZROY,3065,VIC,YARRA CITY
Johnson and Friends Child Care Centre,779 Burwood Highway,FERNTREE GULLY,3156,VIC,KNOX CITY
Jolly Jumbucks Child Care Emerald,267-271  Belgrave-Gembrook Road,EMERALD,3782,VIC,CARDINIA SHIRE
Jolly Jumbucks Child Care Langwarrin,1 Veronica Street,LANGWARRIN,3910,VIC,FRANKSTON CITY
Joseph Avenue Early Learning Centre,9 Joseph Avenue,MOORABBIN,3189,VIC,KINGSTON CITY
Joy Avenue Kindergarten, Joy Avenue,MOUNT EVELYN,3796,VIC,YARRA RANGES SHIRE
Joybelle Child Care Centre,1346 Sydney Road,FAWKNER,3060,VIC,MORELAND CITY
Joyce Avenue Children's Centre,1 Joyce Avenue,GREENSBOROUGH,3088,VIC,BANYULE CITY
Jubilee Park Child Care and Kindergarten,20 Reservoir Road,FRANKSTON,3199,VIC,FRANKSTON CITY
Jumping Jacks Early Learning Centre & Kindergarten,132 Collins Street,MENTONE,3194,VIC,KINGSTON CITY
K 4 Kidz Child Care,412 Lawrence Street,WODONGA,3690,VIC,WODONGA RURAL CITY
K.P. Kindergarten - Dole Ave Campus,2 Dole Avenue,KEON PARK,3073,VIC,DAREBIN CITY
Kalbarri Kindergarten,11 Mitchell Crescent,PORTLAND,3305,VIC,GLENELG SHIRE
Kalker Montessori Centre,1-3 Estelle Street,BULLEEN,3105,VIC,MANNINGHAM CITY
Kallista Kindergarten, Tom Roberts Road,KALLISTA,3791,VIC,YARRA RANGES SHIRE
Kananook Preschool,6 Buna Avenue,SEAFORD,3198,VIC,FRANKSTON CITY
Kangan Institute Children's Centre, Pearcedale Parade,BROADMEADOWS,3047,VIC,HUME CITY
Kangaroo Flat Preschool,1 Carpenter Street,KANGAROO FLAT,3555,VIC,GREATER BENDIGO CITY
Kangaroo Ground Preschool Inc,20 Graham Road,KANGAROO GROUND,3097,VIC,NILLUMBIK SHIRE
Kaniva Kindergarten,23 Baker Street,KANIVA,3419,VIC,WEST WIMMERA SHIRE
Kanooka Child Care Centre,29-31 Kanooka Grove,CLAYTON,3168,VIC,MONASH CITY
Kardinia International College Kindergarten,29-31 Kardinia Drive,BELL POST HILL,3215,VIC,GREATER GEELONG CITY
Kardinia Kids Early Learning & Care,5-31 Anakie Road,BELL POST HILL,3215,VIC,GREATER GEELONG CITY
Karingal East Kindergarten,12 Havana Crescent,FRANKSTON,3199,VIC,FRANKSTON CITY
Karingal PLACE Kindergarten,103 Ashleigh Avenue,FRANKSTON,3199,VIC,FRANKSTON CITY
Karobran Kindergarten,64 Spring Drive,HOPPERS CROSSING,3029,VIC,WYNDHAM CITY
Katamatite and District Multipurpose Children's Centre,7 Brahe Street,KATAMATITE,3649,VIC,MOIRA SHIRE
Katandra West Early Childhood Centre, Bankin Street,KATANDRA WEST,3634,VIC,GREATER SHEPPARTON CITY
Kath Foley Childrens Centre & Kindergarten Inc,203 Dawson Street,SALE,3850,VIC,WELLINGTON SHIRE
Kathleen Kelly Kindergarten,45 Lemon Avenue,MILDURA,3500,VIC,MILDURA RURAL CITY
Kathleen Millikan Centre,1 Jackson Street,CASTERTON,3311,VIC,GLENELG SHIRE
Katrina Preschool,69 Katrina Street,BLACKBURN NORTH,3130,VIC,WHITEHORSE CITY
Kay Street Kindergarten,61 Kay Street,TRARALGON,3844,VIC,LATROBE CITY
Kealba Kindergarten,24 McShane Drive,KEALBA,3021,VIC,BRIMBANK CITY
Keilor Downs Kindergarten, Antwerp Drive,KEILOR DOWNS,3038,VIC,BRIMBANK CITY
Keilor East Kindergarten,31 Mark Street,KEILOR EAST,3033,VIC,MOONEE VALLEY CITY
Keilor Gatehouse, Paramatta Road,KEILOR,3036,VIC,BRIMBANK CITY
Keilor Park Preschool, Thea Court,KEILOR PARK,3042,VIC,BRIMBANK CITY
Keilor Village Preschool, Cnr Kennedy St & Old Calder Hwy,KEILOR,3036,VIC,BRIMBANK CITY
Kellbourne Heights Kindergarten & Child Care Centre,197-199 Murrindal Drive,ROWVILLE,3178,VIC,KNOX CITY
Kellie O'Connell Kindergarten,125 Ridgeway Parade,ARDEER,3022,VIC,BRIMBANK CITY
Kennington Preschool,17 Crook Street,BENDIGO,3550,VIC,GREATER BENDIGO CITY
Kensington Community Childrens Centre,81B Altona Street,KENSINGTON,3031,VIC,MELBOURNE CITY
Kent Road Uniting Church Preschool, Kent Road,PASCOE VALE,3044,VIC,MORELAND CITY
Keon Park Kindergarten,75 Arundel Avenue,KEON PARK,3073,VIC,DAREBIN CITY
Kew Kids Early Learning Centre,8-12  Woodlands Avenue,KEW EAST,3102,VIC,BOROONDARA CITY
Keysborough Community Children's Centre,364 Cheltenham Road,KEYSBOROUGH,3173,VIC,GREATER DANDENONG CITY
Kialla Children's Centre, Reserve Street,KIALLA,3631,VIC,GREATER SHEPPARTON CITY
Kiddie Kare,122 Graham Street,SHEPPARTON,3630,VIC,GREATER SHEPPARTON CITY
Kidding Around Childcare and Kindergarten,36-38 Grimwade Crescent,FRANKSTON,3199,VIC,FRANKSTON CITY
Kiddy Palace Learning Centre,134-136 McDonalds Road,EPPING,3076,VIC,WHITTLESEA CITY
Kiddy Palace Learning Centre,2 Schotters Road,MERNDA,3754,VIC,WHITTLESEA CITY
Kids by the Bay Children's Centre,70 Hanmer Street,WILLIAMSTOWN,3016,VIC,HOBSONS BAY CITY
Kids Choice Ann Street,21 Ann Street,MOOROOPNA,3629,VIC,GREATER SHEPPARTON CITY
Kids Club Torquay, Attunga Drive,TORQUAY,3228,VIC,SURF COAST SHIRE
Kids Company - Beaumaris,206 Tramway Parade,BEAUMARIS,3193,VIC,BAYSIDE CITY
Kids Company - Cheltenham,1a Bernard Street,CHELTENHAM,3192,VIC,KINGSTON CITY
Kids Company - Sandringham,139 Bay Road,SANDRINGHAM,3191,VIC,BAYSIDE CITY
Kids on Campus,15 McKoy Street,WODONGA,3690,VIC,WODONGA RURAL CITY
Kids on Collins,600 Collins Street,MELBOURNE,3000,VIC,MELBOURNE CITY
Kids on Gallaghers Child Care Centre,254 Gallaghers Road,GLEN WAVERLEY,3150,VIC,MONASH CITY
Kids on Queens Parade Childcare Centre,476 Queens Parade,FITZROY NORTH,3068,VIC,YARRA CITY
Kids on the Avenue Children's Centre,32 The Avenue,MORELAND,3058,VIC,MORELAND CITY
Kids on the Rise,11 - 17 Frankie Way,POINT COOK,3030,VIC,WYNDHAM CITY
Kids on Tulip, 111 Tulip Street,SANDRINGHAM,3191,VIC,BAYSIDE CITY
Kids Paradise Childcare Pty Ltd,2-6 Fulmar Street,CARRUM DOWNS,3201,VIC,FRANKSTON CITY
Kids Paradise Long Street,1  Long Street,LANGWARRIN,3910,VIC,FRANKSTON CITY
Kids Resort Early Learning Centre,88 Greg Norman Drive,SANCTUARY LAKES,3030,VIC,WYNDHAM CITY
Kids Retreat,890 Old Calder Highway,KEILOR,3036,VIC,BRIMBANK CITY
Kids Time Early Learning Centre,236 East Boundary Road,BENTLEIGH EAST,3165,VIC,GLEN EIRA CITY
Kids Time Early Learning Centre,488 South Road,MOORABBIN,3189,VIC,KINGSTON CITY
Kids World Child Care Centre,14-16 Walls Road,WERRIBEE,3030,VIC,WYNDHAM CITY
Kidz R Kidz Early Learning Centre,30 Stirling Avenue,CRANBOURNE,3977,VIC,CASEY CITY
Kidzplay on Highbury,514 Highbury Road,GLEN WAVERLEY,3150,VIC,MONASH CITY
Killeen Street Child Care Centre,23 Killeen Street,SUNSHINE,3020,VIC,BRIMBANK CITY
Kilmore Child Care Centre,22 White Street,KILMORE,3764,VIC,MITCHELL SHIRE
Kilmore Family Centre,4 White St,KILMORE,3764,VIC,MITCHELL SHIRE
Kilsyth Kids Educare Centre,26 Liverpool Road,KILSYTH,3137,VIC,YARRA RANGES SHIRE
Kilvington Early Learning,2 Leila Rd,ORMOND,3163,VIC,GLEN EIRA CITY
Kimmba Bilingual Early Learning Centre,2 Balston Street,ST KILDA,3182,VIC,PORT PHILLIP CITY
Kindaland Childcare,51 Gladstone Parade,GLENROY,3046,VIC,MORELAND CITY
Kinderclub,35 Crimea Street,ST KILDA,3182,VIC,PORT PHILLIP CITY
King David School Holdings Ltd,117 Kooyong Road,ARMADALE,3143,VIC,STONNINGTON CITY
KingKids Early Learning Centre & Kindergarten,61-67 Golf Links Road,BERWICK,3806,VIC,CASEY CITY
Kinglake Ranges Children's Centre,69 Exton's Rd,KINGLAKE CENTRAL,3757,VIC,MURRINDINDI SHIRE
Kings College Preschool,44 Balmoral Road,WARRNAMBOOL,3280,VIC,WARRNAMBOOL CITY
Kings Park Kindergarten,24 Maplewood Road,KINGS PARK,3021,VIC,BRIMBANK CITY
Kingston Kids Preschool & Child Care Centre,62-64 Warren Road,MORDIALLOC,3195,VIC,KINGSTON CITY
Kingsville Kindergarten,35 A Roberts Street,WEST FOOTSCRAY,3012,VIC,MARIBYRNONG CITY
Kingsway Preschool,1 Kingsway,MELTON,3337,VIC,MELTON SHIRE
Kingswood College Early Learning Centre,355 Station Street,BOX HILL,3128,VIC,WHITEHORSE CITY
Kirralee Kindergarten,53 Richard Street,NEWCOMB,3219,VIC,GREATER GEELONG CITY
Knaith Road Child Care Centre, Knaith Road,RINGWOOD EAST,3135,VIC,MAROONDAH CITY
Knight Street Preschool & Child Care Centre,164 Knight Street,SHEPPARTON,3630,VIC,GREATER SHEPPARTON CITY
Knox Childcare and Kindergarten,17 Old Orchard Drive,WANTIRNA SOUTH,3152,VIC,KNOX CITY
Knox Gardens Kindergarten,81 Argyle Way,WANTIRNA SOUTH,3152,VIC,KNOX CITY
Knoxfield Kindergarten, 81 Anne Road,KNOXFIELD,3180,VIC,KNOX CITY
Koala Childcare & Early Learning Centre,160 Anderson Creek Road,DONCASTER EAST,3109,VIC,MANNINGHAM CITY
Koala Childcare and Early Learning Centre - Mt Waverley,11 Marianne Way,MOUNT WAVERLEY,3149,VIC,MONASH CITY
Koo Wee Rup Preschool,356 Rossiter Road,KOO WEE RUP,3981,VIC,CARDINIA SHIRE
Kookaburra Kindergarten - BUC,34 George Street,RESERVOIR,3073,VIC,DAREBIN CITY
Kool Kidz on Taylors,2 Bernard Hamilton Way,ROWVILLE,3178,VIC,KNOX CITY
Kool Kidz On Wellington,10 Gearon Avenue,ROWVILLE,3178,VIC,KNOX CITY
Koolyangarra Kindergarten, Church Street,BAYSWATER,3153,VIC,KNOX CITY
Koondrook Preschool,9 Punt Road,KOONDROOK,3580,VIC,GANNAWARRA SHIRE
Koori First Steps Preschool,44 Trudewind Road,WODONGA,3690,VIC,WODONGA RURAL CITY
Kororoit Creek Kindergarten,130 Tenterfield Drive,BURNSIDE HEIGHTS,3023,VIC,MELTON SHIRE
Korowa AGS Early Learning Centre for 3 and 4 Year Olds, Ranfurlie Crescent,GLEN IRIS,3146,VIC,STONNINGTON CITY
Korumburra Kindergarten,4 Victoria Street,KORUMBURRA,3950,VIC,SOUTH GIPPSLAND SHIRE
Kunawaa Childcare,50 Chapman Street,SWAN HILL,3585,VIC,SWAN HILL RURAL CITY
Kunyung Preschool,44 Barmah Street,MOUNT ELIZA,3930,VIC,MORNINGTON PENINSULA SHIRE
Kurboroo Kindergarten,75 Bemboka Road,WARRANWOOD,3134,VIC,MAROONDAH CITY
Kyabram Municipal Preschool, 148B Fenaughty Street,KYABRAM,3620,VIC,CAMPASPE SHIRE
La Trobe University Community Children's Centre,3086 Plenty Road,BUNDOORA,3083,VIC,DAREBIN CITY
Lady Brooks Kindergarten,5 Hutton Street,KYNETON,3444,VIC,MACEDON RANGES SHIRE
Lady Forster Kindergarten,63 B Ormond Esplanade,ELWOOD,3184,VIC,PORT PHILLIP CITY
Lady Gowrie Child Centre,36 Newry Street,CARLTON NORTH,3054,VIC,YARRA CITY
Lady Gowrie Child Centre (Melb) Inc,1 Seafarer Lane,DOCKLANDS,3008,VIC,MELBOURNE CITY
Lady Huntingfield Childrens Centre,87-93 Haines Street,NORTH MELBOURNE,3051,VIC,MELBOURNE CITY
Lady Nelson Early Learning and Child Care Centre,89 Lady Nelson Way,KEILOR DOWNS,3038,VIC,BRIMBANK CITY
Ladybug Early Learning Centre,469 Mt Dandenong Road,KILSYTH,3137,VIC,MAROONDAH CITY
Laharum Preschool,1574 North Grampians Road,LAHARUM,3401,VIC,HORSHAM RURAL CITY
Lake Boga Preschool, Lalbert Road,LAKE BOGA,3584,VIC,SWAN HILL RURAL CITY
Lake Bolac & District Kindergarten,1 Montgomery Street,LAKE BOLAC,3351,VIC,ARARAT RURAL CITY
Lake Park Kindergarten, 20a Carr Street,COBURG NORTH,3058,VIC,MORELAND CITY
Lake View Children's Centre, Lakeside Avenue,MOUNT BEAUTY,3699,VIC,ALPINE SHIRE
Lakes Entrance Kindergarten,49A Coates Road,LAKES ENTRANCE,3909,VIC,EAST GIPPSLAND SHIRE
Lakes Entrance Learning and Development Centre,45 Coates Road,LAKES ENTRANCE,3909,VIC,EAST GIPPSLAND SHIRE
Lakeside Children's Centre, 2 Olympic Way,PAKENHAM,3810,VIC,CARDINIA SHIRE
Lakeview Kindergarten & Childcare,24 Lakeview Drive,LILYDALE,3140,VIC,YARRA RANGES SHIRE
Lakewood Child Care & Kindergarten,35 Lakewood Drive,KNOXFIELD,3180,VIC,KNOX CITY
Lalor East Preschool,186 Darebin Drive,LALOR,3075,VIC,WHITTLESEA CITY
Lancaster & Frank Hartley House Child Care Centre,698-700 Malvern Road,PRAHRAN,3181,VIC,STONNINGTON CITY
Lancaster Preschool,31 Lancaster Road,MOOROOLBARK,3138,VIC,YARRA RANGES SHIRE
Lancefield Early Education Centre,2 Gwen Place,LANCEFIELD,3435,VIC,MACEDON RANGES SHIRE
Lancefield Kindergarten,16 Dunsford Street,LANCEFIELD,3435,VIC,MACEDON RANGES SHIRE
Lang Lang Preschool,3 Whitstable Street,LANG LANG,3984,VIC,CARDINIA SHIRE
Langwarrin Park Preschool,29 R Burgess Drive,LANGWARRIN,3910,VIC,FRANKSTON CITY
Langwarrin Preschool,6 Long Street,LANGWARRIN,3910,VIC,FRANKSTON CITY
Lara Kindergarten,5 Waverley Road,LARA,3212,VIC,GREATER GEELONG CITY
Lara Lake Community Preschool,25-31 Darcy Street,LARA,3212,VIC,GREATER GEELONG CITY
Larch St Kindergarten,16 Larch Street,BLACKBURN NORTH,3130,VIC,WHITEHORSE CITY
Launching Place Preschool, Mathers Avenue,LAUNCHING PLACE,3139,VIC,YARRA RANGES SHIRE
Laurimar Child Care and Early Learning,35 Flaxen Hills Road,DOREEN,3754,VIC,WHITTLESEA CITY
Laurimar Kindergarten,110 Hazelglen Drive,DOREEN,3754,VIC,WHITTLESEA CITY
Lauriston Kindergarten (1),1062-1070 Malvern Road,ARMADALE,3143,VIC,STONNINGTON CITY
Lavers Hill and District Preschool, Great Ocean Road,LAVERS HILL,3238,VIC,COLAC-OTWAY SHIRE
Laverton Community Children's Centre,15 Crown Street,LAVERTON,3028,VIC,HOBSONS BAY CITY
Learmonth Street Preschool,49 Learmonth Street,SUNBURY,3429,VIC,HUME CITY
Legend Park Kindergarten,56 King Arthur Drive,GLEN WAVERLEY,3150,VIC,MONASH CITY
Leitchville Preschool Play Centre,2 Kitchener Street,LEITCHVILLE,3567,VIC,GANNAWARRA SHIRE
Lemon Tree Children's Centre,2-10 Grattan Street,CARLTON,3053,VIC,MELBOURNE CITY
Len Jeffrey Memorial Kindergarten,102 Colby Drive,BELGRAVE SOUTH,3160,VIC,YARRA RANGES SHIRE
Leongatha Children's Centre,3 Symmons Street,LEONGATHA,3953,VIC,SOUTH GIPPSLAND SHIRE
Leopold Kindergarten & Children's Playgroup,29 Kanimbla Avenue,LEOPOLD,3224,VIC,GREATER GEELONG CITY
Leopold World of Learning,31-33 Melaluka Road,LEOPOLD,3224,VIC,GREATER GEELONG CITY
Lerderderg Children's Centre, Cnr Nelson & Albert Streets,DARLEY,3340,VIC,MOORABOOL SHIRE
Leslie Gribble Children's Centre,9-13 Westmorland Crescent,SHEPPARTON,3630,VIC,GREATER SHEPPARTON CITY
Leslie Moorhead Preschool Centre, Cromwell St,MORNINGTON,3931,VIC,MORNINGTON PENINSULA SHIRE
Less than 15 hours - Lighthouse Early Learning Centre,927-937 Springvale Road,KEYSBOROUGH,3173,VIC,GREATER DANDENONG CITY
Less than 15 hours - Neale Street North Preschool,7 Neale Street,BENDIGO,3550,VIC,GREATER BENDIGO CITY
Less than 15 hours - Neangar (Eaglehawk) Preschool, 25 Watson Avenue,CALIFORNIA GULLY,3556,VIC,GREATER BENDIGO CITY
Less than 15 hours - Pakenham Heights Kindergarten,3 Irving Road,PAKENHAM,3810,VIC,CARDINIA SHIRE
Less than 15 hours - Pakenham Kindergarten,27 Main Street,PAKENHAM,3810,VIC,CARDINIA SHIRE
Less than 15 hours - Pakenham Springs Children's Centre, Cnr Livingstone Boulevard and Heritage Boulevard,PAKENHAM,3810,VIC,CARDINIA SHIRE
Less than 15 Hours - Pentland Childcare & Kindergarten Centre,138-140 Halletts Way,BACCHUS MARSH,3340,VIC,MOORABOOL SHIRE
Less than 15 hours - Poets Grove Family and Children's Services Centre,18 Poets Grove,ELWOOD,3184,VIC,PORT PHILLIP CITY
Less than 15 hours - Point Cook Community Learning Centre Kindergarten, 1 - 21 Cheetham Street,POINT COOK,3030,VIC,WYNDHAM CITY
Less than 15 hours - Quantin Binnah Community Centre,61 Thames Boulevard,WERRIBEE,3030,VIC,WYNDHAM CITY
Less than 15 hours - Roberts Avenue Kindergarten,23 Roberts Avenue,HORSHAM,3400,VIC,HORSHAM RURAL CITY
Less than 15 hours - South Bendigo Kindergarten,23 Somerville Street,BENDIGO SOUTH,3550,VIC,GREATER BENDIGO CITY
Less than 15 hours - Spring Gully Kindergarten,131 Spring Gully Road,SPRING GULLY,3550,VIC,GREATER BENDIGO CITY
Less than 15 hours - Springside Kindergarten, Becca Way,CAROLINE SPRINGS,3023,VIC,MELTON SHIRE
Less than 15 hours - St Andrew's Kindergarten,1 Gipps Street,YARRAM,3971,VIC,WELLINGTON SHIRE
Less than 15 hours - St Kilda & Balaclava Kindergarten,23 Nelson Street,BALACLAVA,3183,VIC,PORT PHILLIP CITY
Less than 15 hours - St Kilda Steiner Pre-school,435 Inkerman Street,ST KILDA EAST,3183,VIC,GLEN EIRA CITY
Less than 15 hours - The Community Hub,11A Allambi Avenue,ROSEBUD,3939,VIC,MORNINGTON PENINSULA SHIRE
Less than 15 Hours - Trinity Grammar School Kindergarten,60 Wellington Street,KEW,3101,VIC,BOROONDARA CITY
Less than 15 hours - Waterfall Gully Preschool,325 Bayview Rd,ROSEBUD,3939,VIC,MORNINGTON PENINSULA SHIRE
Less than 15 hours - Westdale Kindergarten,99 Wallace Street,BAIRNSDALE,3875,VIC,EAST GIPPSLAND SHIRE
Less than 15 hours - White Hills Kindergarten,62 Raglan Street,WHITE HILLS,3550,VIC,GREATER BENDIGO CITY
Less than 15 hours - Whittlesea Preschool, 92 Church Street,WHITTLESEA,3757,VIC,WHITTLESEA CITY
Less than 15 hours - YMCA Craigieburn West Early Learning Centre and OSHC, Waterview Boulevard,CRAIGIEBURN,3064,VIC,HUME CITY
Less than 15 hours - YMCA Point Cook Early Learning Centre & YMCA Point Cook Outside School Hours Care, Cnr Tom Roberts Pde & Boardwalk Bvd,POINT COOK,3030,VIC,WYNDHAM CITY
Less than 15 hours - YMCA Taylors Hill Early Learning Centre & YMCA Taylors Hill Outside School Hours Care, 12 Park Lane,TAYLORS HILL,3037,VIC,MELTON SHIRE
"Less than 15 hours - YMCA Truganina South Early Learning Centre, YMCA Truganina South Outside School Hours Care", Federation Boulevard,TRUGANINA,3029,VIC,WYNDHAM CITY
Liberty Family Centre,77 Liberty Avenue,ROWVILLE,3178,VIC,KNOX CITY
Lightning Reef Early Learning Centre,74 Holmes Road,BENDIGO,3550,VIC,GREATER BENDIGO CITY
Lilian Cannam Kindergarten,97 Eastern Road,SOUTH MELBOURNE,3205,VIC,PORT PHILLIP CITY
Lilydale Little Feet Childcare & Kindergarten,18 Wilsons Lane,LILYDALE,3140,VIC,YARRA RANGES SHIRE
Lilydale North Preschool, Erldunda Court,LILYDALE,3140,VIC,YARRA RANGES SHIRE
Lilydale Preschool, Cnr Chapel St & Castella St,LILYDALE,3140,VIC,YARRA RANGES SHIRE
Lincolnville Preschool, Devon Avenue,KEILOR EAST,3033,VIC,MOONEE VALLEY CITY
Linda Brown Preschool,Lot 1 College Street,WENDOUREE,3355,VIC,BALLARAT CITY
Lindenow & District Kindergarten,152 Main Road,LINDENOW,3865,VIC,EAST GIPPSLAND SHIRE
Lions Hopkins Kindergarten,31 Gladstone Street,WARRNAMBOOL,3280,VIC,WARRNAMBOOL CITY
Lipscombe Park Kindergarten, Cnr Binbrook Dr & Sandgate Av,CROYDON,3136,VIC,MAROONDAH CITY
Lismore Preschool,57 William Street,LISMORE,3324,VIC,CORANGAMITE SHIRE
Little Acorns Childcare,231 Frankston-Flinders Road,FRANKSTON,3199,VIC,FRANKSTON CITY
Little Alberts Childcare Centre,166 Albert Avenue,BORONIA,3155,VIC,KNOX CITY
Little Assets - Melbourne City Early Learning Centre, Siddeley Street,MELBOURNE,3004,VIC,MELBOURNE CITY
Little Babe's Early Learning Centre,42 Kings Road,ST ALBANS,3021,VIC,BRIMBANK CITY
Little Beacons Learning Centre,30-34 Toomuc Valley Road,PAKENHAM,3810,VIC,CARDINIA SHIRE
Little Beginnings Early Learning Centre,574  Springvale Road,SPRINGVALE SOUTH,3172,VIC,GREATER DANDENONG CITY
Little Blossoms Child Care Centre,80 - 88 Ballan Road,WERRIBEE,3030,VIC,WYNDHAM CITY
Little Champs,97A - 101 Hargreaves Crescent,BRAYBROOK,3019,VIC,MARIBYRNONG CITY
Little Grasshoppers,309-311 Main Street,MORNINGTON,3931,VIC,MORNINGTON PENINSULA SHIRE
Little Grasshoppers,15 Parwan Crescent,MORNINGTON,3931,VIC,MORNINGTON PENINSULA SHIRE
Little Grasshoppers - Eramosa,70 Eramosa Road West,SOMERVILLE,3912,VIC,MORNINGTON PENINSULA SHIRE
Little Jazzys Child Care and Kindergarten,632 Mountain Highway,BAYSWATER,3153,VIC,KNOX CITY
Little Joey's Early Learning,4 Dorning Road,NARRE WARREN EAST,3804,VIC,YARRA RANGES SHIRE
Little Learner's Early Education,205 Gordons Road,SOUTH MORANG,3752,VIC,WHITTLESEA CITY
Little Learners ELC-Camberwell,675 Burke Road,CAMBERWELL,3124,VIC,BOROONDARA CITY
Little Munchkins Child Care Centre,6 Gourlay Road,HILLSIDE,3037,VIC,MELTON SHIRE
Little Paddington Child Care Centre and Kindergarten,412 Waverley Road,MALVERN EAST,3145,VIC,STONNINGTON CITY
Little Poppets Childcare, Cnr Trickey Av & Pecks Rd,SYDENHAM,3037,VIC,BRIMBANK CITY
Little Possums on Wattletree,81 Wattletree Road,MALVERN,3144,VIC,STONNINGTON CITY
Little Raskals Kindergarten & Child Care Centre,94 Springvale Road,NUNAWADING,3131,VIC,WHITEHORSE CITY
Little River Kindergarten, River Street,LITTLE RIVER,3211,VIC,WYNDHAM CITY
Little Saints Early Learning Centre,37 Princes Highway,PAKENHAM,3810,VIC,CARDINIA SHIRE
Little Saints Early Learning Centre - Moe,152 Narracan Drive,MOE,3825,VIC,LATROBE CITY
Little Scooters,1560 Main Road,RESEARCH,3095,VIC,NILLUMBIK SHIRE
Little Sophia Inc,35 Abbotsford Street,ABBOTSFORD,3067,VIC,YARRA CITY
Little St Margarets,29 Mayfield Avenue,MALVERN,3144,VIC,STONNINGTON CITY
Little Stars at Bourke Children's Centre,500 Bourke Street,MELBOURNE,3000,VIC,MELBOURNE CITY
Little Stars at Southern Cross," Level 3, 700 Bourke Street",DOCKLANDS,3008,VIC,MELBOURNE CITY
Little Starters Early Learning Centre,50 Brunnings Road,CARRUM DOWNS,3201,VIC,FRANKSTON CITY
Little Starters Early Learning Centre - Epping,20 Kalman Road,EPPING,3076,VIC,WHITTLESEA CITY
Little Tackers Early Learning Centre,34 Ellen McDonald Drive,BARANDUDA,3691,VIC,WODONGA RURAL CITY
Little Yarra Steiner Kindergarten,205 Little Yarra Road,YARRA JUNCTION,3797,VIC,YARRA RANGES SHIRE
Littlecroft Kindergarten,51 The Strand,NARRE WARREN,3805,VIC,CASEY CITY
Littleones Child Care Centre,2 Gibb Street,BERWICK,3806,VIC,CASEY CITY
Livingston Kindergarten, 1 Livingston Street,HIGHETT,3190,VIC,BAYSIDE CITY
Loch & District Preschool Centre,18 Smith Street,LOCH,3945,VIC,SOUTH GIPPSLAND SHIRE
Lockington Kindergarten,8 Burns Street,LOCKINGTON,3563,VIC,CAMPASPE SHIRE
Long Island Early Learning Centre,18  Overton Road,FRANKSTON,3199,VIC,FRANKSTON CITY
Longford Kindergarten,6-8 High Street,LONGFORD,3851,VIC,WELLINGTON SHIRE
Longwarry Kindergarten,4 Ford Place,LONGWARRY,3816,VIC,BAW BAW SHIRE
Lonsdale House Childcare,2 Old Geelong Road,POINT LONSDALE,3225,VIC,QUEENSCLIFFE BOROUGH
Lorne Kindergarten, Smith Street,LORNE,3232,VIC,SURF COAST SHIRE
Love Kids Early Learning Centre - Chadstone, 327-333 Huntingdale Road,CHADSTONE,3148,VIC,MONASH CITY
Love Kids Early Learning Centre - Mulgrave, 52-56 Wanda Street,MULGRAVE,3170,VIC,MONASH CITY
Lower Plenty Kindergarten,34 Glenauburn Rd,LOWER PLENTY,3093,VIC,BANYULE CITY
Lower Templestowe Preschool,107 Swanston Street,TEMPLESTOWE LOWER,3107,VIC,MANNINGHAM CITY
Lowther Hall Anglican Grammar School Kindergarten,17 Leslie Road,ESSENDON,3040,VIC,MOONEE VALLEY CITY
Lucknow Street Children's Services Centre,37 Lucknow Street,NUNAWADING,3131,VIC,WHITEHORSE CITY
Lulla's Children and Family Centre,44 Edward Street,SHEPPARTON,3630,VIC,GREATER SHEPPARTON CITY
Lynbrook Kindergarten,25i River Redgum Place,LYNBROOK,3975,VIC,CASEY CITY
Macarthur Kindergarten,21 Heckfield Street,MACARTHUR,3286,VIC,MOYNE SHIRE
Macedon Ranges Montessori Preschool,61 Main Road,RIDDELLS CREEK,3431,VIC,MACEDON RANGES SHIRE
Macleod Preschool Incorporated,5 Birdwood Avenue,MACLEOD,3085,VIC,BANYULE CITY
Maffra Queen Street Kindergarten & Occasional Care,21 Queen Street,MAFFRA,3860,VIC,WELLINGTON SHIRE
Mahogany Kindergarten,35 Hoddle Street,WARRNAMBOOL,3280,VIC,WARRNAMBOOL CITY
Mahogany Rise Child and Family Centre, Jenkins Street,FRANKSTON NORTH,3200,VIC,FRANKSTON CITY
Malcolm Creek Children's Centre, Grand Boulevard,CRAIGIEBURN,3064,VIC,HUME CITY
Maldon Preschool Centre,14 - 16 Camp Street,MALDON,3463,VIC,MOUNT ALEXANDER SHIRE
Malin Friends Nursery and Kindergarten,305 Barkers Road,KEW,3101,VIC,BOROONDARA CITY
Mallacoota Kindergarten,23 Greer Street,MALLACOOTA,3892,VIC,EAST GIPPSLAND SHIRE
Mallee Minors Child Care Centre - Murrayville, Cnr Francis St & Gray St,MURRAYVILLE,3512,VIC,MILDURA RURAL CITY
Mallee Minors Child Care Centre - Underbool,43 Cotter Street,UNDERBOOL,3509,VIC,MILDURA RURAL CITY
Malvern Early Learning and Child Care Centre,9 Llaneast Street,ARMADALE,3143,VIC,STONNINGTON CITY
Malvern Memorial Kindergarten,15 Orchard Street,ARMADALE,3143,VIC,STONNINGTON CITY
Manangatang & District Preschool, Sea Lake Road,MANANGATANG,3546,VIC,SWAN HILL RURAL CITY
Manchester Preschool,132 Manchester Road,MOOROOLBARK,3138,VIC,YARRA RANGES SHIRE
Manchester Road Early Learning Centre,14 Manchester Road,MOOROOLBARK,3138,VIC,YARRA RANGES SHIRE
Mansfield Kindergarten,64 Ailsa Street,MANSFIELD,3722,VIC,MANSFIELD SHIRE
Mansfield Rudolf Steiner School & Kindergarten,91 Highett Street,MANSFIELD,3722,VIC,MANSFIELD SHIRE
Mansfield Street Kindergarten,11 Mansfield Street,BERWICK,3806,VIC,CASEY CITY
Maple Street Early Learning,195 Whitehorse Road,BLACKBURN,3130,VIC,WHITEHORSE CITY
Maramba Kindergarten,2-8 Josephine Avenue,NARRE WARREN,3805,VIC,CASEY CITY
Maranatha Early Learning Centre - Cardinia,62 RIX ROAD,OFFICER,3809,VIC,CARDINIA SHIRE
Maranatha Early Learning Centre - Casey,123-127 KIDDS ROAD,DOVETON,3177,VIC,CASEY CITY
Marcus Road Kindergarten,37 Marcus Road,DINGLEY VILLAGE,3172,VIC,KINGSTON CITY
Maria Montessori Pre School & Early Learning Centre,42 Main Street,THOMASTOWN,3074,VIC,WHITTLESEA CITY
Maria Montessori Preschool, 751-755 Ferntree Gully Road,WHEELERS HILL,3150,VIC,MONASH CITY
Maribyrnong Kindergarten,5 Warrs Road,MARIBYRNONG,3032,VIC,MARIBYRNONG CITY
Maribyrnong River Children's Centre, Wests Road,MARIBYRNONG,3032,VIC,MARIBYRNONG CITY
Mariemont Preschool,9 Mariemont Avenue,WANTIRNA SOUTH,3152,VIC,KNOX CITY
Marong & District Preschool, 10 Adam Street,MARONG,3515,VIC,GREATER BENDIGO CITY
Maroondah Kids Early Learning Centre,109 Alto Avenue,CROYDON,3136,VIC,MAROONDAH CITY
Maroondah Kindergarten,16 Evon Avenue,RINGWOOD EAST,3135,VIC,MAROONDAH CITY
Marrang Kindergarten,87-89 D'arcy Street,STAWELL,3380,VIC,NORTHERN GRAMPIANS SHIRE
Marriott Waters Kindergarten,25 Boland Drive,LYNDHURST,3975,VIC,CASEY CITY
Mary Beck Kindergarten,8 Neerim East Road,NEERIM SOUTH,3831,VIC,BAW BAW SHIRE
Maryborough Avenue Kindergarten,14 Maryborough Avenue,KINGSBURY,3083,VIC,DAREBIN CITY
Mary's Little Lambs Early Learning Centre,27 Medway Street,BOX HILL NORTH,3129,VIC,WHITEHORSE CITY
Marysville and District Kindergarten Association Inc,15 Falls Rd,MARYSVILLE,3779,VIC,MURRINDINDI SHIRE
Maryvale Crescent Kindergarten,14 Maryvale Crescent,MORWELL,3840,VIC,LATROBE CITY
McCole Street Children's Centre,18 McCole Street,SALE,3850,VIC,WELLINGTON SHIRE
McEwen Drive Preschool,9 McEwen Drive,SUNBURY,3429,VIC,HUME CITY
McKenzie Street Children's Centre, 106-110 McKenzie Street,WONTHAGGI,3995,VIC,BASS COAST SHIRE
McKinnon Kindergarten,220 McKinnon Road,MCKINNON,3204,VIC,GLEN EIRA CITY
McLeans Road Kindergarten,151 McLeans Road,BUNDOORA,3083,VIC,WHITTLESEA CITY
Meadows Primary School Kindergarten, Gerbert Street,BROADMEADOWS,3047,VIC,HUME CITY
Meeniyan Preschool,95 Whitelaw Street,MEENIYAN,3956,VIC,SOUTH GIPPSLAND SHIRE
Melbourne City Childcare and Kindergarten,546 Collins Street,MELBOURNE,3000,VIC,MELBOURNE CITY
Melbourne Juniors,24 Sheila Street,PRESTON,3072,VIC,DAREBIN CITY
Melbourne Montessori School -  Brighton Campus,741 Hawthorn Road,BRIGHTON EAST,3187,VIC,BAYSIDE CITY
Melbourne Montessori School Caulfield Campus,3-6 Roselea Street,CAULFIELD SOUTH,3162,VIC,GLEN EIRA CITY
Melbourne Rudolf Steiner Kindergarten,213 Wonga Road,WARRANWOOD,3134,VIC,MAROONDAH CITY
Melbourne University Family Club,427 Cardigan Street,CARLTON,3053,VIC,MELBOURNE CITY
Mel's Angels,41 Cornwall Street,HALLAM,3803,VIC,CASEY CITY
Melton Central Preschool,237 Station Road,MELTON,3337,VIC,MELTON SHIRE
Melton Early Learning Kinders,31 - 33 Unitt Street,MELTON,3337,VIC,MELTON SHIRE
Melton Uniting Kindergarten, Yuille Street,MELTON,3337,VIC,MELTON SHIRE
Melton World of Learning,229-231  Station St,MELTON,3337,VIC,MELTON SHIRE
Mentone Girls Grammar Early Learning Centre,20 Mentone Parade,MENTONE,3194,VIC,KINGSTON CITY
Mentone Grammar School,71-73 Naples Road,MENTONE,3194,VIC,KINGSTON CITY
Mentone Park Child Care and Preschool,18 Acacia Avenue,MENTONE,3194,VIC,KINGSTON CITY
Mentone Preschool,6 Station Street,MENTONE,3194,VIC,KINGSTON CITY
Merbein Preschool Kindergarten, 18 O'Bryan Street,MERBEIN,3505,VIC,MILDURA RURAL CITY
Meredith Kindergarten,31 Staughton Street,MEREDITH,3333,VIC,GOLDEN PLAINS SHIRE
Merinda Park Kindergarten,149-153 Endeavour Drive,CRANBOURNE,3977,VIC,CASEY CITY
Mernda Villages Kindergarten,70 Mernda Village Drive,MERNDA,3754,VIC,WHITTLESEA CITY
Merri Community Child Care Centre,313 St Georges Road,THORNBURY,3071,VIC,DAREBIN CITY
Merri Kindergarten,1126 Hopkins Highway,PURNIM WEST,3279,VIC,MOYNE SHIRE
Merrifield Child Care and Early Learning Centre,104 Johnstone Street,CASTLEMAINE,3450,VIC,MOUNT ALEXANDER SHIRE
Merrigum Kindergarten & Early Childhood Services, Waverley Avenue,MERRIGUM,3618,VIC,GREATER SHEPPARTON CITY
Merrilands Children's Centre & Kindergarten - BUC,23-25 Ryan Street,RESERVOIR,3073,VIC,DAREBIN CITY
Merriwa Kindergarten,60A Bishop Street,YARRAVILLE,3013,VIC,MARIBYRNONG CITY
Meruka Child Care Centre, Meruka Drive,ELTHAM,3095,VIC,NILLUMBIK SHIRE
Methodist Ladies College - Kindle,207 Barkers Road,KEW,3101,VIC,BOROONDARA CITY
Mickleham Road Early Learning Centre,124-128 Mickleham Road,TULLAMARINE,3043,VIC,HUME CITY
Mid Valley Kinder and Child Care,31-33 Bridle Road,MORWELL,3840,VIC,LATROBE CITY
Middle Park Kindergarten,131 Mills Street,MIDDLE PARK,3206,VIC,PORT PHILLIP CITY
Midlands Kindergarten,701 Landsborough Street,BALLARAT,3350,VIC,BALLARAT CITY
Mildura Central Child Care Centre,145-149 Lime Avenue,MILDURA,3500,VIC,MILDURA RURAL CITY
Mildura Early Learning Centre,328-340 San Mateo Avenue,MILDURA,3500,VIC,MILDURA RURAL CITY
Mildura South Kindergarten,13 Luke Road,MILDURA,3500,VIC,MILDURA RURAL CITY
Mildura West Kindergarten,214 Eighth Street,MILDURA,3500,VIC,MILDURA RURAL CITY
Milestone Kindergarten & Early Childhood Centre,374 Maroondah Highway,CROYDON,3136,VIC,MAROONDAH CITY
Mill Park Heights Child Care Centre,31 Morang Drive,MILL PARK,3082,VIC,WHITTLESEA CITY
Mill Park Lakes Preschool,280 Gordons Road,SOUTH MORANG,3752,VIC,WHITTLESEA CITY
Mill Park Preschool,Rear 7A Mill Park Drive,MILL PARK,3082,VIC,WHITTLESEA CITY
Milleara Gardens Kindergarten, Park Drive,KEILOR EAST,3033,VIC,MOONEE VALLEY CITY
Milleara Integrated Learning & Development Centre for Children,1 - 5 Keilor Park Drive,KEILOR EAST,3033,VIC,MOONEE VALLEY CITY
Millgrove Preschool & Maternal Child Health Centre, Cavanagh Road,MILLGROVE,3799,VIC,YARRA RANGES SHIRE
Millville,23 Hart Street,COLAC,3250,VIC,COLAC-OTWAY SHIRE
Minaret Early Learning Centre,67 Tivendale Road,OFFICER,3809,VIC,CARDINIA SHIRE
Minikins Kindergarten Childcare Centre,13 Leeds Street,DONCASTER EAST,3109,VIC,MANNINGHAM CITY
Minimbah Early Childhood Centre,3 Minimbah Court,FRANKSTON,3199,VIC,FRANKSTON CITY
Minnows Aspendale Gardens,101-105 Wells Road,ASPENDALE GARDENS,3195,VIC,KINGSTON CITY
Minnows Beaumaris, 132 Reserve Road,BEAUMARIS,3193,VIC,BAYSIDE CITY
Minnows Bentleigh East,701 South Road,MOORABBIN,3189,VIC,GLEN EIRA CITY
Minnows Cheltenham,15 - 17 Centre Dandenong Road,CHELTENHAM,3192,VIC,KINGSTON CITY
Minyip Kindergarten,29 Main Street,MINYIP,3392,VIC,YARRIAMBIACK SHIRE
Mirboo North Kindergarten,8 Brennan Street,MIRBOO NORTH,3871,VIC,SOUTH GIPPSLAND SHIRE
Mission Australia Learning Services Cranbourne,2 - 8 Brindalee Place,CRANBOURNE,3977,VIC,CASEY CITY
Mission Australia Learning Services Eumemmering,52 - 54 Princes Highway,EUMEMMERRING,3177,VIC,CASEY CITY
Mission Australia Learning Services Keilor,26 Kennedy Street,KEILOR,3036,VIC,BRIMBANK CITY
Mission Australia Learning Services Lower Plenty,412 Main Road,LOWER PLENTY,3093,VIC,BANYULE CITY
Mission Australia Learning Services Officer,454 Princes Highway,OFFICER,3809,VIC,CARDINIA SHIRE
Mission Australia Learning Services Springvale South,554-556 Springvale Road,SPRINGVALE SOUTH,3172,VIC,GREATER DANDENONG CITY
Mitchell Park Kindergarten,1 Steele Street,HAMILTON,3300,VIC,SOUTHERN GRAMPIANS SHIRE
Mitchell Street Child Care Centre,98 Mitchell Street,BRUNSWICK,3056,VIC,MORELAND CITY
Mitford Crescent Preschool,14 Mitford Crescent,CRAIGIEBURN,3064,VIC,HUME CITY
Moe Heights Kindergarten,46 Queen Street,MOE,3825,VIC,LATROBE CITY
Moe P.L.A.C.E.,15-41 Vale Street,MOE,3825,VIC,LATROBE CITY
Monash Caulfield Child Care,22-24 Derby Road,CAULFIELD EAST,3145,VIC,GLEN EIRA CITY
Monash Children's Centre,62-64 Beddoe Avenue,CLAYTON,3168,VIC,MONASH CITY
Monash Community Family Co-operative Ltd, 56 Howleys Rd,NOTTING HILL,3168,VIC,MONASH CITY
Monash Drive Early Learning Centre,166-180 Monash Drive,DANDENONG,3175,VIC,GREATER DANDENONG CITY
Monash Vale Early Learning Centre,1758 Dandenong Road,CLAYTON,3168,VIC,MONASH CITY
Monbulk Preschool,21 Main Road,MONBULK,3793,VIC,YARRA RANGES SHIRE
Monmia Preschool, Copernicus Way,KEILOR DOWNS,3038,VIC,BRIMBANK CITY
Montague Park Preschool, Bentley Place,FRANKSTON,3199,VIC,FRANKSTON CITY
Montessori Early Education Centre,36A Mitcham Road,DONVALE,3111,VIC,MANNINGHAM CITY
Montgomery Park Children's Centre,47 Lawson Street,ESSENDON,3040,VIC,MOONEE VALLEY CITY
Montgomery Park Kindergarten, Hilda Street,ESSENDON,3040,VIC,MOONEE VALLEY CITY
Montrose Preschool,1a Leith Road,MONTROSE,3765,VIC,YARRA RANGES SHIRE
Moomba Park Kindergarten,65 Alec Crescent,FAWKNER,3060,VIC,MORELAND CITY
Moonee Ponds Kinder Haven,758 Mount Alexander Road,MOONEE PONDS,3039,VIC,MOONEE VALLEY CITY
Moore Street Kindergarten,57 Moore Street,MOE,3825,VIC,LATROBE CITY
Moorefield Park Child Care Centre,8 Moorefield Park Drive,WODONGA,3690,VIC,WODONGA RURAL CITY
Mooroolbark Early Childhood Education Centre,8 Charles Street,MOOROOLBARK,3138,VIC,YARRA RANGES SHIRE
Mordialloc Preschool,26  Park St,MORDIALLOC,3195,VIC,KINGSTON CITY
Moreland Kindergarten,157-163 Moreland Road,COBURG,3058,VIC,MORELAND CITY
Moresby Avenue Child Care Centre,6 Moresby Avenue,BULLEEN,3105,VIC,MANNINGHAM CITY
Moriac Kindergarten,7 Clerke Court,MORIAC,3240,VIC,SURF COAST SHIRE
Mornington Park Preschool,5-17 Currawong Street,MORNINGTON,3931,VIC,MORNINGTON PENINSULA SHIRE
Morobe Street Child Day Care Centre,229 Oriel Street,HEIDELBERG,3084,VIC,BANYULE CITY
Morrisons Total Child Care & Kindergarten,20 Old Hereford Road,MOUNT EVELYN,3796,VIC,YARRA RANGES SHIRE
Mortlake & District Kindergarten,5 Park Street,MORTLAKE,3272,VIC,MOYNE SHIRE
Mossfiel Childrens Centre, Pannam Drive,HOPPERS CROSSING,3029,VIC,WYNDHAM CITY
Mossfiel Kindergarten,3 Guinane Avenue,HOPPERS CROSSING,3029,VIC,WYNDHAM CITY
Mount Eliza Preschool, 95-97 Wimbledon Avenue,MOUNT ELIZA,3930,VIC,MORNINGTON PENINSULA SHIRE
Mount Evelyn Christian School Kindergarten,135 YORK ROAD,MOUNT EVELYN,3796,VIC,YARRA RANGES SHIRE
Mount Helen Preschool,16 Boak Avenue,MOUNT HELEN,3350,VIC,BALLARAT CITY
Mount Martha Kindergarten,35 Watson Road,MOUNT MARTHA,3934,VIC,MORNINGTON PENINSULA SHIRE
Moyhu & District Kindergarten, Byrne Street,MOYHU,3732,VIC,WANGARATTA RURAL CITY
Mt Clear Community Kindergarten,2 Dallas Avenue,MOUNT CLEAR,3350,VIC,BALLARAT CITY
Mt Dandenong Preschool,1343-1345 Mt Dandenong Tourist Road,MOUNT DANDENONG,3767,VIC,YARRA RANGES SHIRE
Mt Eliza House Child Care and Early Learning Centre,41 Baden Powell Place,MOUNT ELIZA,3930,VIC,MORNINGTON PENINSULA SHIRE
Mt Evelyn Early Learning Centre,113 Bailey Road,MOUNT EVELYN,3796,VIC,YARRA RANGES SHIRE
Mt Evelyn Memorial Preschool,24 Birmingham Road,MOUNT EVELYN,3796,VIC,YARRA RANGES SHIRE
Mt Piper Kindergarten,150 High Street,BROADFORD,3658,VIC,MITCHELL SHIRE
Mt Pleasant Kindergarten,826 Laurie Street,BALLARAT,3350,VIC,BALLARAT CITY
Mt Pleasant Kindergarten, Mount Pleasant Road,NUNAWADING,3131,VIC,WHITEHORSE CITY
Mt Waverley Kindergarten,35 Sherwood Road,MOUNT WAVERLEY,3149,VIC,MONASH CITY
Mulberry Early Learning (Gladstone Park),8-34 Gladstone Park Drive,GLADSTONE PARK,3043,VIC,HUME CITY
Mulberry Early Learning (Sydenham),17A Overton Lea Boulevard,SYDENHAM,3037,VIC,BRIMBANK CITY
Mulgrave Park Kindergarten,68 Albany Drive,MULGRAVE,3170,VIC,MONASH CITY
Munro Avenue Preschool,14-16 Munro Avenue,BENALLA,3672,VIC,BENALLA RURAL CITY
Murchison Kindergarten and Early Childhood Service,14 Watson Street,MURCHISON,3610,VIC,GREATER SHEPPARTON CITY
Murray Road Kindergarten,31 Murray Road,NEWBOROUGH,3825,VIC,LATROBE CITY
Murray Valley Aboriginal Kindergarten,1 Old Street,ROBINVALE,3549,VIC,SWAN HILL RURAL CITY
Murrindal Children and Family Centre,100 Murrindal Drive,ROWVILLE,3178,VIC,KNOX CITY
Murrumbeena Children's Centre,105-107 Murrumbeena Road,MURRUMBEENA,3163,VIC,GLEN EIRA CITY
Murrumbeena Kindergarten,1A Blythe Street,MURRUMBEENA,3163,VIC,GLEN EIRA CITY
Murtoa Kindergarten,38-40 Marma St,MURTOA,3390,VIC,YARRIAMBIACK SHIRE
Mykidz Early Learning Centre,81 George Street,DONCASTER EAST,3109,VIC,MANNINGHAM CITY
Myrtleford Preschool, 55 Prince Street,MYRTLEFORD,3737,VIC,ALPINE SHIRE
Nadia Child Minding Centre,10-12 Warrawong Drive,BERWICK,3806,VIC,CASEY CITY
Nagambie Kindergarten & Early Childhood Services,16 Vale Street,NAGAMBIE,3608,VIC,STRATHBOGIE SHIRE
Nagle Kindergarten,59-61 Sandringham Road,SANDRINGHAM,3191,VIC,BAYSIDE CITY
Nangiloc & District Kindergarten,2606 Kulkyne Way,NANGILOC,3494,VIC,MILDURA RURAL CITY
Napier Street Children's Centre,392 - 394 Napier Street,WHITE HILLS,3550,VIC,GREATER BENDIGO CITY
Nar Nar Goon Kindergarten,13 Main Street,NAR NAR GOON,3812,VIC,CARDINIA SHIRE
Nara Community Child Care Centre,77-99 Rear St Georges Road,PRESTON,3072,VIC,DAREBIN CITY
Nara Kindergarten,2 Stanley Avenue,MOUNT WAVERLEY,3149,VIC,MONASH CITY
Narre Kids,413-415 Princes Highway,NARRE WARREN,3805,VIC,CASEY CITY
Narre Warren Central Preschool, 4 Malcolm Court,NARRE WARREN,3805,VIC,CASEY CITY
Narre Warren Kids Education Centre,58 Elida Crescent,NARRE WARREN SOUTH,3805,VIC,CASEY CITY
Narre Warren North Kindergarten,8 Winters Lane,NARRE WARREN,3805,VIC,CASEY CITY
Nathalia & District Preschool,25 Harcourt Street,NATHALIA,3638,VIC,MOIRA SHIRE
Nathalia Early Learning Centre,20 Bromley Street,NATHALIA,3638,VIC,MOIRA SHIRE
Natimuk Preschool,2 Regent Street,NATIMUK,3409,VIC,HORSHAM RURAL CITY
Natimuk Road Kindergarten,48 Natimuk Road,HORSHAM,3400,VIC,HORSHAM RURAL CITY
Neighbourhood Kids Early Learning Centre,2-8 Cansick Street,ROSEDALE,3847,VIC,WELLINGTON SHIRE
Ness Reserve Pre-school, 1 Ness St,DIAMOND CREEK,3089,VIC,NILLUMBIK SHIRE
Newhope Baptist Preschool,3 Springfield Road,BLACKBURN,3130,VIC,WHITEHORSE CITY
Newlands Preschool,20 Murray Road,COBURG,3058,VIC,MORELAND CITY
Newport Gardens Early Years Centre, Cnr Maddox Road & Woods Street,NEWPORT,3015,VIC,HOBSONS BAY CITY
Newstead Preschool,6 Panmure Street,NEWSTEAD,3462,VIC,MOUNT ALEXANDER SHIRE
Nhill & District Kindergarten,9 Clarence Street,NHILL,3418,VIC,HINDMARSH SHIRE
Nickis Clever Cookies,57 Cunningham Street,NORTHCOTE,3070,VIC,DAREBIN CITY
Nola Barber Kindergarten,151 Station Street,ASPENDALE,3195,VIC,KINGSTON CITY
Nola-Dee Child Care Centre,34 Morton Street,CLAYTON,3168,VIC,MONASH CITY
Noni's Nursery,1 Hillcroft Drive,TEMPLESTOWE,3106,VIC,MANNINGHAM CITY
Norlane North Shore Kindergarten,11 Gerbera Avenue,NORLANE,3214,VIC,GREATER GEELONG CITY
Norlane West Kindergarten,39 Peacock Avenue,NORLANE,3214,VIC,GREATER GEELONG CITY
Norman Fischer Memorial Preschool,46 Kallay Street,CLAYTON SOUTH,3169,VIC,KINGSTON CITY
Normanby Street Preschool,53-55 Normanby Street,EAST GEELONG,3219,VIC,GREATER GEELONG CITY
North Bendigo Kindergarten, 55 Bannister Street,BENDIGO,3550,VIC,GREATER BENDIGO CITY
North Brighton Kindergarten,145A Cochrane Street,BRIGHTON,3186,VIC,BAYSIDE CITY
North Carlton Childrens Centre,481 Canning Street,CARLTON NORTH,3054,VIC,YARRA CITY
North Cheltenham Preschool,71 Argus St,CHELTENHAM,3192,VIC,KINGSTON CITY
North Essendon Kindergarten, Cnr Kerferd St & McCulloch St,ESSENDON NORTH,3041,VIC,MOONEE VALLEY CITY
North Gateway Early Learning Centre,2 North Gateway,LANGWARRIN,3910,VIC,FRANKSTON CITY
North Kew Kindergarten,152 Pakington Street,KEW NORTH,3101,VIC,BOROONDARA CITY
North Maidstone Kindergarten,145 Mitchell Street,MAIDSTONE,3012,VIC,MARIBYRNONG CITY
North Melbourne Childrens Centre,28 Howard Street,NORTH MELBOURNE,3051,VIC,MELBOURNE CITY
North Ringwood Community Children's Centre Inc.," Norwood Reserve, 125a Warrandyte Road",RINGWOOD NORTH,3134,VIC,MAROONDAH CITY
North Ringwood Preschool Inc,70 Lockhart Road,RINGWOOD NORTH,3134,VIC,MAROONDAH CITY
North St Kilda Children's Centre,71 Argyle Street,ST KILDA,3182,VIC,PORT PHILLIP CITY
North Sunshine Kindergarten, Phoenix Street,SUNSHINE,3020,VIC,BRIMBANK CITY
North West Brunswick Kindergarten,34 Rose Street,BRUNSWICK WEST,3055,VIC,MORELAND CITY
Northern Bay Early Learning and Care Inc,3-25 Goldsworthy Road,CORIO,3214,VIC,GREATER GEELONG CITY
Northland Kinder Haven,59-65 Wood Street,PRESTON,3072,VIC,DAREBIN CITY
Northwest Maria Montessori Preschool,174 OHea Street,COBURG,3058,VIC,MORELAND CITY
Northwest Maria Montessori Preschool - St Johns, Cnr Buckley St & Mt Alexander Rd,ESSENDON,3040,VIC,MOONEE VALLEY CITY
Norwood Kindergarten, Warrandyte Road,RINGWOOD,3134,VIC,MAROONDAH CITY
Nullawarre Kindergarten, Henry's Sawmill Road,NULLAWARRE,3268,VIC,MOYNE SHIRE
Numdaji Kwei Children's Centre, McKimmies Road,BUNDOORA,3083,VIC,WHITTLESEA CITY
Numurkah Kindergarten, McCaskill Street,NUMURKAH,3636,VIC,MOIRA SHIRE
Nyah West & District Kindergarten, Lloyd Street,NYAH WEST,3595,VIC,SWAN HILL RURAL CITY
Oak Park Children's Centre,667 Pascoe Vale Road,OAK PARK,3046,VIC,MORELAND CITY
Oak Park Kindergarten,1A Short Avenue,OAK PARK,3046,VIC,MORELAND CITY
Oak Street Kindergarten,6 Oak Street,DROUIN,3818,VIC,BAW BAW SHIRE
Oakbrook Kindergarten,36 Holroyd Drive,EPPING,3076,VIC,WHITTLESEA CITY
Oakhill Family Services Centre,91 North Rd,RESERVOIR,3073,VIC,DAREBIN CITY
Oakleigh Grammar Early Learning Centre,23 - 25 Clapham Road,OAKLEIGH,3166,VIC,MONASH CITY
Oakleigh Primary School and Kindergarten OSHC, 20 Warrigal Road,OAKLEIGH,3166,VIC,MONASH CITY
Oakleigh World of Learning,13 Warrigal Road,OAKLEIGH,3166,VIC,MONASH CITY
Oarsome Drive Childcare Centre,39-41 Oarsome Drive,DELAHEY,3037,VIC,BRIMBANK CITY
Oatlands Kindergarten,19-23 Rozzy Parade,NARRE WARREN,3805,VIC,CASEY CITY
Oban Kindergarten,6A Holyrood Crescent,RINGWOOD NORTH,3134,VIC,MAROONDAH CITY
Ocean Grove & District Preschool,114 The Avenue,OCEAN GROVE,3226,VIC,GREATER GEELONG CITY
Ocean Grove Integrated Childrens Centre,4-50 Shell Road,OCEAN GROVE,3226,VIC,GREATER GEELONG CITY
Olinda Avenue Kindergarten,2A Olinda Avenue,SPRINGVALE,3171,VIC,GREATER DANDENONG CITY
Olive Philips Kindergarten,26 Bodley Street,BEAUMARIS,3193,VIC,BAYSIDE CITY
Olympic Avenue Kindergarten,28 Olympic Avenue,CHELTENHAM,3192,VIC,BAYSIDE CITY
Olympic Village Preschool,29 Alamein Road,HEIDELBERG WEST,3081,VIC,BANYULE CITY
Omeo Kindergarten/Early Childhood Development Centre,162 Day Avenue,OMEO,3898,VIC,EAST GIPPSLAND SHIRE
One World Children's Centre,407-411 Thompson Road,GEELONG NORTH,3215,VIC,GREATER GEELONG CITY
Only About Children South Melbourne,221 Ferrars Street,SOUTH MELBOURNE,3205,VIC,PORT PHILLIP CITY
Oorama Early Learning - Berwick, Cnr Parkhill & Avebury Drives,BERWICK,3806,VIC,CASEY CITY
Oorama Early Learning - Cranbourne,24-26 Walter Street,CRANBOURNE,3977,VIC,CASEY CITY
Oorama Early Learning - Melton West,2  Roslyn Park Drive,MELTON,3337,VIC,MELTON SHIRE
Oorama Early Learning - Rosebud,127-129 Boneo Road,ROSEBUD,3939,VIC,MORNINGTON PENINSULA SHIRE
Oorama Early Learning - Tarneit,466-468 Sayers Road,TARNEIT,3029,VIC,WYNDHAM CITY
Orama Street Child Care Centre,24 Orama Street,DEER PARK,3023,VIC,BRIMBANK CITY
Orbost Kindergarten, 41 Browning Street,ORBOST,3888,VIC,EAST GIPPSLAND SHIRE
Ormond Community Kindergarten,1A Oakleigh Road,ORMOND,3163,VIC,GLEN EIRA CITY
Ormond Kinder Haven,18 Katandra Road,ORMOND,3204,VIC,GLEN EIRA CITY
Orrong Road Preschool,55 Orrong Road,ELSTERNWICK,3185,VIC,GLEN EIRA CITY
Our Kids,203 Springvale Road,NUNAWADING,3131,VIC,WHITEHORSE CITY
Our Lady of Lourdes Early Childhood Centre,27 Orange Grove,BAYSWATER,3153,VIC,KNOX CITY
Our Learning Steps Childcare and Kindergarten,2-4 Old Wells Road,PATTERSON LAKES,3197,VIC,KINGSTON CITY
Ouyen Preschool,78 Oke Street,OUYEN,3490,VIC,MILDURA RURAL CITY
Oxley College Kindergarten, Old Melbourne Road,CHIRNSIDE PARK,3116,VIC,YARRA RANGES SHIRE
Paddy O'Donoghue Centre - (Noble Park Community Service Centre), 18 - 32 Buckley Street,NOBLE PARK,3174,VIC,GREATER DANDENONG CITY
Padua Kindergarten & Childcare Centre,72 Exford Drive,MORNINGTON,3931,VIC,MORNINGTON PENINSULA SHIRE
Pakenham Childcare on McGregor,11-13 Wakenshaw Crescent,PAKENHAM,3810,VIC,CARDINIA SHIRE
Pakenham Early Education Centre on Princes Hwy,150-152 Princes Highway,PAKENHAM,3810,VIC,CARDINIA SHIRE
Pakenham South Early Learning Centre, Bluehills Boulevard,PAKENHAM,3810,VIC,CARDINIA SHIRE
Palm Grove Preschool,21 Palm Grove,KILSYTH,3137,VIC,YARRA RANGES SHIRE
Panorama Heights Preschool,3 Mitchell Avenue,MONTMORENCY SOUTH,3094,VIC,BANYULE CITY
Panton Hill Preschool,601 Main Road,PANTON HILL,3759,VIC,NILLUMBIK SHIRE
Paradise Kids Children's Centre,1 Paradise Way,SOUTH MORANG,3752,VIC,WHITTLESEA CITY
Paratea Preschool, Paratea Avenue,FRANKSTON,3199,VIC,FRANKSTON CITY
Park Crescent Children's Centre, Park Crescent,BORONIA,3155,VIC,KNOX CITY
Park Orchards Kindergarten,570-572 Park Road,PARK ORCHARDS,3114,VIC,MANNINGHAM CITY
Park Ridge Preschool, Dandelion Drive,ROWVILLE,3178,VIC,KNOX CITY
Park Street Child Care Co-op,785 Park Street,BRUNSWICK,3056,VIC,MORELAND CITY
Parkdale Preschool,14 Alameda Place,PARKDALE,3195,VIC,KINGSTON CITY
Parklands Kindergarten,121 Bridle Road,MORWELL,3840,VIC,LATROBE CITY
Parklane Kindergarten,2 Smith Street,TRARALGON,3844,VIC,LATROBE CITY
Parkmore Preschool,41 Jolimont Road,FOREST HILL,3131,VIC,WHITEHORSE CITY
Parkside Preschool,524 Elgar Road,BOX HILL NORTH,3129,VIC,WHITEHORSE CITY
Parkwood Green Preschool, Community Hub,HILLSIDE,3037,VIC,MELTON SHIRE
Pasadena Preschool,115 Pasadena Grove,MILDURA,3500,VIC,MILDURA RURAL CITY
Pascoe Vale Early Learning Centre and Kindergarten,188-204 Cumberland Road,PASCOE VALE,3044,VIC,MORELAND CITY
Pascoe Vale South Uniting Church Kindergarten,35A Westgate Street,PASCOE VALE SOUTH,3044,VIC,MORELAND CITY
Patricia Smith Children's Centre,38 Packham Street,SHEPPARTON,3630,VIC,GREATER SHEPPARTON CITY
Patterson Lakes Childcare & Kindergarten,106 McLeod Road,CARRUM,3197,VIC,KINGSTON CITY
Patterson Lakes Kindergarten,25 Terrigal Drive,PATTERSON LAKES,3197,VIC,KINGSTON CITY
Pax Hill Kindergarten,40 Barkers Crescent,TRARALGON,3844,VIC,LATROBE CITY
Paynesville Kindergarten,100 Langford Parade,PAYNESVILLE,3880,VIC,EAST GIPPSLAND SHIRE
Pearcedale Preschool,68 Pearcedale Road,PEARCEDALE,3912,VIC,CASEY CITY
Pearl Street Child Care Centre,2 Pearl Street,GLENROY,3046,VIC,MORELAND CITY
Pelican Childcare Coburg,1A Woiwurung Crescent,COBURG,3058,VIC,MORELAND CITY
Pelican Childcare Craigieburn,19-25 Princes Circuit,CRAIGIEBURN,3064,VIC,HUME CITY
Pelican Childcare Deer Park,79 Foleys Road,DEER PARK,3023,VIC,BRIMBANK CITY
Pelican Childcare Fairways,94-100 Fairways Boulevard,CRAIGIEBURN,3064,VIC,HUME CITY
Pelican Childcare Heatherton,16 - 20 Arco Lane,HEATHERTON,3202,VIC,KINGSTON CITY
Pelican Childcare Lynbrook,56-62 Aylmer Road,LYNBROOK,3975,VIC,CASEY CITY
Pelican Childcare Mount Martha,682 Nepean Highway,MOUNT MARTHA,3934,VIC,MORNINGTON PENINSULA SHIRE
Pelican Early Learning Cairnlea,282 - 286  Station Road,CAIRNLEA,3023,VIC,BRIMBANK CITY
Pelican Early Learning Melton,8 -10 Sherwin Court,MELTON,3337,VIC,MELTON SHIRE
Pembroke Crescent Preschool Centre,38 Pembroke Crescent,CRAIGIEBURN,3064,VIC,HUME CITY
Penbank School Early Learning Centre, Mornington Tyabb Road,MOOROODUC,3933,VIC,MORNINGTON PENINSULA SHIRE
Penguin Childcare Caroline Springs, Cnr Gourlay Road & Lancefield Drive,CAROLINE SPRINGS,3023,VIC,MELTON SHIRE
Penguin Childcare Epping, 9 Church Street,EPPING,3076,VIC,WHITTLESEA CITY
Penguin Childcare Melbourne,750 Collins Street,MELBOURNE,8005,VIC,MELBOURNE CITY
Penguin Childcare Parkville,14 Kirrip Crescent,PARKVILLE,3052,VIC,MELBOURNE CITY
Penguin Childcare Ravenhall,1/265 Robinsons Road,RAVENHALL,3023,VIC,MELTON SHIRE
Peninsula Sands Preschool,36 Duells Road,ROSEBUD,3939,VIC,MORNINGTON PENINSULA SHIRE
Penleigh & Essendon Grammar School - Raleigh St Kindergarten,49-53 Raleigh Street,ESSENDON,3040,VIC,MOONEE VALLEY CITY
Penrose Promenade Kindergarten,83 Penrose Promenade,TARNEIT,3029,VIC,WYNDHAM CITY
Penshurst Preschool, 71a Watton Street,PENSHURST,3289,VIC,SOUTHERN GRAMPIANS SHIRE
Peppercorn Child Care,102 Princess Street,KEW,3101,VIC,BOROONDARA CITY
Perry Street Child Care Centre,129 Perry Street,FAIRFIELD,3078,VIC,DAREBIN CITY
Peter Toms Early Learning Centre,27 Grosvenor Street,BRIGHTON,3186,VIC,BAYSIDE CITY
Phillip Island Early Learning Centre,161 Settlement Road,COWES,3922,VIC,BASS COAST SHIRE
Phoenix Street Children's Centre,80 Phoenix Street,SUNSHINE NORTH,3020,VIC,BRIMBANK CITY
Piccolo's Accelerated Early Learning,118 Overport Road,FRANKSTON SOUTH,3199,VIC,FRANKSTON CITY
Pinemont Preschool,29 Hygeia Parade,RINGWOOD,3134,VIC,MAROONDAH CITY
Pinewood Kindergarten,13 Pinewood Drive,MOUNT WAVERLEY,3149,VIC,MONASH CITY
Pinjarra Kindergarten,83 Eastfield Road,CROYDON SOUTH,3136,VIC,MAROONDAH CITY
Piper Street Children's Centre,15-19 White Street,KILMORE,3764,VIC,MITCHELL SHIRE
Platypus Junction Mentone,37  Venice Street,MENTONE,3194,VIC,KINGSTON CITY
Platypus Junction Montmorency,60-62 Sherbourne Road,MONTMORENCY,3094,VIC,BANYULE CITY
Platypus Junction Mt Eliza,1305 Nepean Highway,MOUNT ELIZA,3930,VIC,MORNINGTON PENINSULA SHIRE
Play CC&K (Child Care & Kindergarten),121 Roslyn Rd,BELMONT,3216,VIC,GREATER GEELONG CITY
Play 'N' Grow Early Learning Centre and Kindergarten,100-104 Brunnings Road,CARRUM DOWNS,3201,VIC,FRANKSTON CITY
Playalong Occasional Child Care Centre,73-75 Lemon Avenue,MILDURA,3500,VIC,MILDURA RURAL CITY
Playmates Early Learning Centre,2-4 Rosie Court,ASPENDALE GARDENS,3195,VIC,KINGSTON CITY
Plenty Valley International Montessori School,315 Aqueduct Road,DIAMOND CREEK,3089,VIC,BANYULE CITY
Point Cook Montessori Centre Pty Ltd,13-19 Boardwalk Boulevard,POINT COOK,3030,VIC,WYNDHAM CITY
Point Cook Play and Learn Private Child Care Centre,73-83 Innisfail Drive,POINT COOK,3030,VIC,WYNDHAM CITY
Pooh Bear's House,323 Maroondah Highway,CROYDON,3136,VIC,MAROONDAH CITY
Poowong Kindergarten, 12 Ranceby Road,POOWONG,3988,VIC,SOUTH GIPPSLAND SHIRE
Pope Road Blackburn Kindergarten,46 Pope Road,BLACKBURN,3130,VIC,WHITEHORSE CITY
Port Fairy Community Services Centre,16 Atkinson Street,PORT FAIRY,3284,VIC,MOYNE SHIRE
Port Melbourne Uniting Kindergarten,136 Bridge Street,PORT MELBOURNE,3207,VIC,PORT PHILLIP CITY
Portarlington Preschool Centre, Newcombe Street,PORTARLINGTON,3223,VIC,GREATER GEELONG CITY
Portland Child & Family Complex,94 -96  Julia Street,PORTLAND,3305,VIC,GLENELG SHIRE
Portland Pre-School Centre, Cnr Fawthrop St & Edgar St,PORTLAND,3305,VIC,GLENELG SHIRE
Powlett Reserve Children's Centre, Cnr Grey St & Simpson St,EAST MELBOURNE,3002,VIC,MELBOURNE CITY
Presbyterian Ladies College Early Learning,141 Burwood Highway,BURWOOD,3125,VIC,WHITEHORSE CITY
Preshil - The Margaret Lyttle Memorial School,395 Barkers Road,KEW,3101,VIC,BOROONDARA CITY
Princes Hill Kindergarten,260 Pigdon Street,CARLTON NORTH,3054,VIC,YARRA CITY
Prom Coast Centre for Children,30 Pioneer Street,FOSTER,3960,VIC,SOUTH GIPPSLAND SHIRE
Puckapunyal Kindergarten, Lone Pine Crescent,PUCKAPUNYAL,3662,VIC,MITCHELL SHIRE
Punt Road Kindergarten and Childcare Centre,39-41 Punt Road,COBRAM,3644,VIC,MOIRA SHIRE
Pyalong Preschool,12 High Street,PYALONG,3521,VIC,MITCHELL SHIRE
Pyramid Hill Preschool,67 Kelly Street,PYRAMID HILL,3575,VIC,LODDON SHIRE
QUALITY KIDS,1 RAGLAN STREET,WALLAN,3756,VIC,MITCHELL SHIRE
Quality Time Child Care,97 Pecks Road,SYDENHAM,3037,VIC,BRIMBANK CITY
Queens Park Kindergarten," Queens Park, Don Road",HEALESVILLE,3777,VIC,YARRA RANGES SHIRE
Queensberry Childrens Centre,228 Queensberry Street,CARLTON,3053,VIC,MELBOURNE CITY
Queenscliff Kindergarten,10 Stevens Street,QUEENSCLIFF,3225,VIC,QUEENSCLIFFE BOROUGH
QV Children's Centre," Level 8, 10 Artemis Lane",MELBOURNE,3000,VIC,MELBOURNE CITY
Rainbow,359-361 Chesterville Road,BENTLEIGH EAST,3165,VIC,GLEN EIRA CITY
Rainbow Kindergarten,46 Taverner Street,RAINBOW,3424,VIC,HINDMARSH SHIRE
Raleigh Street Child Minding Centre,28 Raleigh Street,THORNBURY,3071,VIC,DAREBIN CITY
Rangebank Preschool,40-46 Lesdon Avenue,CRANBOURNE,3977,VIC,CASEY CITY
Rangeview Preschool,3 Rupert Street,MITCHAM,3132,VIC,WHITEHORSE CITY
Ray Street Children's Centre,54 Ray Street,CASTLEMAINE,3450,VIC,MOUNT ALEXANDER SHIRE
Red Apple Early Learning Centre,487-489 Canterbury Road,VERMONT,3133,VIC,WHITEHORSE CITY
Red Apple Early Learning Centre Balwyn,243 Doncaster Road,BALWYN NORTH,3104,VIC,BOROONDARA CITY
Red Cliffs Kindergarten, Guava Street,RED CLIFFS,3496,VIC,MILDURA RURAL CITY
Red Hill Memorial Preschool,210 Arthurs Seat Road,RED HILL,3937,VIC,MORNINGTON PENINSULA SHIRE
Reema Kindergarten,42 Reema Boulevard,ENDEAVOUR HILLS,3802,VIC,CASEY CITY
Reeve Street Children's Centre,13-15 Reeve Street,SALE,3850,VIC,WELLINGTON SHIRE
Regans Road Kindergarten,7 Regans Road,HAMPTON PARK,3976,VIC,CASEY CITY
Regent Baptist Kindergarten,734 High Street,RESERVOIR,3073,VIC,DAREBIN CITY
Remus Way Kindergarten, Cnr Remus Way & Fastnet Dr,TAYLORS LAKES,3038,VIC,BRIMBANK CITY
Rene Anderson Kindergarten, Cnr Walkers and Dyson Roads,CARRUM,3197,VIC,KINGSTON CITY
Renown Kindergarten,20 Cliff Street,SOUTH YARRA,3141,VIC,STONNINGTON CITY
Research Preschool,1555 Main Rd,RESEARCH,3095,VIC,NILLUMBIK SHIRE
Rhonda Davis Kindergarten, Cnr Lake St & Mountain View Av,AVONDALE HEIGHTS,3034,VIC,MOONEE VALLEY CITY
Richmond Creche and Kindergarten Inc,14 Abinger Street,RICHMOND,3121,VIC,YARRA CITY
Richmond Kindergarten,27 Duke Street,RICHMOND,3121,VIC,YARRA CITY
Richmond Multicultural Children's Centre,16 Gleadell Street,RICHMOND,3121,VIC,YARRA CITY
Riddell Road Preschool,36 Riddell Road,WANTIRNA SOUTH,3152,VIC,KNOX CITY
Riddells Creek Kindergarten, 23-25 Mahoneys Road,RIDDELLS CREEK,3431,VIC,MACEDON RANGES SHIRE
Ride Avenue Preschool,15 Ride Avenue,BENALLA,3672,VIC,BENALLA RURAL CITY
Ringwood Childcare and Kindergarten,290 - 292 Maroondah Highway,RINGWOOD,3134,VIC,MAROONDAH CITY
Ringwood East Child Care Centre,105 Mt Dandenong Road,RINGWOOD EAST,3135,VIC,MAROONDAH CITY
Ringwood Uniting Church Kindergarten,2 Greenwood Avenue,RINGWOOD,3134,VIC,MAROONDAH CITY
Ripponlea Kindergarten,25 Carrington Grove,ST KILDA EAST,3183,VIC,GLEN EIRA CITY
Riverdene Kindergarten,28 Paramatta Road,WERRIBEE,3030,VIC,WYNDHAM CITY
Riverview Child Care Centre,134 De Kerilleau Drive,WODONGA,3690,VIC,WODONGA RURAL CITY
Riviera Preschool,31A Newton Street,SEAFORD NORTH,3198,VIC,FRANKSTON CITY
Rix Street Kindergarten,49 Rix Street,HERNE HILL,3218,VIC,GREATER GEELONG CITY
RMIT City Campus Children's Centre,97 Franklin Street,MELBOURNE,3000,VIC,MELBOURNE CITY
Robert Cochrane Kindergarten, Minona Street,HAWTHORN,3122,VIC,BOROONDARA CITY
Robina Scott Kindergarten,105 Ferguson Street,WILLIAMSTOWN,3016,VIC,HOBSONS BAY CITY
Robin's Nest Early Learning Centre,352-354 Princes Highway,NOBLE PARK,3174,VIC,GREATER DANDENONG CITY
Robin's Nest Early Learning Centre,1158 Nepean Highway,CHELTENHAM,3192,VIC,KINGSTON CITY
Robinvale Preschool Centre,3 McCartney Court,ROBINVALE,3549,VIC,SWAN HILL RURAL CITY
Rochester Kindergarten, Fraser Street,ROCHESTER,3561,VIC,CAMPASPE SHIRE
Rockbank Kindergarten,1175-1177 Leakes Road,ROCKBANK,3335,VIC,MELTON SHIRE
Rodney Neighbourhood Kindergarten, Cnr Midland Hwy & Echuca Rd,MOOROOPNA,3629,VIC,GREATER SHEPPARTON CITY
Rokewood Kindergarten,38 Aitchison Street,ROKEWOOD,3330,VIC,GOLDEN PLAINS SHIRE
Rolling Hills Kindergarten, 54 Landscape Drive,MOOROOLBARK,3138,VIC,YARRA RANGES SHIRE
Romsey Early Education Centre,10 Ewing Drive,ROMSEY,3434,VIC,MACEDON RANGES SHIRE
Romsey Kindergarten,32-48 Main Street,ROMSEY,3434,VIC,MACEDON RANGES SHIRE
Rosanna Uniting Church Kindergarten,23 Bellevue Avenue,ROSANNA,3084,VIC,BANYULE CITY
Rosanna Village Child Care Centre,32 Turnham Avenue,ROSANNA,3084,VIC,BANYULE CITY
Roscoe Avenue Children's Centre, 36 Ballarat Road,HAMILTON,3300,VIC,SOUTHERN GRAMPIANS SHIRE
Rose Garden Childcare Endeavour Hills,53 Heatherton Road,ENDEAVOUR HILLS,3802,VIC,CASEY CITY
Rose Garden Childcare Lilydale,35-37 Cave Hill Road,LILYDALE,3140,VIC,YARRA RANGES SHIRE
Rose Garden Childcare Yarrambat,553 Yan Yean Road,YARRAMBAT,3091,VIC,NILLUMBIK SHIRE
Rose Garden Epping Early Learning Centre,100 Epping Road,EPPING,3076,VIC,WHITTLESEA CITY
Rose Garden Kids,19 Link Road,SUNSHINE WEST,3020,VIC,BRIMBANK CITY
Roseberry House Early Learning Centre,2A-4 Roseberry Grove,GLEN HUNTLY,3163,VIC,GLEN EIRA CITY
Roseberry House Early Learning Centre Bentleigh,263-265 Centre Road,BENTLEIGH,3204,VIC,GLEN EIRA CITY
Rossmoyne Kindergarten,19 Beldale Court,BERWICK,3806,VIC,CASEY CITY
Rosswood Preschool,70 Outlook Drive,DANDENONG NORTH,3175,VIC,GREATER DANDENONG CITY
Rowan View Preschool,402 Forest Street,WENDOUREE,3355,VIC,BALLARAT CITY
Rowellyn Preschool, 37 Rowellyn Avenue,CARRUM DOWNS,3201,VIC,FRANKSTON CITY
Rowen Street Kindergarten,27 Rowen Street,GLEN IRIS,3146,VIC,BOROONDARA CITY
Rowville Lakes Early Learning Centre,2-4 Superior Avenue,ROWVILLE,3178,VIC,KNOX CITY
Rowville Preschool, Wellington Road,ROWVILLE,3178,VIC,KNOX CITY
Roxburgh Park Community House & Children's Centre,2 - 4 Perry Court,ROXBURGH PARK,3064,VIC,HUME CITY
Roxburgh Park Early Learning Centre,19-21  Greensted Grove,ROXBURGH PARK,3064,VIC,HUME CITY
Royal Children's Hospital Early Learning, Flemington Road,PARKVILLE,3052,VIC,MELBOURNE CITY
Royal Children's Hospital Education Institute,159 Flemington Road,NORTH MELBOURNE,3051,VIC,MELBOURNE CITY
Roycroft Kindergarten,114 Roycroft Avenue,MILL PARK,3082,VIC,WHITTLESEA CITY
Rugratz Retreat Early Learning Centre,440 Middleborough Road,BLACKBURN,3130,VIC,WHITEHORSE CITY
Rupanyup Kindergarten,55 Cromie Street,RUPANYUP,3388,VIC,YARRIAMBIACK SHIRE
Rupert Street Child Care & Kindergarten - BUC,115-117 Rupert Street,COLLINGWOOD,3066,VIC,YARRA CITY
Rushworth Kindergarten & Child Care,32 Esmonde Street,RUSHWORTH,3612,VIC,CAMPASPE SHIRE
Russell Court Kindergarten and Childrens' Centre Inc,10 Russell Court,ALTONA MEADOWS,3028,VIC,HOBSONS BAY CITY
Rutherglen Kindergarten,169 High Street,RUTHERGLEN,3685,VIC,INDIGO SHIRE
Ruyton Early Learning Kindergarten & Pre Prep,12 Selbourne Road,KEW,3101,VIC,BOROONDARA CITY
Ryan Road Childcare,1 Ryan Road,PAKENHAM,3810,VIC,CARDINIA SHIRE
Rye Preschool,25 Nelson Street,RYE,3941,VIC,MORNINGTON PENINSULA SHIRE
Sale North Kindergarten,13 Marilyn Way,SALE,3850,VIC,WELLINGTON SHIRE
Saltwater Child Care Centre,14 Nicholson Street,FOOTSCRAY,3011,VIC,MARIBYRNONG CITY
Samantha's Child Care and Kindergarten,190 Burke Road,GLEN IRIS,3146,VIC,STONNINGTON CITY
Samantha's Child Care Centre,51 Seymour Grove,CAMBERWELL,3124,VIC,BOROONDARA CITY
San Remo Kindergarten,23 Back Beach Road,SAN REMO,3925,VIC,BASS COAST SHIRE
Sanctuary Lakes Children's Services,282 Point Cook Rd,POINT COOK,3030,VIC,WYNDHAM CITY
Sandown Park Kindergarten,86-90 Gove Street,SPRINGVALE,3171,VIC,GREATER DANDENONG CITY
Sandringham Child Care Centre,11 Sandringham Road,SANDRINGHAM,3191,VIC,BAYSIDE CITY
Sandringham Private Kindergarten,247 Bay Road,HIGHETT,3190,VIC,BAYSIDE CITY
Sara Court Kindergarten,5 Sara Court,TRARALGON,3844,VIC,LATROBE CITY
Sarah Court Preschool,25 Sarah Court,MONTROSE,3765,VIC,YARRA RANGES SHIRE
Sassafras Preschool, Mt Dandenong Tourist Road,SASSAFRAS,3787,VIC,YARRA RANGES SHIRE
Save the Children Kindergarten - Mooroopna,17 O'Brien Street,MOOROOPNA,3629,VIC,GREATER SHEPPARTON CITY
Save the Children Kindergarten - Nowa Nowa,35 Wandin Way,NOWA NOWA,3887,VIC,EAST GIPPSLAND SHIRE
Scots Presbyterian Kindergarten,141 Essex Street,WEST FOOTSCRAY,3012,VIC,MARIBYRNONG CITY
Sea Lake Kindergarten,55 Mudge Street,SEA LAKE,3533,VIC,BULOKE SHIRE
Seabrook Kindergarten,15 Truganina Avenue,SEABROOK,3028,VIC,HOBSONS BAY CITY
Seaford Care for Kids,186 Seaford Road,SEAFORD,3198,VIC,FRANKSTON CITY
Seaford Heights Preschool,3 Prince Cres,SEAFORD,3198,VIC,FRANKSTON CITY
Seaford Kindergarten, McRae Street,SEAFORD,3198,VIC,FRANKSTON CITY
Seaholme Kindergarten,2 Parkside Crescent,SEAHOLME,3018,VIC,HOBSONS BAY CITY
Sebastopol Kindergarten,115 Albert Street,SEBASTOPOL,3356,VIC,BALLARAT CITY
Sebastopol South Kindergarten,187 Spencer Street,SEBASTOPOL,3356,VIC,BALLARAT CITY
Sebastopol West Kindergarten,180 Grant Street,SEBASTOPOL,3356,VIC,BALLARAT CITY
Seedlings@Whitehorse Kindergarten and Whitehorse Primary School Combined OSHC,70-86 Junction Road,NUNAWADING,3131,VIC,WHITEHORSE CITY
Selby Preschool,15 Lyons Drive,SELBY,3159,VIC,YARRA RANGES SHIRE
Sentia Early Learning,450 Flinders Street,MELBOURNE,3000,VIC,MELBOURNE CITY
Serrell Street Kindergarten,54 Serrell Street,MALVERN EAST,3145,VIC,STONNINGTON CITY
Seville Preschool, Link Road,SEVILLE,3139,VIC,YARRA RANGES SHIRE
Seymour East Preschool Centre, 55 Pollard St,SEYMOUR,3660,VIC,MITCHELL SHIRE
Seymour Preschool Centre,19-21 Victoria Street,SEYMOUR,3660,VIC,MITCHELL SHIRE
Shalimar Park Preschool,1 Milan Court,DANDENONG NORTH,3175,VIC,GREATER DANDENONG CITY
Shelford Early Discovery Centre,3 Hood Crescent,CAULFIELD,3162,VIC,GLEN EIRA CITY
Sherbourne Preschool,156 Sherbourne Road,MONTMORENCY,3094,VIC,BANYULE CITY
Sherbrooke Family and Children's Centre, Cnr Mastgully Rd and Burwood Hwy,UPWEY,3158,VIC,YARRA RANGES SHIRE
Shine Child Care,1222 Centre Road,CLARINDA,3169,VIC,KINGSTON CITY
Shirley Robertson Childrens Centre,1A Cameron Street,COBURG,3058,VIC,MORELAND CITY
Sholem Aleichem Preschool Education Centre,51 Elisabeth Street,ELSTERNWICK,3185,VIC,GLEN EIRA CITY
Showgrounds Children's Centre,320 Epsom Road,ASCOT VALE,3032,VIC,MELBOURNE CITY
Silkwood Stars Childcare Centre,17 Wentworth Avenue,ROWVILLE,3178,VIC,KNOX CITY
Silva Drive Preschool,6 Silva Drive,WODONGA,3690,VIC,WODONGA RURAL CITY
Simpson and District Kindergarten,1 Princetown Road,SIMPSON,3266,VIC,CORANGAMITE SHIRE
Skipton Kindergarten,11 Montgomery Street,SKIPTON,3361,VIC,CORANGAMITE SHIRE
Skye Children's Co-op,9-11 Skye Street,MACLEOD,3085,VIC,BANYULE CITY
Small Ones Live & Learn Child Care Centre,28 Joy Parade,NOBLE PARK,3174,VIC,GREATER DANDENONG CITY
Smart Start Early Learning and Development Centre,18-24 Grange Road,ALPHINGTON,3078,VIC,DAREBIN CITY
Smartie Pants Early Learning & Development,13-19 Old Diamond Creek Road,DIAMOND CREEK,3089,VIC,NILLUMBIK SHIRE
Smith Street Children's Centre and Kindergarten,200 Smith Street,THORNBURY,3071,VIC,DAREBIN CITY
Snuggle Potts Children's Centre,43 Glen Iris Road,CAMBERWELL,3124,VIC,BOROONDARA CITY
Snuggles Early Learning Centre,552 - 554 Highbury Road,GLEN WAVERLEY,3150,VIC,MONASH CITY
Somers Parade Kindergarten,4 Somers Parade,ALTONA,3018,VIC,HOBSONS BAY CITY
Somers Preschool, 14 Ocean View Crescent,SOMERS,3927,VIC,MORNINGTON PENINSULA SHIRE
Somerville Childcare and Kindergarten,14-24 Gomms Road,SOMERVILLE,3912,VIC,MORNINGTON PENINSULA SHIRE
Somerville Preschool,37 Eramosa Road,SOMERVILLE,3912,VIC,BASS COAST SHIRE
Sorrento Preschool,20 Darling Road,SORRENTO,3943,VIC,MORNINGTON PENINSULA SHIRE
South Castlemaine Kindergarten,9 Etty Street,CASTLEMAINE,3450,VIC,MOUNT ALEXANDER SHIRE
South Kingsville Preschool,43 Paxton St,SOUTH KINGSVILLE,3015,VIC,HOBSONS BAY CITY
South Melbourne Child Care,5-11 Carter Street,ALBERT PARK,3206,VIC,PORT PHILLIP CITY
South Melbourne Mission Free Kindergarten,185/332 Park Street,SOUTH MELBOURNE,3205,VIC,PORT PHILLIP CITY
South Morang Preschool,75 Reid Street,SOUTH MORANG,3752,VIC,WHITTLESEA CITY
South Morang Preschool Inc - Riverside, 8 Doreen Rogen Way,SOUTH MORANG,3752,VIC,WHITTLESEA CITY
South Mornington Preschool, 1 Downward Street,MORNINGTON SOUTH,3931,VIC,MORNINGTON PENINSULA SHIRE
Southern Cross Montessori,21 Henty Street,TORQUAY,3228,VIC,SURF COAST SHIRE
Southern Rise Children's Centre,15 Cartwright Street,WODONGA,3690,VIC,WODONGA RURAL CITY
Springside Kindergarten, 1A Shearman Court,KEYSBOROUGH,3173,VIC,GREATER DANDENONG CITY
Springvale 1 World of Learning,67 Balmoral Avenue,SPRINGVALE,3171,VIC,GREATER DANDENONG CITY
Springvale Service for Children Inc,26-28 Lightwood Road,SPRINGVALE,3171,VIC,GREATER DANDENONG CITY
Springvalley Kindergarten,41-43 Clarke Road,SPRINGVALE SOUTH,3172,VIC,GREATER DANDENONG CITY
St Aidans Preschool,5 James Street,STRATHMORE,3041,VIC,MOONEE VALLEY CITY
St Albans Anglican Kindergarten,18 Alexina Street,ST ALBANS,3021,VIC,BRIMBANK CITY
St Albans East Preschool, Cnr Harmon Av & Station Av,ST ALBANS,3021,VIC,BRIMBANK CITY
St Albans Main Road East Early Learning Centre,252 - 256 Main Road East,ST ALBANS,3021,VIC,BRIMBANK CITY
St Albans North Preschool,42 Fox Street,ST ALBANS NORTH,3021,VIC,BRIMBANK CITY
St Albans Park Kindergarten,43-53 Homestead Drive,ST ALBANS PARK,3219,VIC,GREATER GEELONG CITY
St Albans Sweet Sounds Early Learning Centre,27-29 Elizabeth Street,ST ALBANS,3021,VIC,BRIMBANK CITY
St Albans West Preschool, Cnr Andrew Rd & Stevens Rd,ST ALBANS,3021,VIC,BRIMBANK CITY
St Alipius Kindergarten,78 Victoria Street,BALLARAT,3350,VIC,BALLARAT CITY
St Andrews Kindergarten,275 Barkly Street,ARARAT,3377,VIC,ARARAT RURAL CITY
St Andrews Kindergarten,29 St Kinnord Street,ABERFELDIE,3040,VIC,MOONEE VALLEY CITY
St Andrews Sunbury Kindergarten,2 Barkly Street,SUNBURY,3429,VIC,HUME CITY
St Andrew's Uniting Care Kindergarten,210 Sutton Street,WARRAGUL,3820,VIC,BAW BAW SHIRE
St Andrews Uniting Church Kindergarten,85-87 Gillies Street,FAIRFIELD,3078,VIC,DAREBIN CITY
St Andrews Uniting Church Kindergarten - BUC,1 Mountain View Rd,MONTMORENCY,3094,VIC,BANYULE CITY
St Arnaud Children's Precinct,5 Walker Street,ST ARNAUD,3478,VIC,NORTHERN GRAMPIANS SHIRE
St Augustines Anglican Kindergarten,24 Rostrevor Parade,MONT ALBERT NORTH,3129,VIC,WHITEHORSE CITY
St Brendan's Kindergarten,25 Bryant Street,FLEMINGTON,3031,VIC,MOONEE VALLEY CITY
St Catherines Early Learning Centre,27 Heyington Place,TOORAK,3142,VIC,STONNINGTON CITY
St Columba's Community Kindergarten,131 Raymond Street,SALE,3850,VIC,WELLINGTON SHIRE
St Columba's Day Kindergarten,37 Banool Road,BALWYN,3103,VIC,BOROONDARA CITY
St Dominic Savio Early Learning Centre,19 Donald Street,CLAYTON,3168,VIC,MONASH CITY
St Dunstan's Kindergarten,163B Wattle Valley Road,CAMBERWELL,3124,VIC,BOROONDARA CITY
St Faith's Child Care and Early Learning Centre,56 Mountain View Road,MONTMORENCY,3094,VIC,BANYULE CITY
St Helena Preschool,22-28 Wallowa Road,ELTHAM NORTH,3095,VIC,BANYULE CITY
St Hellier Street Child Day Care,95 St Hellier Street,HEIDELBERG HEIGHTS,3081,VIC,BANYULE CITY
St James Kindergarten,1201 Riversdale Road,BOX HILL,3128,VIC,WHITEHORSE CITY
St John The Baptist (Sandringham) Kindergarten,16 D'arcy Avenue,SANDRINGHAM,3191,VIC,BAYSIDE CITY
St John's Anglican Kindergarten,86 Clendon Road,TOORAK,3142,VIC,STONNINGTON CITY
St Johns Kindergarten,9 Toorak Avenue,CROYDON,3136,VIC,MAROONDAH CITY
St Johns Lutheran Kindergarten,33 Aberdeen Street,NEWTOWN,3220,VIC,GREATER GEELONG CITY
St Johns Preschool,2 Carmichael Road,OAKLEIGH,3166,VIC,MONASH CITY
St Justine Child Care Centre,975 Cranbourne - Frankston Rd,CRANBOURNE,3977,VIC,CASEY CITY
St Leonard's College Early Learning Centre-Brighton,163 South Road,BRIGHTON EAST,3187,VIC,BAYSIDE CITY
St Linus Kindergarten,11 Delta Avenue,MERLYNSTON,3058,VIC,MORELAND CITY
St Luke's Anglican Kindergarten, Luke Street,MOE,3825,VIC,LATROBE CITY
St Lukes Highton Kindergarten,172 Barrabool Road,HIGHTON,3216,VIC,GREATER GEELONG CITY
St Lukes Uniting Kindergarten,94 Essex Road,MOUNT WAVERLEY,3149,VIC,MONASH CITY
St Margaret's Preschool,174 Deakin Avenue,MILDURA,3500,VIC,MILDURA RURAL CITY
St Margaret's School Pre-prep,27-47 Gloucester Avenue,BERWICK,3806,VIC,CASEY CITY
St Mary's Kindergarten, Cnr Queensberry St & Howard St,NORTH MELBOURNE,3051,VIC,MELBOURNE CITY
St Marys Preschool, Cnr Hughes and Dendy Streets,BRIGHTON EAST,3187,VIC,BAYSIDE CITY
St Mel's Kindergarten,202 Archer Street,SHEPPARTON,3630,VIC,GREATER SHEPPARTON CITY
St Michael's Grammar School Kindergarten,8 - 12 Marlton Crescent,ST KILDA,3182,VIC,PORT PHILLIP CITY
St Paul's Early Learning Centre - Warragul,150 Bowen Street,WARRAGUL,3820,VIC,BAW BAW SHIRE
St Pauls Lutheran Kindergarten,303 Torquay Road,GROVEDALE,3216,VIC,GREATER GEELONG CITY
St Paul's Traralgon Campus,46 Cross's Road,TRARALGON,3844,VIC,LATROBE CITY
St Peter's Anglican Kindergarten,33  Bank Street,BOX HILL,3128,VIC,WHITEHORSE CITY
St Peter's Early Learning Centre,581 Toorak Road,TOORAK,3142,VIC,STONNINGTON CITY
St Peters Kindergarten,77A Were Street,BRIGHTON,3186,VIC,BAYSIDE CITY
St Scholastica's Kindergarten,13 Pheasant Street,BURWOOD,3125,VIC,WHITEHORSE CITY
St Vincent's Early Learning Centre,91-101 Victoria Parade,FITZROY,3065,VIC,YARRA CITY
Stanhope & District Kindergarten,1 Godley Place,STANHOPE,3623,VIC,CAMPASPE SHIRE
Stanley Street Preschool,24 Stanley Street,WODONGA,3690,VIC,WODONGA RURAL CITY
Starfish Early Learning Centre,168 Canterbury Road,BLACKBURN SOUTH,3130,VIC,WHITEHORSE CITY
Starfish Early Learning Centre (Camberwell),164-168 Warrigal Road,CAMBERWELL,3124,VIC,BOROONDARA CITY
Station House Early Years Learning,16-18 Station Street,CRANBOURNE,3977,VIC,CASEY CITY
Stepping Stones Kindergarten & Childcare Centre,32A Arthur Street,ST ALBANS,3021,VIC,BRIMBANK CITY
Stewarts Lane Preschool,9 Stewarts Lane,SUNBURY,3429,VIC,HUME CITY
Stonnington Children's Centre,110 Union Street,WINDSOR,3181,VIC,STONNINGTON CITY
Stratford Kindergarten,15 Dixon Street,STRATFORD,3862,VIC,WELLINGTON SHIRE
Strathaird Kindergarten,106-108 Strathaird Drive,NARRE WARREN,3805,VIC,CASEY CITY
Strathcona Early Learning Centre,34 Scott Street,CANTERBURY,3126,VIC,BOROONDARA CITY
Strathfieldsaye Preschool,26 Club Court,STRATHFIELDSAYE,3551,VIC,GREATER BENDIGO CITY
Strathmerton Preschool, Butt Street,STRATHMERTON,3641,VIC,MOIRA SHIRE
Strathmore Children's Centre, Loeman Street,STRATHMORE,3041,VIC,MOONEE VALLEY CITY
Strathmore Heights Kindergarten,148 Mascoma Street,STRATHMORE,3041,VIC,MOONEE VALLEY CITY
Strong Drive Kindergarten,101 Strong Drive,HAMPTON PARK,3976,VIC,CASEY CITY
Studley Park Kindergarten,31 Stawell Street,KEW,3101,VIC,BOROONDARA CITY
Summerhill Park Kindergarten,46 Audrey Crescent,GLEN IRIS,3146,VIC,BOROONDARA CITY
Sundowner Kindergarten,19-21 Jacobs Drive,CLARINDA,3169,VIC,KINGSTON CITY
Sunningdale Children's Centre,13A Dornoch Drive,SUNBURY,3429,VIC,HUME CITY
Sunny Stars Berwick,1 - 3 Michelle Drive,BERWICK,3806,VIC,CASEY CITY
Sunnyside Kindergarten,5 Cooinda Place,MALVERN EAST,3145,VIC,STONNINGTON CITY
Sunrise Kindergarten and Long Day Care Centre,199 Clauscen Street,FITZROY NORTH,3068,VIC,YARRA CITY
Sunshine Heights Kindergarten, Glengala Road,SUNSHINE,3020,VIC,BRIMBANK CITY
Sunshine Kindergarten,34 Devonshire Road,SUNSHINE,3020,VIC,BRIMBANK CITY
Sunshine Park Estate Kindergarten,14 A Southwold Street,ST ALBANS,3021,VIC,BRIMBANK CITY
Sunshine South Kindergarten,31 Ardoyne Street,SUNSHINE,3020,VIC,BRIMBANK CITY
Surfside Kindergarten Inc,1 John Dory Drive,OCEAN GROVE,3226,VIC,GREATER GEELONG CITY
Surrey Hills Baptist Church Child Care Centre,277-281 Elgar Road,SURREY HILLS,3127,VIC,WHITEHORSE CITY
Surrey Hills Child Care Centre,1A Beatrice Avenue,SURREY HILLS,3127,VIC,WHITEHORSE CITY
Surrey Hills Day Care Centre,6 Junction Street,SURREY HILLS,3127,VIC,BOROONDARA CITY
Surrey Hills Preschool Centre,18 Verdun Street,SURREY HILLS,3127,VIC,BOROONDARA CITY
Sutherland House,1076 Malvern Road,ARMADALE,3143,VIC,STONNINGTON CITY
Sutherland St Childcare and Kindergarten,65 Sutherland St,KILMORE,3764,VIC,MITCHELL SHIRE
Swan Childcare,3-5 Purnell Rd,CORIO,3214,VIC,GREATER GEELONG CITY
Swan Hill North Preschool,64 Pye Street,SWAN HILL,3585,VIC,SWAN HILL RURAL CITY
Swan Hill South Kindergarten,5 Willick Street,SWAN HILL,3585,VIC,SWAN HILL RURAL CITY
Swan Reach & District Kindergarten,38 Swan Street,SWAN REACH,3903,VIC,EAST GIPPSLAND SHIRE
Swanston Street Children's Centre,856 Swanston Street,CARLTON,3053,VIC,MELBOURNE CITY
Sweetland Road Early Learning Centre,24 Sweetland Road,BOX HILL,3128,VIC,WHITEHORSE CITY
Swifts Creek Kindergarten/Early Childhood Development Centre,6846 Great Alpine Road,SWIFTS CREEK,3896,VIC,EAST GIPPSLAND SHIRE
Swinburne Avenue Children's Centre,8 Swinburne Avenue,GISBORNE,3437,VIC,MACEDON RANGES SHIRE
Swinburne Children's Centre, Melba Avenue,LILYDALE,3140,VIC,YARRA RANGES SHIRE
Swinburne Children's Centre Croydon,10-52 Norton Road,CROYDON,3136,VIC,MAROONDAH CITY
Swinburne Children's Centre Wantirna,369 Stud Road,WANTIRNA SOUTH,3152,VIC,KNOX CITY
Swinburne Community Child Care,32-36 Park Street,HAWTHORN,3122,VIC,BOROONDARA CITY
Swinburne Prahran Community Children's Centre,131-133 Union Street,WINDSOR,3181,VIC,STONNINGTON CITY
Sydenham Central Early Learning Kinders,550 Melton Highway,SYDENHAM,3037,VIC,BRIMBANK CITY
Sydenham Kindergarten,7 Community Hub,SYDENHAM,3037,VIC,BRIMBANK CITY
Syndal Child Care & Early Learning Centre,6 Huxtable Street,SYNDAL,3149,VIC,MONASH CITY
Syndal Kindergarten,2 Matthew Street,GLEN WAVERLEY,3150,VIC,MONASH CITY
Szalmuk Family Early Learning Centre,15 Mayfield Avenue,ST KILDA EAST,3183,VIC,GLEN EIRA CITY
T L Stone Memorial Kindergarten,4 Lake Street,MARYBOROUGH,3465,VIC,CENTRAL GOLDFIELDS SHIRE
TAFE Kids Inc, 453 Benetook Avenue,MILDURA,3500,VIC,MILDURA RURAL CITY
Talbingo Kindergarten,1A Fleetwood Drive,NARRE WARREN,3805,VIC,CASEY CITY
Tallangatta & District Kindergarten, Banool Road,TALLANGATTA,3700,VIC,TOWONG SHIRE
Tally Ho Kindergarten,24 Martin Place,GLEN WAVERLEY,3150,VIC,MONASH CITY
Tallygaroopna Children's Centre, Victoria Street,TALLYGAROOPNA,3634,VIC,GREATER SHEPPARTON CITY
Tangambalanga Child Care Centre,6 Huon Rd,TANGAMBALANGA,3691,VIC,INDIGO SHIRE
Taraleigh Steiner Pre-School,90 Bignell Road,BENTLEIGH EAST,3165,VIC,GLEN EIRA CITY
Taralye Kindergarten,137 Blackburn Road,BLACKBURN,3130,VIC,WHITEHORSE CITY
Tarcoola Preschool,12-16 Tarcoola Avenue,COOLAROO WEST,3048,VIC,HUME CITY
Tarneit Central Kindergarten,21 - 23 Brinbrook Street,TARNEIT,3029,VIC,WYNDHAM CITY
Tarneit Early Learning Centre,19-25 Turva Avenue,TARNEIT,3029,VIC,WYNDHAM CITY
Tarneit Kindergarten,150 Sunset Views Boulevard,TARNEIT,3029,VIC,WYNDHAM CITY
Tarralla Kindergarten,38 Gracedale Avenue,RINGWOOD EAST,3135,VIC,MAROONDAH CITY
Tatura Children's Centre,5-9 Kerferd Street,TATURA,3616,VIC,GREATER SHEPPARTON CITY
Taylor Drive Preschool,91 Taylor Drive,TULLAMARINE,3043,VIC,HUME CITY
Taylors Hill Kindergarten,58-60 Jacaranda Drive,TAYLORS HILL,3037,VIC,MELTON SHIRE
Taylors Lakes Kindergarten, Cnr Cocoparra Cres & Grampians Crt,TAYLORS LAKES,3038,VIC,BRIMBANK CITY
Taylor's Lane Preschool Centre,130 Taylors Lane,ROWVILLE,3178,VIC,KNOX CITY
Tecoma Kindergarten,1534 Burwood Highway,TECOMA,3160,VIC,YARRA RANGES SHIRE
Teesdale Preschool, Cnr Mercer St & Bridge St,TEESDALE,3328,VIC,GOLDEN PLAINS SHIRE
Templestowe Heights Preschool,64 Fyfe Drive,TEMPLESTOWE LOWER,3107,VIC,MANNINGHAM CITY
Templestowe Preschool,3 Swilk Street,TEMPLESTOWE,3106,VIC,MANNINGHAM CITY
Templestowe Valley Preschool,3 Birchwood Avenue,TEMPLESTOWE LOWER,3107,VIC,MANNINGHAM CITY
Templestowe World of Learning,247-249 High Street,TEMPLESTOWE LOWER,3107,VIC,MANNINGHAM CITY
Templeton Orchards Preschool,51 Templeton Street,WANTIRNA,3152,VIC,KNOX CITY
Terrara Preschool,15 Walbrook Drive,VERMONT SOUTH,3133,VIC,WHITEHORSE CITY
The Avenue Children's Centre and Kindergarten,39 The Avenue,BALACLAVA,3183,VIC,PORT PHILLIP CITY
The Basin Preschool,385 Forest Road,THE BASIN,3154,VIC,KNOX CITY
The Children's Centre at The Body Shop,1 Cnr Wellington and  Jacksons Road,MULGRAVE,3170,VIC,MONASH CITY
The Cottage Childcare Centre,208 Monbulk Road,MONBULK,3793,VIC,YARRA RANGES SHIRE
The Crossway Pre School, Cnr The Crossway & Upland Rd,STRATHMORE,3041,VIC,MOONEE VALLEY CITY
The Cubby House at Colac,91-97 Pound Road,COLAC,3250,VIC,COLAC-OTWAY SHIRE
The Empire Early Learning Centre,8 Empire Street,FOOTSCRAY,3011,VIC,MARIBYRNONG CITY
The Farmhouse,3494 Maroondah Highway,MANSFIELD,3722,VIC,MANSFIELD SHIRE
The Fields Preschool Centre, Pitfield Crescent,ROWVILLE,3178,VIC,KNOX CITY
The Geelong College Early Learning Centre and Outside School Hours Care, Minerva Road,NEWTOWN,3220,VIC,GREATER GEELONG CITY
The Grange Kindergarten,260-280 Hogans Road,HOPPERS CROSSING,3029,VIC,WYNDHAM CITY
The Grove Children's Centre,38-40 The Grove,COBURG,3058,VIC,MORELAND CITY
The Hamilton and Alexandra College Early Learning Centre, 241 Kent Rd,HAMILTON,3300,VIC,SOUTHERN GRAMPIANS SHIRE
The Jan Juc Preschool, Wattle Court,JAN JUC,3228,VIC,SURF COAST SHIRE
The Joey Club Melbourne,450 Melrose Drive,MELBOURNE AIRPORT,3046,VIC,HUME CITY
The Knox School Pre-Prep Centre,220 Burwood Highway,WANTIRNA SOUTH,3152,VIC,KNOX CITY
The Learning Sanctuary Park Orchards,239 Warrandyte Road,PARK ORCHARDS,3114,VIC,MANNINGHAM CITY
The Manor Kindergarten,186 Werribee Street North,WERRIBEE,3030,VIC,WYNDHAM CITY
The Merrell Kindergarten,92 Maud Street,BALWYN NORTH,3104,VIC,BOROONDARA CITY
The Minifie Park Child Care Centre,290 Belmore Road,BALWYN,3103,VIC,BOROONDARA CITY
The Patch Early Learning Centre, Kallista-Emerald Road,THE PATCH,3792,VIC,YARRA RANGES SHIRE
The Peninsula School Kindergarten,72 Wooralla Drive,MOUNT ELIZA,3930,VIC,MORNINGTON PENINSULA SHIRE
The Playhouse,3-5 Eltham Street,DALLAS,3047,VIC,HUME CITY
The Range Children's Centre,87 Kororoit Creek Road,WILLIAMSTOWN,3016,VIC,HOBSONS BAY CITY
The Stables Kindergarten,284 Childs Road,MILL PARK,3082,VIC,WHITTLESEA CITY
The University of Melbourne - Melbourne Graduate School of Education Early Learning Centre,40 Clarke Street,ABBOTSFORD,3067,VIC,YARRA CITY
Thinking Kids Children's Centre,77 Poplar Road,PARKVILLE,3052,VIC,MELBOURNE CITY
Thomastown Child Care Centre,129 Edgars Road,THOMASTOWN,3074,VIC,WHITTLESEA CITY
Thomastown Learning Centre,113-115 Dalton Road,THOMASTOWN,3074,VIC,WHITTLESEA CITY
Thomastown West Kindergarten,127 Edgars Road,THOMASTOWN,3074,VIC,WHITTLESEA CITY
Thomson Kindergarten, Godfrey Street,EAST GEELONG,3219,VIC,GREATER GEELONG CITY
Thornbury Kids,80-82  Wilmoth Street,THORNBURY,3071,VIC,DAREBIN CITY
Thornbury Kindergarten,8C Newcastle Street,THORNBURY,3071,VIC,DAREBIN CITY
Thornbury Learning Centre,52 Speight Street,THORNBURY,3071,VIC,DAREBIN CITY
Thorpdale Kindergarten,14 Johnstone Street,THORPDALE,3835,VIC,BAW BAW SHIRE
Through Road Child Care Centre,171 Through Road,CAMBERWELL,3124,VIC,BOROONDARA CITY
Tiggers,895-897 Toorak Road,CAMBERWELL,3124,VIC,BOROONDARA CITY
Timbarra Kindergarten,20-26 Parkhill Drive,BERWICK,3806,VIC,CASEY CITY
Timboon & District Kindergarten, 1 Wark Street,TIMBOON,3268,VIC,CORANGAMITE SHIRE
Time 4 Tots Early Learning Centre,2 - 6 Princes Highway,PAKENHAM,3810,VIC,CARDINIA SHIRE
Time Out Child Care - Carnegie,1 TOOLAMBOOL ROAD,CARNEGIE,3163,VIC,GLEN EIRA CITY
Time-Out Child Care - Hughesdale,105A Kangaroo Road,HUGHESDALE,3166,VIC,MONASH CITY
Time-Out Child Care - Northcote,38 Arthurton Road,NORTHCOTE,3070,VIC,DAREBIN CITY
Tinkabell Early Learning Centre,456 Springfield Road,MITCHAM,3132,VIC,WHITEHORSE CITY
Tinning Street Child Care Centre,77 Tinning Street,BRUNSWICK,3056,VIC,MORELAND CITY
Tintern Schools Early Learning Centre & OSHC,90 Alexandra Road,RINGWOOD EAST,3135,VIC,MAROONDAH CITY
Tiny Treasures Early Learning Centre,66 - 68 Katrina Drive,BURNSIDE,3023,VIC,MELTON SHIRE
Tommaso Fiaschi Child Care Centre,59-65 Station Street,CARLTON,3053,VIC,MELBOURNE CITY
Tongala Kindergarten,8 Nihill Street,TONGALA,3621,VIC,CAMPASPE SHIRE
Toolamba Preschool, Wren Street,TOOLAMBA,3614,VIC,GREATER SHEPPARTON CITY
Toora Kindergarten,25 Grey Street,TOORA,3962,VIC,SOUTH GIPPSLAND SHIRE
Tooradin Kindergarten,102 South Gippsland Highway,TOORADIN,3980,VIC,CASEY CITY
Toorak College Preschool, Williams Road,MOUNT ELIZA,3930,VIC,MORNINGTON PENINSULA SHIRE
Tootgarook Preschool,24 Barry Street,TOOTGAROOK,3941,VIC,MORNINGTON PENINSULA SHIRE
Top Kids Childcare & Pre-School,30 Bond Street,RINGWOOD,3134,VIC,MAROONDAH CITY
Top Kids Early Learning Centre,172 Boronia Road,BORONIA,3155,VIC,KNOX CITY
Torquay Childrens Hub Kindergarten, 27 Grossmans Road,TORQUAY,3228,VIC,SURF COAST SHIRE
Torquay Early Learning Centre,25 Grossmans Road,TORQUAY,3228,VIC,SURF COAST SHIRE
Total Care for Kids,271 Thompsons Road,TEMPLESTOWE LOWER,3107,VIC,MANNINGHAM CITY
Town & Country Children's Centre,199 South Valley Road,HIGHTON,3216,VIC,GREATER GEELONG CITY
Trafalgar Kindergarten,30 Contingent Street,TRAFALGAR,3824,VIC,BAW BAW SHIRE
Traralgon Early Learning Centre,4-10 Mapleson Drive,TRARALGON,3844,VIC,LATROBE CITY
Traralgon South Kindergarten,7 Keith Morgan Drive,TRARALGON SOUTH,3844,VIC,LATROBE CITY
Tree House Child Care,241 Kooyong Road,ELSTERNWICK,3185,VIC,GLEN EIRA CITY
Tree House Child Care,43-45 Brighton Rd,ST KILDA,3182,VIC,PORT PHILLIP CITY
Tree House Child Care - Preston,418 Murray Road,PRESTON,3072,VIC,DAREBIN CITY
Tree House Early Learning - Ascot Vale,41 Maribyrnong Road,ASCOT VALE,3032,VIC,MOONEE VALLEY CITY
Trentham Kindergarten,6 Bridge Street,TRENTHAM,3458,VIC,HEPBURN SHIRE
Try Coburg Preschool,98 Bell Street,COBURG,3058,VIC,MORELAND CITY
Try Melton West Preschool,2 - 4 West Melton Drive,WEST MELTON,3337,VIC,MELTON SHIRE
Try Mt. Carberry Preschool,35 Exford Road,MELTON SOUTH,3338,VIC,MELTON SHIRE
TRY Peninsula Montessori Centre, 9-11 Frank Street,FRANKSTON,3199,VIC,FRANKSTON CITY
Try Youth South Yarra,259 Malvern Road,SOUTH YARRA,3141,VIC,STONNINGTON CITY
Tulip Street Early Learning Centre,99A Tulip Street,CHELTENHAM,3192,VIC,BAYSIDE CITY
Tungamah Kindergarten & Early Childhood Service, Middleton Street,TUNGAMAH,3728,VIC,MOIRA SHIRE
Tunstall Square Kindergarten, Maggs Street,DONCASTER EAST,3109,VIC,MANNINGHAM CITY
Turner Street Kindergarten,38 Turner Street,PASCOE VALE SOUTH,3044,VIC,MORELAND CITY
Twin Hills Preschool,39 Mayfair Avenue,TEMPLESTOWE LOWER,3107,VIC,MANNINGHAM CITY
Twin Oaks Child Care,93 Sheedy Road,GISBORNE,3437,VIC,MACEDON RANGES SHIRE
Tyabb Preschool,1475 Frankston-Flinders Road,TYABB,3913,VIC,MORNINGTON PENINSULA SHIRE
Tyers Kindergarten,74 Main Road,TYERS,3844,VIC,LATROBE CITY
UB Children's Centre at SMB, 105 Lydiard Street South,BALLARAT,3350,VIC,BALLARAT CITY
Una's Child Care Centre, 33 Cooper St (Entrance Dalton Rd),EPPING,3076,VIC,WHITTLESEA CITY
Undera Kindergarten, Anderson Street,UNDERA,3629,VIC,GREATER SHEPPARTON CITY
University Early Learning Centre,299 Baillie Street,HORSHAM,3400,VIC,HORSHAM RURAL CITY
Unwin Street Preschool,6 Unwin Street,KYABRAM,3620,VIC,CAMPASPE SHIRE
Upper Beaconsfield Kindergarten,36 Stoney Creek Road,BEACONSFIELD UPPER,3808,VIC,CARDINIA SHIRE
Upper Ferntree Gully Kindergarten,1 Rollings Road,UPPER FERNTREE GULLY,3156,VIC,KNOX CITY
Upper Yarra Community House,41 Little Yarra Road,YARRA JUNCTION,3797,VIC,YARRA RANGES SHIRE
Upwey Kindergarten,1443 Burwood Highway,UPWEY,3158,VIC,YARRA RANGES SHIRE
Upwey South Preschool,125 Morris Road,UPWEY SOUTH,3158,VIC,YARRA RANGES SHIRE
Valley Brook Kindergarten,2 Brook Court,HAMPTON PARK,3976,VIC,CASEY CITY
Vasey Park Preschool Inc,15 Vasey Avenue,LALOR,3075,VIC,WHITTLESEA CITY
Vermont Primary School Kindergarten,10 Nurlendi Road,VERMONT,3133,VIC,WHITEHORSE CITY
Vermont South Children's Services Centre, Cnr Karobran Dr & Livingstone Rd,VERMONT SOUTH,3133,VIC,WHITEHORSE CITY
Victoria Street Early Learning Centre,54-56 Victoria Street,PRESTON,3072,VIC,DAREBIN CITY
Victoria University Children's Centre - Footscray Nicholson, Albert Street,FOOTSCRAY,3011,VIC,MARIBYRNONG CITY
Victoria University Children's Centre - Footscray Park,8 Geelong Road,FOOTSCRAY,3011,VIC,MARIBYRNONG CITY
Victoria University Children's Centre - Newport,80 Champion Road,NEWPORT,3015,VIC,HOBSONS BAY CITY
Victoria University Children's Centre - Werribee Campus, Hoppers Lane,WERRIBEE,3030,VIC,WYNDHAM CITY
Viewbank Early Childhood Centre,30-32 Bannockburn Road,VIEWBANK,3084,VIC,BANYULE CITY
Viewbank Preschool,84 Duff Parade,VIEWBANK,3084,VIC,BANYULE CITY
Violet Town and District Early Childhood Centre, Hyacinth Street,VIOLET TOWN,3669,VIC,STRATHBOGIE SHIRE
Virginia Park Child Care Centre,232A East Boundary Road,BENTLEIGH EAST,3165,VIC,GLEN EIRA CITY
Vista Valley Kindergarten,3 Vista Street,BULLEEN,3105,VIC,MANNINGHAM CITY
Vista Way Kindergarten, Vista Way,WERRIBEE,3030,VIC,WYNDHAM CITY
Wahroonga Preschool,66 Wahroonga Crescent,GREENSBOROUGH,3088,VIC,BANYULE CITY
Walker Street Community Kindergarten, 89 Walker Street,CLIFTON HILL,3068,VIC,YARRA CITY
Walkers Road Preschool,47 Walkers Road,MOUNT ELIZA,3930,VIC,MORNINGTON PENINSULA SHIRE
Wallaby Childcare Bundoora,14 Scholar Drive,BUNDOORA,3083,VIC,WHITTLESEA CITY
Wallaby Childcare Early Learning Centre,9 Bulimba Drive,DOREEN,3754,VIC,WHITTLESEA CITY
Wallaby Childcare Early Learning Centre Creekside,1 The Crossing,CAROLINE SPRINGS,3023,VIC,MELTON SHIRE
Wallaby Childcare Epping,2 SHIMMER STREET,EPPING,3076,VIC,WHITTLESEA CITY
Wallaby Early Learning Centre Greensborough, 45 Civic Drive,GREENSBOROUGH,3088,VIC,NILLUMBIK SHIRE
Wallan Kindergarten, Bentinck Street,WALLAN,3756,VIC,MITCHELL SHIRE
Wallaroo Community Centre, 6 Wallaroo Place,HASTINGS,3915,VIC,MORNINGTON PENINSULA SHIRE
Wandin Preschool, Union Road,WANDIN NORTH,3139,VIC,YARRA RANGES SHIRE
Wandong Kindergarten, Dry Creek Crescent,WANDONG,3758,VIC,MITCHELL SHIRE
Wangaratta Child Care Centre, Cnr Tone Road & Handley Street,WANGARATTA,3677,VIC,WANGARATTA RURAL CITY
Wangaratta West Kindergarten, Cnr Victory St & Orkney St,WANGARATTA,3677,VIC,WANGARATTA RURAL CITY
Wantirna Kinder Haven,17 Jenola Parade,WANTIRNA SOUTH,3152,VIC,KNOX CITY
Warburton Preschool, Riverside Drive,WARBURTON,3799,VIC,YARRA RANGES SHIRE
Ward Avenue Kindergarten,4 Ward Avenue,OAKLEIGH SOUTH,3167,VIC,MONASH CITY
Warekila Preschool, Cnr Kett St & Busana Way,NUNAWADING,3131,VIC,WHITEHORSE CITY
Warracknabeal Memorial Kindergarten,11 Werrigar Street,WARRACKNABEAL,3393,VIC,YARRIAMBIACK SHIRE
Warragul Community Kindergarten,1 Mouritz Street,WARRAGUL,3820,VIC,BAW BAW SHIRE
Warrandyte & District Preschool,10 Taroona Avenue,WARRANDYTE,3113,VIC,MANNINGHAM CITY
Warrandyte Child Care & Preschool Centre Co-op Ltd,2 Masonic Avenue,WARRANDYTE,3113,VIC,MANNINGHAM CITY
Warrandyte Road Early Learning Centre,100 Deep Creek Drive,DONCASTER EAST,3109,VIC,MANNINGHAM CITY
Warrawee Park Preschool,10 The Rameo,BUNDOORA,3083,VIC,BANYULE CITY
Warrnambool East Kindergarten,20A Lava Street,WARRNAMBOOL,3280,VIC,WARRNAMBOOL CITY
Washington Drive Preschool,3 Washington Drive,OAKLEIGH SOUTH,3167,VIC,KINGSTON CITY
Waterlily Early Learning Centre,191 Lyrebird Drive,CARRUM DOWNS,3201,VIC,FRANKSTON CITY
Watsonia North Preschool,68 Macorna Street,WATSONIA,3087,VIC,BANYULE CITY
Watsonia Preschool,19 Crellin Crescent,WATSONIA,3087,VIC,BANYULE CITY
Wattle Hill Kindergarten,19 Livingstone Close,BURWOOD,3125,VIC,WHITEHORSE CITY
Wattle Park Children's Services Centre,25 Livingstone Close,BURWOOD,3125,VIC,WHITEHORSE CITY
Wattletree Early Childhood Centre,256 Wattletree Road,MALVERN,3144,VIC,STONNINGTON CITY
Wattletree House,171 Wattletree Road,MALVERN,3144,VIC,STONNINGTON CITY
Wattletree Preschool,26 Wattletree Road,ELTHAM NORTH,3095,VIC,NILLUMBIK SHIRE
Wattleview Kindergarten, Fuchsia Street,FERNTREE GULLY,3156,VIC,KNOX CITY
Watts Street Children's Centre,10-12 Watts Street,BOX HILL,3128,VIC,WHITEHORSE CITY
Waubra Children's Service, Sunraysia Highway,WAUBRA,3352,VIC,PYRENEES SHIRE
Waurnvale Drive Early Learning Centre,48 Waurnvale Drive,BELMONT,3216,VIC,GREATER GEELONG CITY
Waverley Christian College,1248 High Street Road,WANTIRNA SOUTH,3152,VIC,KNOX CITY
Waverley Foothills Preschool, Gladeswood Drive,MULGRAVE,3170,VIC,MONASH CITY
Waverley Kidz Children's Centre, 604 Waverley Road,GLEN WAVERLEY,3150,VIC,MONASH CITY
Waverley Meadows Preschool,6 Farnham Avenue,WHEELERS HILL,3150,VIC,MONASH CITY
Waverley Montessori Pre-School,2 Einstein Avenue,MULGRAVE,3170,VIC,MONASH CITY
Wayburne Kindergarten,579 Waverley Road,GLEN WAVERLEY,3150,VIC,MONASH CITY
Wedderburn Preschool, 77 Ridge Street,WEDDERBURN,3518,VIC,LODDON SHIRE
Wellington Kindergarten,53  Shaftsbury Drive,MULGRAVE,3170,VIC,MONASH CITY
Wellington Street Kindergarten, Cnr Wellington St & King St,WALLAN,3756,VIC,MITCHELL SHIRE
Welshpool Kindergarten, 15 Main Street,WELSHPOOL,3966,VIC,SOUTH GIPPSLAND SHIRE
Welwyn Kindergarten,44 Welwyn Parade,DEER PARK,3023,VIC,BRIMBANK CITY
Wendouree Children's Services, Gillies Street,WENDOUREE,3355,VIC,BALLARAT CITY
Werribee West Family Centre (Ldc),37 Ballan Road,WERRIBEE,3030,VIC,WYNDHAM CITY
Wesley College Early Childhood Learning Centre,620 High Street Road,GLEN WAVERLEY,3150,VIC,MONASH CITY
Wesley College Prahran Early Learning Centre,625 St Kilda Road,ST KILDA,3182,VIC,PORT PHILLIP CITY
Wesley Pre Prep,5 Gladstone Parade,ELSTERNWICK,3185,VIC,GLEN EIRA CITY
West Gully Preschool,50 Dobson Street,FERNTREE GULLY,3156,VIC,KNOX CITY
West Hawthorn Early Childhood Centre,63 Church Street,HAWTHORN,3122,VIC,BOROONDARA CITY
West Hawthorn Preschool,39 Brook Street,HAWTHORN,3122,VIC,BOROONDARA CITY
Westall Kindergarten,43-45 Westall Road,WESTALL,3169,VIC,KINGSTON CITY
Westerngate Kindergarten,5 Aycliffe Drive,DEER PARK,3023,VIC,BRIMBANK CITY
Westernport Child Care Centre,1 Station Street,LANG LANG,3984,VIC,CARDINIA SHIRE
Westernport Child Care Centre,249 Marine Parade,HASTINGS,3915,VIC,MORNINGTON PENINSULA SHIRE
Westernport Child Care Centre and Kindergarten Cranbourne,142-144 Camms Road,CRANBOURNE,3977,VIC,CASEY CITY
Westernport Child Care Centre and Kindergarten Koo Wee Rup,344 Rossiter Road,KOO WEE RUP,3981,VIC,CARDINIA SHIRE
Westgarth Kindergarten, Clarke Street,NORTHCOTE,3070,VIC,DAREBIN CITY
Westmere Children's Services Centre,490-492 Barry Road,COOLAROO,3048,VIC,HUME CITY
Westmere Preschool,38 Westmere Crescent,COOLAROO,3048,VIC,HUME CITY
Wheelers Hill Child Care Centre,303-307 Jells Road,WHEELERS HILL,3150,VIC,MONASH CITY
White Road Kindergarten Wonthaggi,136 White Road,WONTHAGGI,3995,VIC,BASS COAST SHIRE
Whittlesea Child Care Centre,57-61 Laurel Street,WHITTLESEA,3757,VIC,WHITTLESEA CITY
Whitworth Ave Minaret Preschool," 75 A, Whitworth Ave",SPRINGVALE,3171,VIC,GREATER DANDENONG CITY
Whorouly & District Kindergarten,10 Church Street,WHOROULY,3735,VIC,WANGARATTA RURAL CITY
Will Will Rook Preschool (KODE Glenroy), 208 Hilton Street,GLENROY,3046,VIC,MORELAND CITY
Willaura & District Kindergarten, 91 Main Street,WILLAURA,3379,VIC,ARARAT RURAL CITY
William Hovell Preschool,28 Hendy Street,CORIO,3214,VIC,GREATER GEELONG CITY
William Parker Memorial Kindergarten,33 Griffen Street,HAMLYN HEIGHTS,3215,VIC,GREATER GEELONG CITY
William Road Preschool,20 William Road,CARRUM DOWNS,3201,VIC,FRANKSTON CITY
Williams Child Care Centre, 17 Campbell Parade RAAF Williams Laverton,LAVERTON,3028,VIC,HOBSONS BAY CITY
Williams House Kindergarten, Broughton Drive,BELMONT,3216,VIC,GREATER GEELONG CITY
Williamstown Community and Education Centre Occasional Care,14 Thompson Street,WILLIAMSTOWN,3016,VIC,HOBSONS BAY CITY
Willis Street Kindergarten,10 - 12 Willis Street,ST ALBANS,3021,VIC,BRIMBANK CITY
Willora Kindergarten,75-77 Willora Crescent,CRANBOURNE,3977,VIC,CASEY CITY
Willow Grove Kindergarten,12 Main Road,WILLOW GROVE,3825,VIC,BAW BAW SHIRE
Wilmington Kindergarten,7-13 Wilmington Ave,HOPPERS CROSSING,3029,VIC,WYNDHAM CITY
Wilson Street Kindergarten,11 Wilson Street,BRIGHTON,3186,VIC,BAYSIDE CITY
Wilsons Road Early Learning Centre,128 Wilsons Road,NEWCOMB,3219,VIC,GREATER GEELONG CITY
Windermere Reserve Preschool, Windermere Drive,FERNTREE GULLY,3156,VIC,KNOX CITY
Wingate Avenue Childrens Co-op,13B Wingate Avenue,ASCOT VALE,3032,VIC,MOONEE VALLEY CITY
Winifred Nance Kindergarten,5 Gilmartin Street,COLAC,3250,VIC,COLAC-OTWAY SHIRE
Winston Hills Preschool,18 Rohan Street,VIEWBANK,3084,VIC,BANYULE CITY
Wirilda Kindergarten,11 Wirilda Crescent,FRANKSTON NORTH,3200,VIC,FRANKSTON CITY
Wirrigirri Preschool,2 Darebin Place,CAROLINE SPRINGS,3023,VIC,MELTON SHIRE
Woady Yaloak Kindergarten,25 Pitfield Road,SCARSDALE,3351,VIC,GOLDEN PLAINS SHIRE
Wonder Childcare,171 Military Road,AVONDALE HEIGHTS,3034,VIC,MOONEE VALLEY CITY
Wonder World Play Centre,399 - 399A  Murray Rd (via Ford Street),PRESTON,3072,VIC,DAREBIN CITY
WonderKindy Port Melbourne,5 Ingles Street,PORT MELBOURNE,3207,VIC,PORT PHILLIP CITY
Wonderland Childcare & Kinder,6 High Street,DONCASTER,3108,VIC,MANNINGHAM CITY
Wonderworld Childcare & Kindergarten,104-106 Templestowe Road,BULLEEN,3105,VIC,MANNINGHAM CITY
Wonnai Kindergarten,2 Elm Grove,LANGWARRIN,3910,VIC,FRANKSTON CITY
Wood Street Childcare Centre,272-272A Wood Street,PRESTON,3072,VIC,DAREBIN CITY
Woodbine Road Preschool,4 Woodbine Road,CRANBOURNE,3977,VIC,CASEY CITY
Woodend Care for Kids,72 East Street,WOODEND,3442,VIC,MACEDON RANGES SHIRE
Woodend Kindergarten,10 Nicholson Street,WOODEND,3442,VIC,MACEDON RANGES SHIRE
Woodhouse Grove Kindergarten,112 Woodhouse Grove,BOX HILL NORTH,3129,VIC,WHITEHORSE CITY
Woodland Education Childcare Kindergarten and School Age Services, 380 Dorset Rd,CROYDON,3136,VIC,MAROONDAH CITY
Woodland Education Jolimont, Level 3/120 Jolimont Road,JOLIMONT,3002,VIC,MELBOURNE CITY
Woodlands House Child Care,12-14 Wyatt Street,OCEAN GROVE,3226,VIC,GREATER GEELONG CITY
Woodlands Preschool,15 Wyatt Street,OCEAN GROVE,3226,VIC,GREATER GEELONG CITY
Woodridge Preschool,3 Novello Court,ELTHAM,3095,VIC,NILLUMBIK SHIRE
Woodville Park Kindergarten,80 Woodville Park Drive,HOPPERS CROSSING,3029,VIC,WYNDHAM CITY
Woomelang Preschool, Roberts Street,WOOMELANG,3485,VIC,YARRIAMBIACK SHIRE
Woori Yallock Kindergarten, Symes Road,WOORI YALLOCK,3139,VIC,YARRA RANGES SHIRE
Woorinen South Preschool, McCalman Street,WOORINEN SOUTH,3588,VIC,SWAN HILL RURAL CITY
Wycheproof Preschool Play Centre,65 High Street,WYCHEPROOF,3527,VIC,BULOKE SHIRE
Wydinia Kindergarten & Early Learning Centre,19 Dunoon Street,COLAC,3250,VIC,COLAC-OTWAY SHIRE
Wyndarra Children's Centre,52 Derrimut Road,HOPPERS CROSSING,3029,VIC,WYNDHAM CITY
Wyndham Vale Kindergarten,86 Manor Lakes Blvd,WYNDHAM VALE,3024,VIC,WYNDHAM CITY
Xavier College - Burke Hall Early Years Centre, 2 Nolan Avenue,KEW,3101,VIC,BOROONDARA CITY
Xavier College - Kostka Hall Early Years Programme,47 South Road,BRIGHTON,3186,VIC,BAYSIDE CITY
Yackandandah Kindergarten, Isaacs Avenue,YACKANDANDAH,3749,VIC,INDIGO SHIRE
Yallambie Park Pre-school,311 Yallambie Rd,YALLAMBIE,3085,VIC,BANYULE CITY
Yallourn North Kindergarten,39 Carmel Avenue,YALLOURN NORTH,3825,VIC,LATROBE CITY
Yappera Childrens Centre,2B Watt Street,THORNBURY,3071,VIC,DAREBIN CITY
Yarra Glen Child Care Centre,43 Forest Street,YARRA GLEN,3775,VIC,YARRA RANGES SHIRE
Yarra Glen Preschool, 12 Anzac Avenue,YARRA GLEN,3775,VIC,YARRA RANGES SHIRE
Yarra Park Children's Centre,27 Berry Street,EAST MELBOURNE,3002,VIC,MELBOURNE CITY
Yarra Valley Grammar School Early Learning Centre, Kalinda Road,RINGWOOD,3134,VIC,MAROONDAH CITY
Yarra Valley Preschool, 34 Hakea Street,TEMPLESTOWE,3106,VIC,MANNINGHAM CITY
Yarra Warra Preschool,184-186 Research-Warrandyte Road,WARRANDYTE NORTH,3113,VIC,NILLUMBIK SHIRE
Yarraberg Child Care & Community Centre,4 River Street,RICHMOND,3121,VIC,YARRA CITY
Yarragon Kindergarten,6 Murray Street,YARRAGON,3823,VIC,BAW BAW SHIRE
Yarralea Children's Centre,54 Yarralea Street,ALPHINGTON,3078,VIC,YARRA CITY
Yarraleen Preschool,92 Rocklea Road,BULLEEN,3105,VIC,MANNINGHAM CITY
Yarraman Centre,33 Joffre Street,NOBLE PARK,3174,VIC,GREATER DANDENONG CITY
Yarrambat / Plenty Preschool,450 Ironbark Road,YARRAMBAT,3091,VIC,NILLUMBIK SHIRE
Yarraville Community Kindergarten,2 Norfolk Street,YARRAVILLE,3013,VIC,MARIBYRNONG CITY
Yarrawonga Early Childhood Centre,Lot 17 Orr Street,YARRAWONGA,3730,VIC,MOIRA SHIRE
Yea and District Childrens Centre,23 The Semi Circle,YEA,3717,VIC,MURRINDINDI SHIRE
Yerambooee Kindergarten,55 Maple Crescent,HOPPERS CROSSING,3029,VIC,WYNDHAM CITY
Yeshivah Beth Rivkah Preschools,10-12 Balaclava Road,ST KILDA EAST,3183,VIC,GLEN EIRA CITY
Yeshivah Brighton Kindergarten,136 Marriage Road,BRIGHTON EAST,3187,VIC,BAYSIDE CITY
Yesodei Hatorah College,39 Dickens Street,ELWOOD,3184,VIC,PORT PHILLIP CITY
Yongala Kindergarten,25 Nott Street,BALWYN,3103,VIC,BOROONDARA CITY
York Street Kindergarten,410 York Street,BALLARAT,3350,VIC,BALLARAT CITY
Young Street Kindergarten,23 Young St,BACCHUS MARSH,3340,VIC,MOORABOOL SHIRE
Yuille Park Children's Centre,39 Violet Grove,WENDOUREE WEST,3355,VIC,BALLARAT CITY
